Latitude,Longitude,Name,State,Country
8.5,77.5,Nanguneri,Tamil Nadu,IN
9.5,78.5,Mudukulathur,Tamil Nadu,IN
9.5,76.5,Kuttanad,Kerala,IN
9.5,77.5,Rajapalayam,Tamil Nadu,IN
8.25,77.0,Kanyakumari,Tamil Nadu,IN
8.5,77.25,Vilavancode,Tamil Nadu,IN
8.75,76.75,Varkala,Kerala,IN
9.0,77.5,Veerakeralamputhur,Tamil Nadu,IN
9.0,78.0,Ottapidaram,Tamil Nadu,IN
8.5,77.75,Nanguneri,Tamil Nadu,IN
9.25,76.5,Karthikappally,Kerala,IN
9.0,76.5,Kollam,Kerala,IN
8.75,77.25,Ambasamudram,Tamil Nadu,IN
8.5,76.75,Kanyakumari,Tamil Nadu,IN
8.25,77.25,Kalkulam,Tamil Nadu,IN
9.5,79.25,India,,IN
9.25,78.0,Ettayapuram,Tamil Nadu,IN
9.25,77.5,Sankarankoil,Tamil Nadu,IN
8.5,77.0,Thiruvananthapuram,Kerala,IN
8.75,77.5,Cheranmahadevi,Tamil Nadu,IN
9.0,77.25,Shenkottai,Tamil Nadu,IN
8.75,77.0,Nedumangad,Kerala,IN
9.0,76.75,Kottarakkara,Kerala,IN
8.5,78.0,Tiruchendur,Tamil Nadu,IN
8.75,77.75,Palayamkottai,Tamil Nadu,IN
9.25,76.75,Kozhencherry,Kerala,IN
9.25,77.25,Konni,Kerala,IN
9.5,76.75,Changanassery,Kerala,IN
9.5,77.75,Sivakasi,Tamil Nadu,IN
8.25,77.75,Radhapuram,Tamil Nadu,IN
8.25,77.5,Thovalai,Tamil Nadu,IN
9.25,77.0,Konni,Kerala,IN
9.5,78.0,Virudhunagar,Tamil Nadu,IN
9.25,77.75,Sankarankoil,Tamil Nadu,IN
9.25,78.25,Vilathikulam,Tamil Nadu,IN
9.0,77.0,Punalur,Kerala,IN
9.5,78.25,Tiruchuli,Tamil Nadu,IN
9.5,77.0,Idukki,Kerala,IN
8.75,78.0,Thoothukudi,Tamil Nadu,IN
9.5,77.25,Idukki,Kerala,IN
9.0,77.75,Kovilpatti,Tamil Nadu,IN
9.25,78.75,Ramanathapuram,Tamil Nadu,IN
9.5,76.25,Nehru Trophy Island Pavilion,Kerala,IN
9.5,79.0,Ramnathapuram,Tamil Nadu,IN
9.25,76.25,India,,IN
9.5,78.75,Paramakudi,Tamil Nadu,IN
9.25,78.5,Kadaladi,Tamil Nadu,IN
8.75,76.5,India,,IN
9.75,76.25,India,,IN
9.25,79.25,India,,IN
9.75,76.5,Vaikom,Kerala,IN
9.75,76.75,Meenachil,Kerala,IN
9.75,77.0,Idukki,Kerala,IN
9.75,77.25,Uthamapalayam,Tamil Nadu,IN
10.5,77.5,Palani,Tamil Nadu,IN
10.5,76.5,Alathur,Kerala,IN
10.5,78.5,Iluppur taluk,Tamil Nadu,IN
10.5,79.5,Mannargudi,Tamil Nadu,IN
9.75,78.25,Tiruchuli,Tamil Nadu,IN
9.75,77.75,Peraiyur,Tamil Nadu,IN
10.0,77.25,Idukki,Kerala,IN
10.25,78.25,Natham,Tamil Nadu,IN
9.75,77.5,Andipatti,Tamil Nadu,IN
9.75,78.0,Thirumangalam,Tamil Nadu,IN
10.0,76.75,Kothamangalam,Kerala,IN
10.25,78.0,Dindigul,Tamil Nadu,IN
10.0,76.25,Ernakulam,Kerala,IN
10.0,78.25,Melur,Tamil Nadu,IN
10.0,76.5,Kunnathunad,Kerala,IN
10.0,77.75,Usilampatti,Tamil Nadu,IN
9.75,78.5,Sivaganga,Tamil Nadu,IN
9.75,78.75,Tiruvadanai,Tamil Nadu,IN
10.5,77.0,Valparai,Tamil Nadu,IN
10.0,77.0,Idukki,Kerala,IN
10.25,76.25,Chalakkudy,Kerala,IN
10.0,78.75,Karaikkudi,Tamil Nadu,IN
10.5,76.0,Pālghāt,Kerala,IN
10.25,77.25,Idukki,Kerala,IN
10.25,79.0,Aranthangi taluk,Tamil Nadu,IN
10.25,78.5,Varuppatti,Tamil Nadu,IN
10.25,78.75,Thirumayam taluk,Tamil Nadu,IN
10.25,77.0,Valparai,Tamil Nadu,IN
10.0,78.0,Madurai North,Tamil Nadu,IN
10.0,77.5,Theni,Tamil Nadu,IN
10.25,79.25,Peravurani,Tamil Nadu,IN
10.25,77.5,Kodaikanal,Tamil Nadu,IN
10.25,76.5,Aluva,Kerala,IN
10.25,77.75,Athoor,Tamil Nadu,IN
10.5,78.0,Vedasandur,Tamil Nadu,IN
10.0,79.0,Avudayarkoil taluk,Tamil Nadu,IN
10.5,76.25,Thrissur,Kerala,IN
10.5,77.25,Udumalaipettai,Tamil Nadu,IN
10.25,76.75,Kothamangalam,Kerala,IN
10.5,77.75,Oddanchatram,Tamil Nadu,IN
10.0,78.5,Sivaganga,Tamil Nadu,IN
10.5,76.75,Chittur,Kerala,IN
10.5,78.25,Manapparai,Tamil Nadu,IN
10.5,78.75,Kulathur taluk,Tamil Nadu,IN
10.5,79.0,Pudukkottai taluk,Tamil Nadu,IN
10.25,76.0,India,,IN
10.0,76.0,India,,IN
10.5,79.25,Pattukkottai,Tamil Nadu,IN
10.5,79.75,Vedaranyam,Tamil Nadu,IN
10.75,76.25,Ottappalam,Kerala,IN
10.75,76.0,Ponnani,Kerala,IN
10.75,76.5,Alathur,Kerala,IN
10.75,75.75,India,,IN
10.75,77.25,Madathukulam,Tamil Nadu,IN
10.75,77.75,Dharapuram,Tamil Nadu,IN
10.75,77.5,Dharapuram,Tamil Nadu,IN
10.75,77.0,Pollachi,Tamil Nadu,IN
10.75,76.75,Palakkad,Kerala,IN
10.75,78.75,Thiruverumbur,Tamil Nadu,IN
11.0,79.25,Ariyalur,Tamil Nadu,IN
11.0,79.0,Ariyalur,Tamil Nadu,IN
11.0,78.5,Musiri,Tamil Nadu,IN
11.0,76.25,Perinthalmanna,Kerala,IN
11.0,75.75,India,,IN
11.25,77.0,Mettupalayam,Tamil Nadu,IN
11.25,77.25,Avanashi,Tamil Nadu,IN
11.5,75.5,India,,IN
11.0,76.75,Coimbatore South,Tamil Nadu,IN
11.25,76.25,Nilambur,Kerala,IN
11.0,77.0,Coimbatore,Tamil Nadu,IN
11.25,77.75,Modakkurichi,Tamil Nadu,IN
11.0,79.75,Thirunallar Taluk,Puducherry,IN
10.75,79.75,Kilvelur,Tamil Nadu,IN
11.0,78.0,Aravakurichi,Tamil Nadu,IN
11.25,76.0,Ernad,Kerala,IN
11.0,77.25,Palladam,Tamil Nadu,IN
11.25,77.5,Perundurai,Tamil Nadu,IN
11.25,75.75,Kozhikode,Kerala,IN
11.25,76.5,Kundah,Tamil Nadu,IN
11.25,76.75,Mettupalayam,Tamil Nadu,IN
11.0,78.75,Manachanallur,Tamil Nadu,IN
11.0,78.25,Thottiyam,Tamil Nadu,IN
11.0,79.5,Thiruvidaimarudur,Tamil Nadu,IN
10.75,78.0,Vedasandur,Tamil Nadu,IN
10.75,78.25,Kadavur,Tamil Nadu,IN
11.25,78.0,Paramathi-Velur,Tamil Nadu,IN
11.0,76.5,Mannarkad,Kerala,IN
10.75,78.5,Kulithalai,Tamil Nadu,IN
11.0,76.0,Ernad,Kerala,IN
11.0,77.5,Kangeyam,Tamil Nadu,IN
10.75,79.5,Kudavasal,Tamil Nadu,IN
10.75,79.0,Thanjavur,Tamil Nadu,IN
11.0,77.75,Kangeyam,Tamil Nadu,IN
10.75,79.25,Papanasam,Tamil Nadu,IN
11.25,78.25,Sendamangalam,Tamil Nadu,IN
11.25,78.5,Thuraiyur,Tamil Nadu,IN
11.25,79.0,Kunnam,Tamil Nadu,IN
11.25,78.75,Perambalur,Tamil Nadu,IN
11.25,79.5,Kattumannarkoil,Tamil Nadu,IN
11.25,79.25,Sendurai,Tamil Nadu,IN
11.5,76.5,Gudalur,Tamil Nadu,IN
11.25,79.75,Sirkali,Tamil Nadu,IN
11.5,75.75,Koyilandi,Kerala,IN
11.5,77.5,Gobichettipalayam,Tamil Nadu,IN
11.5,78.5,Attur,Tamil Nadu,IN
11.5,76.0,Thamarassery,Kerala,IN
11.5,79.5,Bhuvanagiri,Tamil Nadu,IN
11.5,77.25,Sathyamangalam,Tamil Nadu,IN
11.5,76.25,Nilambur,Kerala,IN
11.5,76.75,Udhagamandalam,Tamil Nadu,IN
11.5,77.0,Sathyamangalam,Tamil Nadu,IN
11.5,77.75,Sankari,Tamil Nadu,IN
11.5,78.25,Rasipuram,Tamil Nadu,IN
11.5,78.0,Tiruchengode,Tamil Nadu,IN
11.75,78.75,Sankarapuram,Tamil Nadu,IN
11.5,78.75,Gangavalli,Tamil Nadu,IN
11.75,77.0,Thalavadi,Tamil Nadu,IN
12.0,77.0,Chamarajanagara taluk,Karnataka,IN
12.0,75.75,Iritty,Kerala,IN
11.75,79.0,Kallakkurichi,Tamil Nadu,IN
11.75,78.25,Yercaud,Tamil Nadu,IN
12.0,76.75,Chamarajanagara taluk,Karnataka,IN
11.75,76.75,Gundlupet taluk,Karnataka,IN
11.75,76.25,Sulthanbathery,Kerala,IN
11.75,76.5,Gundlupet taluk,Karnataka,IN
11.5,79.25,Virudhachalam,Tamil Nadu,IN
12.0,76.0,Virajpet taluk,Karnataka,IN
11.75,79.75,Cuddalore,Tamil Nadu,IN
12.0,76.5,Nanjanagudu taluk,Karnataka,IN
12.0,76.25,Heggadadevanakote taluk,Karnataka,IN
11.75,75.75,Vadakara,Kerala,IN
11.75,79.25,Ulundurpettai,Tamil Nadu,IN
11.5,79.75,Parangipettai,Tamil Nadu,IN
11.75,77.75,Mettur,Tamil Nadu,IN
11.75,77.25,Thalavadi,Tamil Nadu,IN
11.5,79.0,Veppur,Tamil Nadu,IN
11.75,75.5,Thalassery,Kerala,IN
12.0,75.25,Kodagu,Karnataka,IN
11.75,76.0,Mananthavady,Kerala,IN
11.75,78.5,Attur,Tamil Nadu,IN
12.0,75.5,Taliparamba,Kerala,IN
11.75,78.0,Omalur,Tamil Nadu,IN
11.75,79.5,Panruti,Tamil Nadu,IN
11.75,77.5,Anthiyur,Tamil Nadu,IN
12.0,77.25,Hanur taluk,Karnataka,IN
12.0,77.5,Hanur taluk,Karnataka,IN
12.0,78.0,Nallampalli,Tamil Nadu,IN
12.0,77.75,Pennagaram,Tamil Nadu,IN
11.75,75.25,India,,IN
12.0,75.0,India,,IN
12.0,78.25,Dharmapuri,Tamil Nadu,IN
12.0,78.5,Harur,Tamil Nadu,IN
12.0,78.75,Sankarapuram,Tamil Nadu,IN
12.0,79.0,Sankarapuram,Tamil Nadu,IN
12.0,79.5,Vikravandi,Tamil Nadu,IN
12.0,79.25,Kandachipuram,Tamil Nadu,IN
12.0,79.75,Villianur Taluk,Puducherry,IN
12.5,77.5,Harohalli taluk,Karnataka,IN
12.5,76.5,Krishnarajapete taluk,Karnataka,IN
12.5,75.5,Sulya taluk,Karnataka,IN
12.5,78.5,Tirupathur,Tamil Nadu,IN
12.5,79.5,Vandavasi,Tamil Nadu,IN
12.25,75.0,India,,IN
12.25,75.5,Taliparamba,Kerala,IN
12.25,75.25,Hosdurg,Kerala,IN
12.25,75.75,Virajpet taluk,Karnataka,IN
12.25,76.25,Hunasuru taluk,Karnataka,IN
12.25,76.0,Ponnampete taluk,Karnataka,IN
12.25,76.5,Heggadadevanakote taluk,Karnataka,IN
12.5,79.0,Kalasapakkam,Tamil Nadu,IN
12.5,78.0,Palakkodu,Tamil Nadu,IN
12.5,75.25,Kasaragod,Kerala,IN
12.25,79.0,Chengam,Tamil Nadu,IN
12.25,78.0,Pennagaram,Tamil Nadu,IN
12.25,77.0,Malavalli taluk,Karnataka,IN
12.5,78.25,Krishnagiri,Tamil Nadu,IN
12.5,76.0,Piriyapattana taluk,Karnataka,IN
12.5,75.75,Madikeri taluku,Karnataka,IN
12.25,78.75,Chengam,Tamil Nadu,IN
12.5,77.25,Kanakapura taluk,Karnataka,IN
12.5,76.25,Krishnarajanagara taluk,Karnataka,IN
12.25,77.5,Anchetty,Tamil Nadu,IN
12.25,77.75,Anchetty,Tamil Nadu,IN
12.25,78.5,Uthangarai,Tamil Nadu,IN
12.5,76.75,Pandavapura taluk,Karnataka,IN
12.25,77.25,Hanur taluk,Karnataka,IN
12.5,78.75,Vaniyambadi,Tamil Nadu,IN
12.25,79.25,Gingee,Tamil Nadu,IN
12.25,76.75,Mysuru,Karnataka,IN
12.5,77.75,Denkanikottai,Tamil Nadu,IN
12.5,75.0,Kasaragod,Kerala,IN
12.25,79.5,Gingee,Tamil Nadu,IN
12.25,78.25,Karimangalam,Tamil Nadu,IN
12.25,79.75,Tindivanam,Tamil Nadu,IN
12.5,77.0,Madduru taluk,Karnataka,IN
12.5,79.25,Chetpet,Tamil Nadu,IN
12.5,80.0,Cheyyur,Tamil Nadu,IN
12.5,79.75,Maduranthakam,Tamil Nadu,IN
12.75,75.25,Dakshina Kannada,Karnataka,IN
12.75,75.0,Dakshina Kannada,Karnataka,IN
12.75,74.75,Mangaluru,Karnataka,IN
12.75,75.5,Putturu taluk,Karnataka,IN
12.75,75.75,Sakaleshapura taluk,Karnataka,IN
12.75,76.0,Arakalagudu taluk,Karnataka,IN
12.75,76.25,Hole Narasipura taluk,Karnataka,IN
12.75,76.5,Krishnarajapete taluk,Karnataka,IN
12.75,76.75,Nagamangala taluk,Karnataka,IN
12.75,77.0,Madduru taluk,Karnataka,IN
12.75,77.5,Bangalore South,Karnataka,IN
12.75,77.75,Anekal,Karnataka,IN
12.75,77.25,Ramanagara taluk,Karnataka,IN
12.75,78.0,Shoolagiri,Tamil Nadu,IN
12.75,78.25,Gudipalli,Andhra Pradesh,IN
12.75,79.0,Vellore,Tamil Nadu,IN
12.75,78.5,Kuppam,Andhra Pradesh,IN
12.75,78.75,Ambur,Tamil Nadu,IN
12.75,79.25,Arani,Tamil Nadu,IN
12.75,79.5,Vembakkam,Tamil Nadu,IN
12.75,79.75,Walajabad,Tamil Nadu,IN
13.0,75.0,Mangaluru taluk,Karnataka,IN
13.0,75.25,Beltangadi taluk,Karnataka,IN
13.25,75.25,Kalasa taluk,Karnataka,IN
13.0,75.75,Beluru taluk,Karnataka,IN
13.0,78.5,Venkatagirikota,Andhra Pradesh,IN
13.25,74.75,Udupi,Karnataka,IN
13.0,76.0,Aluru taluk,Karnataka,IN
13.0,79.75,Sriperumbudur,Tamil Nadu,IN
13.0,77.0,Kunigal taluk,Karnataka,IN
13.0,76.5,Channarayapattana taluk,Karnataka,IN
12.75,80.0,Chengalpattu,Tamil Nadu,IN
13.0,76.25,Hassan,Karnataka,IN
13.0,78.0,Maluru taluk,Karnataka,IN
13.0,79.0,Katpadi,Tamil Nadu,IN
13.25,75.0,Karkala taluk,Karnataka,IN
13.0,74.75,Mangaluru,Karnataka,IN
13.0,75.5,Beltangadi taluk,Karnataka,IN
13.0,77.75,Bengaluru,Karnataka,IN
13.0,77.25,Magadi taluku,Karnataka,IN
13.0,76.75,Nagamangala taluk,Karnataka,IN
13.0,79.25,Katpadi,Tamil Nadu,IN
13.0,78.25,Bangarapet taluk,Karnataka,IN
13.0,80.0,Sriperumbudur,Tamil Nadu,IN
13.0,78.75,Gudiyatham,Tamil Nadu,IN
13.0,79.5,Arakonam,Tamil Nadu,IN
13.0,77.5,Bengaluru,Karnataka,IN
13.25,75.5,Mudigere taluk,Karnataka,IN
13.25,75.75,Chikkamagaluru,Karnataka,IN
13.25,76.25,Arasikere taluku,Karnataka,IN
13.25,76.0,Beluru taluk,Karnataka,IN
13.25,76.5,Tipaturu taluk,Karnataka,IN
13.25,76.75,Turuvekere taluk,Karnataka,IN
13.25,77.0,Tumakuru,Karnataka,IN
13.25,77.25,Nelamangala taluk,Karnataka,IN
13.25,74.5,India,,IN
13.25,77.5,Doddaballapura taluk,Karnataka,IN
13.25,77.75,Devanahalli taluk,Karnataka,IN
13.25,78.0,Kolar taluk,Karnataka,IN
13.25,78.25,Srinivasapura taluku,Karnataka,IN
13.25,78.5,Mulubagilu taluk,Karnataka,IN
13.5,75.5,Narasimharajapura taluk,Karnataka,IN
13.25,78.75,Gangavaram,Andhra Pradesh,IN
13.25,79.0,Thavanampalle,Andhra Pradesh,IN
13.25,79.25,Gangadhara Nellore,Andhra Pradesh,IN
13.5,74.5,India,,IN
13.5,77.5,Gauribidanuru taluk,Karnataka,IN
13.5,78.5,Madanapalle,Andhra Pradesh,IN
13.5,79.5,Vadamalapeta,Andhra Pradesh,IN
13.5,76.5,Chikkanayakanahalli taluk,Karnataka,IN
13.25,79.5,Pallipattu,Tamil Nadu,IN
13.25,79.75,Vijayapuram,Andhra Pradesh,IN
13.25,80.0,Thiruvallur,Tamil Nadu,IN
13.25,80.25,Ponneri,Tamil Nadu,IN
13.5,74.75,Udupi,Karnataka,IN
13.5,75.0,Hebri taluku,Karnataka,IN
13.5,75.25,Koppa taluk,Karnataka,IN
13.5,76.0,Kaduru taluk,Karnataka,IN
13.5,75.75,Chikkamagaluru taluku,Karnataka,IN
13.5,76.25,Arasikere taluku,Karnataka,IN
13.5,79.0,Pakala,Andhra Pradesh,IN
13.5,78.0,Sidlaghatta taluk,Karnataka,IN
13.5,77.25,Koratagere taluku,Karnataka,IN
13.5,80.25,Tada,Andhra Pradesh,IN
13.5,78.25,Srinivasapura taluku,Karnataka,IN
13.75,75.75,Tarikere taluku,Karnataka,IN
13.75,75.5,Narasimharajapura taluk,Karnataka,IN
13.5,80.0,Satyavedu,Andhra Pradesh,IN
13.5,77.0,Tumkur taluk,Karnataka,IN
13.5,76.75,Gubbi taluk,Karnataka,IN
13.5,79.25,Ramachandrapuram,Andhra Pradesh,IN
13.5,79.75,K.V.B.Puram,Andhra Pradesh,IN
13.5,78.75,Chowdepalle,Andhra Pradesh,IN
13.75,76.0,Ajjampura taluku,Karnataka,IN
13.75,75.25,Tirthahalli taluk,Karnataka,IN
13.75,74.75,Kundapura,Karnataka,IN
13.75,75.0,Hosanagara taluk,Karnataka,IN
13.5,77.75,Chikkaballapura taluk,Karnataka,IN
13.75,76.25,Hosadurga taluku,Karnataka,IN
13.75,76.5,Hosadurga taluku,Karnataka,IN
13.75,76.75,Sira taluk,Karnataka,IN
13.75,77.0,Agali,Andhra Pradesh,IN
13.75,77.25,Madhugiri taluk,Karnataka,IN
13.75,77.5,Hindupur,Andhra Pradesh,IN
13.75,77.75,Gudibande taluk,Karnataka,IN
13.75,74.5,India,,IN
13.75,78.25,Pedda Thippasamudram,Andhra Pradesh,IN
13.75,78.0,Bagepalli taluk,Karnataka,IN
13.75,78.5,Thamballapalle,Andhra Pradesh,IN
13.75,78.75,Kalikiri,Andhra Pradesh,IN
13.75,79.0,Pileru,Andhra Pradesh,IN
13.75,79.25,Tirupati (Urban),Andhra Pradesh,IN
13.75,79.75,Thottambedu,Andhra Pradesh,IN
14.0,74.75,Sagara taluk,Karnataka,IN
13.75,80.0,Doravarisatram,Andhra Pradesh,IN
14.0,75.0,Sagara taluk,Karnataka,IN
13.75,79.5,Renigunta,Andhra Pradesh,IN
14.0,75.25,Hosanagara taluk,Karnataka,IN
14.0,75.5,Shivamogga,Karnataka,IN
14.0,76.0,Channagiri taluku,Karnataka,IN
14.0,75.75,Bhadravathi,Karnataka,IN
14.0,76.25,Holalkere taluk,Karnataka,IN
14.0,76.75,Hiriyuru taluk,Karnataka,IN
14.0,76.5,Hiriyuru taluk,Karnataka,IN
13.75,80.25,India,,IN
14.0,74.5,India,,IN
14.0,77.0,Amarapuram,Andhra Pradesh,IN
14.0,77.75,Gorantla,Andhra Pradesh,IN
14.0,77.5,Somandepalle,Andhra Pradesh,IN
14.0,77.25,Madakasira,Andhra Pradesh,IN
14.25,75.0,Sagara taluk,Karnataka,IN
14.0,78.25,Tanakal,Andhra Pradesh,IN
14.25,75.25,Sagara taluk,Karnataka,IN
14.0,78.0,Obuladevaracheruvu,Andhra Pradesh,IN
14.25,74.25,India,,IN
14.25,76.25,Chitradurga,Karnataka,IN
14.0,79.75,Ojili,Andhra Pradesh,IN
14.0,80.0,Chittamur,Andhra Pradesh,IN
14.25,76.0,Channagiri taluku,Karnataka,IN
14.25,75.75,Honnali taluku,Karnataka,IN
14.0,78.5,Galiveedu,Andhra Pradesh,IN
14.25,74.75,Siddapura taluk,Karnataka,IN
14.25,76.5,Chitradurga,Karnataka,IN
14.0,79.25,Obulavaripalle,Andhra Pradesh,IN
14.25,77.0,Kundurpi,Andhra Pradesh,IN
14.5,74.5,Kumata taluk,Karnataka,IN
14.0,79.0,T Sundupalle,Andhra Pradesh,IN
14.0,78.75,Sambepalle,Andhra Pradesh,IN
14.25,74.5,Honnavar taluku,Karnataka,IN
14.25,75.5,Shikaripura taluk,Karnataka,IN
14.0,79.5,Venkatagiri,Andhra Pradesh,IN
14.25,77.25,Pavagada taluk,Karnataka,IN
14.25,76.75,Challakere taluku,Karnataka,IN
14.25,77.5,Chennekothapalle,Andhra Pradesh,IN
14.25,77.75,Kothacheruvu,Andhra Pradesh,IN
14.25,78.0,Bukkapatnam,Andhra Pradesh,IN
14.5,75.5,Rattihalli taluk,Karnataka,IN
14.25,78.25,Talupula,Andhra Pradesh,IN
14.25,78.5,Chakrayapet,Andhra Pradesh,IN
14.25,78.75,Ramapuram,Andhra Pradesh,IN
14.25,79.0,Rajampet,Andhra Pradesh,IN
14.5,76.5,Challakere taluku,Karnataka,IN
14.25,79.25,Penagalur,Andhra Pradesh,IN
14.25,79.75,Sydapuram,Andhra Pradesh,IN
14.25,79.5,Rapur,Andhra Pradesh,IN
14.5,77.5,Raptadu,Andhra Pradesh,IN
14.5,74.25,Uttara Kannada,Karnataka,IN
14.25,80.0,Venkatachalam,Andhra Pradesh,IN
14.5,75.0,Sirsi Taluk,Karnataka,IN
14.5,74.75,Siddapura taluk,Karnataka,IN
14.5,75.25,Shikaripura taluk,Karnataka,IN
14.5,78.5,Veerapunayunipalle,Andhra Pradesh,IN
14.5,79.5,Chejerla,Andhra Pradesh,IN
14.5,75.75,Harihara taluku,Karnataka,IN
14.5,76.0,Davanagere,Karnataka,IN
14.5,76.25,Jagaluru taluku,Karnataka,IN
14.5,77.0,Brahmasamudram,Andhra Pradesh,IN
14.5,77.25,Kambadur,Andhra Pradesh,IN
14.5,76.75,Challakere taluku,Karnataka,IN
14.5,78.0,Lingala,Andhra Pradesh,IN
14.5,78.25,Thonduru,Andhra Pradesh,IN
14.5,77.75,Bathalapalle,Andhra Pradesh,IN
14.5,78.75,Chinthakommadinne,Andhra Pradesh,IN
14.5,79.0,Sidhout,Andhra Pradesh,IN
14.5,79.75,Podalakur,Andhra Pradesh,IN
14.75,77.75,Narpala,Andhra Pradesh,IN
14.75,74.5,Ankola taluk,Karnataka,IN
14.5,79.25,Gopavaram,Andhra Pradesh,IN
14.75,74.25,Karwar taluk,Karnataka,IN
14.75,75.0,Mundagoda taluk,Karnataka,IN
14.5,80.0,Kovur,Andhra Pradesh,IN
14.75,75.5,Byadagi taluk,Karnataka,IN
14.75,75.75,Huvina Hadagali taluk,Karnataka,IN
14.75,78.25,Muddanur,Andhra Pradesh,IN
14.75,76.25,Kotturu taluku,Karnataka,IN
14.75,74.75,Sirsi,Karnataka,IN
14.75,77.0,Kanekal,Andhra Pradesh,IN
14.75,76.75,Molakalmuru taluku,Karnataka,IN
14.75,77.5,Kudair,Andhra Pradesh,IN
14.75,77.25,Uravakonda,Andhra Pradesh,IN
14.75,76.5,Kudligi taluku,Karnataka,IN
14.75,78.0,Putlur,Andhra Pradesh,IN
14.75,76.0,Harapanahalli taluku,Karnataka,IN
14.75,75.25,Hanagal taluk,Karnataka,IN
14.75,78.75,S.Mydukur,Andhra Pradesh,IN
14.75,78.5,Yerraguntla,Andhra Pradesh,IN
14.75,79.0,Brahmamgarimattam,Andhra Pradesh,IN
14.75,79.25,Marripadu,Andhra Pradesh,IN
14.75,79.5,Atmakur,Andhra Pradesh,IN
14.75,80.0,Bogole,Andhra Pradesh,IN
14.75,79.75,Kaligiri,Andhra Pradesh,IN
15.0,74.0,Uttara Kannada,Karnataka,IN
15.0,74.25,Canacona,Goa,IN
15.0,74.5,Supa taluk,Karnataka,IN
15.0,74.75,Yallapura taluk,Karnataka,IN
15.0,75.0,Mundagoda taluk,Karnataka,IN
15.0,75.25,Shiggaon taluk,Karnataka,IN
15.0,75.75,Shirahatti taluku,Karnataka,IN
15.0,75.5,Savanura taluk,Karnataka,IN
15.0,76.0,Huvina Hadagali taluk,Karnataka,IN
15.0,76.5,Sanduru taluk,Karnataka,IN
15.0,76.25,Hagari Bommanahalli taluk,Karnataka,IN
15.0,76.75,Sanduru taluk,Karnataka,IN
15.0,77.25,Uravakonda,Andhra Pradesh,IN
15.0,78.0,Tadipatri,Andhra Pradesh,IN
15.0,77.0,Bommanahal,Andhra Pradesh,IN
15.0,77.75,Peddavadugur,Andhra Pradesh,IN
15.0,77.5,Pamidi,Andhra Pradesh,IN
15.0,78.25,Mylavaram,Andhra Pradesh,IN
15.0,78.5,Peddamudium,Andhra Pradesh,IN
15.0,79.0,Porumamilla,Andhra Pradesh,IN
15.0,78.75,S.Mydukur,Andhra Pradesh,IN
15.5,74.5,Khanapura taluku,Karnataka,IN
15.0,79.25,Udayagiri,Andhra Pradesh,IN
15.0,79.5,Varikuntapadu,Andhra Pradesh,IN
15.5,75.5,Gadag taluk,Karnataka,IN
15.0,79.75,Kondapuram,Andhra Pradesh,IN
15.0,80.0,Gudluru,Andhra Pradesh,IN
15.25,74.25,Sanguem,Goa,IN
15.25,78.5,Allagadda,Andhra Pradesh,IN
15.25,74.5,Supa taluk,Karnataka,IN
15.25,75.5,Gadag taluk,Karnataka,IN
15.25,77.75,Peapally,Andhra Pradesh,IN
15.25,78.25,Banaganapalle,Andhra Pradesh,IN
15.25,76.0,Koppala taluku,Karnataka,IN
15.25,77.0,Ballari,Karnataka,IN
15.25,75.75,Mundargi taluku,Karnataka,IN
15.25,77.25,Chippagiri,Andhra Pradesh,IN
15.25,74.0,Salcete,Goa,IN
15.25,75.0,Kalaghatagi taluku,Karnataka,IN
15.25,74.75,Haliyala taluku,Karnataka,IN
15.25,76.25,Koppala taluku,Karnataka,IN
15.25,76.5,Hosapete,Karnataka,IN
15.25,77.5,Maddikera (East),Andhra Pradesh,IN
15.25,78.75,Giddalur,Andhra Pradesh,IN
15.25,76.75,Bellary taluk,Karnataka,IN
15.25,78.0,Owk Mandal,Andhra Pradesh,IN
15.25,75.25,Kundagola taluku,Karnataka,IN
15.25,79.0,Komarolu,Andhra Pradesh,IN
15.5,76.5,Gangavati taluku,Karnataka,IN
15.25,79.25,Chandra Sekhara Puram,Andhra Pradesh,IN
15.25,79.75,Ponnaluru,Andhra Pradesh,IN
15.25,79.5,Kanigiri,Andhra Pradesh,IN
15.25,80.0,Singarayakonda,Andhra Pradesh,IN
15.5,77.5,Aspari,Andhra Pradesh,IN
15.5,73.75,Panaji,Goa,IN
15.25,73.75,India,,IN
15.5,74.25,Satari,Goa,IN
15.5,74.0,Ponda,Goa,IN
15.5,78.5,Nandyal,Andhra Pradesh,IN
15.5,74.75,Kitturu taluku,Karnataka,IN
15.5,75.0,Dharwad,Karnataka,IN
15.5,75.25,Hubballi Taluku,Karnataka,IN
15.5,79.5,Kanigiri,Andhra Pradesh,IN
15.5,75.75,Gadag taluk,Karnataka,IN
15.5,76.0,Kukunoor taluku,Karnataka,IN
15.5,76.25,Koppala taluku,Karnataka,IN
15.5,77.0,Holagunda,Andhra Pradesh,IN
15.5,76.75,Gangavati taluku,Karnataka,IN
15.5,77.25,Alur,Andhra Pradesh,IN
15.5,77.75,Krishnagiri,Andhra Pradesh,IN
15.5,78.0,Veldurthi,Andhra Pradesh,IN
15.5,78.25,Panyam,Andhra Pradesh,IN
15.5,79.25,Hanumanthuni Padu,Andhra Pradesh,IN
15.5,78.75,Bandi Atmakur,Andhra Pradesh,IN
15.5,79.0,Cumbum,Andhra Pradesh,IN
15.5,79.75,Marripudi,Andhra Pradesh,IN
15.5,80.0,Santhanuthala Padu,Andhra Pradesh,IN
15.75,78.25,Midthur,Andhra Pradesh,IN
15.75,77.75,Guduru,Andhra Pradesh,IN
15.75,76.75,Sindhanuru taluku,Karnataka,IN
15.75,74.5,Belagavi,Karnataka,IN
15.75,74.0,Dodamarg,Maharashtra,IN
15.75,78.5,Pamulapadu,Andhra Pradesh,IN
15.75,75.0,Savadatti taluku,Karnataka,IN
15.75,74.75,Bailahongala taluku,Karnataka,IN
15.75,79.0,Dornala,Andhra Pradesh,IN
15.75,77.25,Adoni,Andhra Pradesh,IN
15.75,75.75,Rona taluku,Karnataka,IN
15.75,78.75,Velgode,Andhra Pradesh,IN
15.75,78.0,Kallur,Andhra Pradesh,IN
15.75,76.0,Gajendragad taluku,Karnataka,IN
15.75,73.75,Sawantwadi,Maharashtra,IN
15.75,77.0,Siruguppa taluku,Karnataka,IN
15.75,76.25,Kushtagi taluk,Karnataka,IN
15.75,76.5,Sindhanuru taluku,Karnataka,IN
15.75,77.5,Yemmiganur,Andhra Pradesh,IN
15.75,74.25,Chandgad,Maharashtra,IN
15.75,75.25,Savadatti taluku,Karnataka,IN
15.75,75.5,Naragunda taluk,Karnataka,IN
15.75,79.25,Markapur,Andhra Pradesh,IN
15.75,79.5,Donakonda,Andhra Pradesh,IN
15.75,79.75,Darsi,Andhra Pradesh,IN
15.75,80.0,Addanki,Andhra Pradesh,IN
15.75,80.25,Chinaganjam,Andhra Pradesh,IN
15.75,73.5,India,,IN
16.0,73.5,Kudal,Maharashtra,IN
16.0,73.75,Kudal,Maharashtra,IN
16.0,74.75,Gokak taluku,Karnataka,IN
16.0,74.5,Belagavi,Karnataka,IN
16.0,74.25,Chandgad,Maharashtra,IN
16.0,74.0,Sawantwadi,Maharashtra,IN
16.0,75.0,Yaragatti taluku,Karnataka,IN
16.0,75.5,Badami taluku,Karnataka,IN
16.0,75.25,Ramadurga taluku,Karnataka,IN
15.75,80.75,India,,IN
16.0,75.75,Guledgudda taluku,Karnataka,IN
16.0,76.25,Ilkal taluka,Karnataka,IN
16.0,76.5,Maski taluku,Karnataka,IN
16.0,76.0,Kushtagi taluk,Karnataka,IN
16.0,76.75,Maski taluku,Karnataka,IN
16.0,77.0,Manvi taluku,Karnataka,IN
16.0,77.25,Manvi taluku,Karnataka,IN
16.0,77.75,Aiza mandal,Telangana,IN
16.0,77.5,Rayachuru taluku,Karnataka,IN
16.0,78.0,Manopad mandal,Telangana,IN
16.0,78.25,Chinnambavi mandal,Telangana,IN
16.0,78.5,Kothapalle,Andhra Pradesh,IN
16.0,79.0,Dornala,Andhra Pradesh,IN
16.0,79.25,Yerragondapalem,Andhra Pradesh,IN
16.0,78.75,Atmakur,Andhra Pradesh,IN
16.0,79.5,Tripuranthakam,Andhra Pradesh,IN
16.0,80.0,Ballikurava,Andhra Pradesh,IN
16.25,73.75,Kankavli,Maharashtra,IN
16.25,74.5,Hukkeri taluk,Karnataka,IN
16.25,74.75,Gokak taluku,Karnataka,IN
16.0,79.75,Nuzendla,Andhra Pradesh,IN
16.0,80.25,Parchuru RV,Andhra Pradesh,IN
16.25,76.25,Muddebihala taluku,Karnataka,IN
16.25,76.75,Devadurga taluk,Karnataka,IN
16.25,75.5,Bilagi,Karnataka,IN
16.25,75.25,Mudhola taluku,Karnataka,IN
16.0,80.5,Ponnur,Andhra Pradesh,IN
16.0,81.0,Koduru,Andhra Pradesh,IN
16.25,76.0,Bagalakote taluk,Karnataka,IN
16.25,73.5,Malwan,Maharashtra,IN
16.25,76.5,Lingasuguru taluku,Karnataka,IN
16.25,77.0,Devadurga taluk,Karnataka,IN
16.25,75.75,Bagalkote,Karnataka,IN
16.0,80.75,Nagaram,Andhra Pradesh,IN
16.25,75.0,Mudalagi taluku,Karnataka,IN
16.25,73.25,India,,IN
16.25,74.25,Ajra,Maharashtra,IN
16.25,74.0,Radhanagari,Maharashtra,IN
16.25,77.25,Raichur,Karnataka,IN
16.5,73.5,Devgad,Maharashtra,IN
16.25,77.5,Kaloor_Thimmandoddi mandal,Telangana,IN
16.25,77.75,Gadwal mandal,Telangana,IN
16.25,78.0,Pebbair mandal,Telangana,IN
16.25,78.75,Amrabad mandal,Telangana,IN
16.25,79.0,Amrabad mandal,Telangana,IN
16.25,78.25,Kodair mandal,Telangana,IN
16.25,78.5,Lingal mandal,Telangana,IN
16.25,79.25,Veldurthi,Andhra Pradesh,IN
16.5,74.5,Chikodi taluk,Karnataka,IN
16.25,79.75,Bollapalle,Andhra Pradesh,IN
16.25,79.5,Pullalacheruvu,Andhra Pradesh,IN
16.25,80.0,Narasaraopet,Andhra Pradesh,IN
16.25,81.0,Movva,Andhra Pradesh,IN
16.25,80.5,Chebrolu,Andhra Pradesh,IN
16.25,80.75,Kollipara,Andhra Pradesh,IN
16.5,75.5,Vijayapura taluk,Karnataka,IN
16.5,77.5,Makthal mandal,Telangana,IN
16.5,76.5,Hunasagi taluka,Karnataka,IN
16.5,80.5,Amaravati,Andhra Pradesh,IN
16.5,79.5,Macherla,Andhra Pradesh,IN
16.5,81.5,Bhimavaram,Andhra Pradesh,IN
16.5,73.75,Vaibhavwadi,Maharashtra,IN
16.5,74.0,Radhanagari,Maharashtra,IN
16.5,73.25,India,,IN
16.5,74.25,Kagal,Maharashtra,IN
16.5,74.75,Raybag taluk,Karnataka,IN
16.5,75.0,Rabakavi Banahatti taluku,Karnataka,IN
16.5,75.25,Jamakhandi taluku,Karnataka,IN
16.5,75.75,Kolahara Taluku,Karnataka,IN
16.5,81.75,Yelamanchili,Andhra Pradesh,IN
16.5,79.0,Chandampet mandal,Telangana,IN
16.5,77.25,Yadagiri taluku,Karnataka,IN
16.5,78.0,Ghanpur mandal,Telangana,IN
16.5,82.0,Allavaram,Andhra Pradesh,IN
16.75,73.5,Rajapur,Maharashtra,IN
16.25,80.25,Edlapadu,Andhra Pradesh,IN
16.75,74.25,Kolhapur,Maharashtra,IN
16.75,74.0,Panhala,Maharashtra,IN
16.75,73.75,Rajapur,Maharashtra,IN
16.75,74.75,Miraj,Maharashtra,IN
16.75,74.5,Shirol,Maharashtra,IN
16.75,75.0,Athani taluku,Karnataka,IN
16.75,75.25,Athani taluku,Karnataka,IN
16.75,75.5,Vijayapura taluk,Karnataka,IN
16.75,75.75,Vijayapura,Karnataka,IN
16.75,73.25,India,,IN
16.75,76.0,Basavana Bagevadi Taluku,Karnataka,IN
16.75,76.25,Sindagi taluku,Karnataka,IN
16.75,76.75,Shahapura taluku,Karnataka,IN
16.75,76.5,Yadrami taluku,Karnataka,IN
16.75,77.25,Yadagiri taluku,Karnataka,IN
16.75,77.5,Narayanpet mandal,Telangana,IN
16.75,77.0,Shahapura taluku,Karnataka,IN
16.75,78.25,Midjil mandal,Telangana,IN
16.75,78.0,Mahbubnagar,Telangana,IN
16.75,77.75,Koilkonda mandal,Telangana,IN
16.75,78.5,Veldanda mandal,Telangana,IN
16.75,78.75,Charakonda mandal,Telangana,IN
16.75,79.0,Kondamallapally mandal,Telangana,IN
16.75,79.25,Peddavoora mandal,Telangana,IN
16.75,79.5,Tripuraram mandal,Telangana,IN
16.75,79.75,Palakeedu mandal,Telangana,IN
16.75,80.25,Chandarlapadu,Andhra Pradesh,IN
16.75,80.0,Chinthala palem mandal,Telangana,IN
16.75,80.5,Ibrahimpatnam,Andhra Pradesh,IN
16.75,81.0,Bapulapadu,Andhra Pradesh,IN
16.75,80.75,Agiripalle,Andhra Pradesh,IN
16.75,81.25,Bhimadole,Andhra Pradesh,IN
16.75,81.5,Pentapadu,Andhra Pradesh,IN
16.75,81.75,Peravali,Andhra Pradesh,IN
16.75,82.0,K. Gangavaram,Andhra Pradesh,IN
17.0,73.5,Ratnagiri,Maharashtra,IN
17.0,73.75,Sangameshwar,Maharashtra,IN
16.75,82.25,Thallarevu,Andhra Pradesh,IN
17.0,74.25,Walwa,Maharashtra,IN
17.0,74.0,Shirala,Maharashtra,IN
17.0,74.5,Palus,Maharashtra,IN
17.0,74.75,Kavathemahankal,Maharashtra,IN
17.0,75.0,Kavathemahankal,Maharashtra,IN
17.0,75.25,Jat,Maharashtra,IN
17.0,75.5,Jat,Maharashtra,IN
17.0,73.25,India,,IN
17.0,76.0,Indi taluku,Karnataka,IN
17.0,75.75,Vijayapura taluk,Karnataka,IN
17.0,76.25,Sindagi taluku,Karnataka,IN
17.0,76.75,Jevargi taluku,Karnataka,IN
17.0,76.5,Jevargi taluku,Karnataka,IN
17.0,77.0,Chitapura taluku,Karnataka,IN
17.0,77.5,Doulthabad mandal,Telangana,IN
17.0,77.25,Sedam taluku,Karnataka,IN
17.0,78.0,Chowdergudem mandal,Telangana,IN
17.0,77.75,Kosgi mandal,Telangana,IN
17.0,78.25,Keshampeta mandal,Telangana,IN
17.0,78.75,Yacharam mandal,Telangana,IN
17.0,78.5,Kadthal mandal,Telangana,IN
17.0,79.0,Chandur mandal,Telangana,IN
17.0,79.25,Kanagal mandal,Telangana,IN
17.0,79.75,Penpahad mandal,Telangana,IN
17.0,80.5,Gampalagudem,Andhra Pradesh,IN
17.0,80.75,Vissannapeta,Andhra Pradesh,IN
17.0,79.5,Madugulapally mandal,Telangana,IN
17.0,80.0,Kodad mandal,Telangana,IN
17.0,80.25,Vatsavai,Andhra Pradesh,IN
17.0,81.0,Chintalapudi,Andhra Pradesh,IN
17.0,81.25,Kamavarapukota,Andhra Pradesh,IN
16.5,78.5,Uppunuthala mandal,Telangana,IN
17.0,81.5,Devarapalle,Andhra Pradesh,IN
17.0,82.25,Kakinada (Rural),Andhra Pradesh,IN
17.0,82.0,Rangampeta,Andhra Pradesh,IN
17.0,81.75,Rajamahendravaram,Andhra Pradesh,IN
17.25,73.25,Ratnagiri,Maharashtra,IN
17.25,74.0,Patan,Maharashtra,IN
17.25,73.75,Shirala,Maharashtra,IN
17.25,73.5,Sangameshwar,Maharashtra,IN
17.25,74.25,Karad,Maharashtra,IN
17.25,74.5,Khanapur,Maharashtra,IN
17.25,74.75,Khanapur,Maharashtra,IN
17.25,75.0,Sangole,Maharashtra,IN
17.25,75.5,Mangalvedhe,Maharashtra,IN
17.25,76.25,Afzalpura taluku,Karnataka,IN
17.25,76.0,Indi taluku,Karnataka,IN
17.25,75.25,Sangole,Maharashtra,IN
17.25,76.5,Afzalpura taluku,Karnataka,IN
17.25,77.0,Chitapura taluku,Karnataka,IN
17.25,75.75,Chadachana taluku,Karnataka,IN
17.25,76.75,Kalaburagi,Karnataka,IN
17.25,77.25,Kalagi taluku,Karnataka,IN
16.5,81.0,Nandivada,Andhra Pradesh,IN
17.25,77.5,Basheerabad mandal,Telangana,IN
16.5,77.75,CC Kunta mandal,Telangana,IN
16.5,76.75,Shorapur,Karnataka,IN
16.5,80.25,Pedakurapadu,Andhra Pradesh,IN
16.5,79.75,Dachepalle,Andhra Pradesh,IN
16.5,78.25,Bijinapalle mandal,Telangana,IN
16.5,76.0,Basavana Bagevadi Taluku,Karnataka,IN
16.5,76.25,Talakoti Taluku,Karnataka,IN
16.5,80.75,Kankipadu,Andhra Pradesh,IN
16.5,77.0,Devadurga taluk,Karnataka,IN
16.5,80.0,Bellamkonda,Andhra Pradesh,IN
16.5,78.75,Uppunuthala mandal,Telangana,IN
16.5,81.25,Kalidindi,Andhra Pradesh,IN
16.5,79.25,Macherla,Andhra Pradesh,IN
17.25,77.75,Dharoor mandal,Telangana,IN
17.25,78.25,Moinabad mandal,Telangana,IN
17.25,78.0,Pudur mandal,Telangana,IN
17.25,78.5,Balapur mandal,Telangana,IN
17.5,73.5,Chiplun,Maharashtra,IN
17.25,79.25,Narketpally mandal,Telangana,IN
17.25,80.5,Thallada mandal,Telangana,IN
17.25,80.0,Kusumanchi mandal,Telangana,IN
17.25,78.75,Ibrahimpatnam mandal,Telangana,IN
17.25,80.25,Konijerla mandal,Telangana,IN
17.25,80.75,Penuballi mandal,Telangana,IN
17.25,79.0,Chityal mandal,Telangana,IN
17.25,79.5,Nakrekal mandal,Telangana,IN
17.25,81.0,Dammapeta mandal,Telangana,IN
17.25,79.75,Atmakur (S) mandal,Telangana,IN
17.5,74.5,Khatav,Maharashtra,IN
17.25,81.25,Jeelugu Milli,Andhra Pradesh,IN
17.5,75.5,Mangalvedhe,Maharashtra,IN
17.5,77.5,Chincholi taluku,Karnataka,IN
17.5,79.5,Kodakandla mandal,Telangana,IN
17.5,78.5,Hyderabad,Telangana,IN
17.5,76.5,Alanda taluku,Karnataka,IN
17.25,81.5,Buttayagudem,Andhra Pradesh,IN
17.5,80.5,Julurupad mandal,Telangana,IN
17.25,82.0,Jaggampeta,Andhra Pradesh,IN
17.25,81.75,Devipatnam,Andhra Pradesh,IN
17.25,82.25,Prathipadu,Andhra Pradesh,IN
17.5,73.25,Guhagar,Maharashtra,IN
17.25,82.5,Thondangi,Andhra Pradesh,IN
17.5,73.75,Patan,Maharashtra,IN
17.5,74.0,Patan,Maharashtra,IN
17.5,74.25,Koregaon,Maharashtra,IN
17.5,81.5,Vararamachandrapuram,Andhra Pradesh,IN
17.5,74.75,Man,Maharashtra,IN
17.5,76.0,Solapur South,Maharashtra,IN
17.5,77.0,Kamalapura Taluku,Karnataka,IN
17.5,75.0,Sangole,Maharashtra,IN
17.5,77.25,Chincholi taluku,Karnataka,IN
17.5,78.0,Kondapur mandal,Telangana,IN
17.5,75.75,Solapur South,Maharashtra,IN
17.5,73.0,India,,IN
17.5,76.25,Akkalkot,Maharashtra,IN
17.5,80.0,Kuravi mandal,Telangana,IN
17.5,78.25,Patancheruvu mandal,Telangana,IN
17.5,78.75,Bibinagar mandal,Telangana,IN
17.5,79.0,Bhongiri mandal,Telangana,IN
17.5,76.75,Alanda taluku,Karnataka,IN
17.5,75.25,Sangole,Maharashtra,IN
17.5,77.75,Marpalle mandal,Telangana,IN
17.5,79.75,Danthalapalle mandal,Telangana,IN
17.5,80.25,Singareni mandal,Telangana,IN
17.5,79.25,Gundala mandal,Telangana,IN
17.5,81.0,Dammapeta mandal,Telangana,IN
17.5,80.75,Mulakalapally mandal,Telangana,IN
17.5,81.25,Velairpadu,Andhra Pradesh,IN
17.5,82.5,Kotananduru,Andhra Pradesh,IN
17.5,81.75,Maredumilli,Andhra Pradesh,IN
17.75,75.25,Pandharpur,Maharashtra,IN
17.75,75.75,Mohol,Maharashtra,IN
17.75,73.25,Dapoli,Maharashtra,IN
17.75,75.0,Malshiras,Maharashtra,IN
17.75,77.0,Basavakalyana taluku,Karnataka,IN
17.75,74.25,Koregaon,Maharashtra,IN
17.75,76.25,Tuljapur,Maharashtra,IN
17.75,76.5,Umarga,Maharashtra,IN
17.75,74.5,Man,Maharashtra,IN
17.5,82.0,Addateegala,Andhra Pradesh,IN
17.75,73.0,India,,IN
17.75,73.5,Khed,Maharashtra,IN
17.75,75.5,Mohol,Maharashtra,IN
17.75,74.0,Satara,Maharashtra,IN
17.75,76.75,Basavakalyana taluku,Karnataka,IN
17.5,82.75,Yelamanchili,Andhra Pradesh,IN
17.5,82.25,Rajavommangi,Andhra Pradesh,IN
17.75,74.75,Man,Maharashtra,IN
17.75,76.0,Solapur South,Maharashtra,IN
17.75,73.75,Jaoli,Maharashtra,IN
17.75,77.5,Bidar taluku,Karnataka,IN
17.75,77.25,Humanabad taluku,Karnataka,IN
17.75,78.0,Pulkal mandal,Telangana,IN
17.75,77.75,Jharasangam mandal,Telangana,IN
17.75,78.25,Narsapur mandal,Telangana,IN
17.75,78.5,Manoharabad mandal,Telangana,IN
17.75,79.0,Bachannapet mandal,Telangana,IN
17.75,78.75,Markook mandal,Telangana,IN
17.75,79.5,Wardhannapet mandal,Telangana,IN
17.75,79.75,Parvathagiri mandal,Telangana,IN
17.75,79.25,Ragunathpally mandal,Telangana,IN
17.75,81.25,Chintur,Andhra Pradesh,IN
17.75,80.75,Aswapuram mandal,Telangana,IN
17.75,80.0,Gudur mandal,Telangana,IN
17.75,80.5,Tekulapalle mandal,Telangana,IN
17.75,80.25,Gangaram mandal,Telangana,IN
17.75,81.0,Dummugudem mandal,Telangana,IN
17.75,81.75,Maredumilli,Andhra Pradesh,IN
17.75,82.25,Koyyuru,Andhra Pradesh,IN
17.75,82.75,Ravikamatham,Andhra Pradesh,IN
17.75,83.0,Anakapalle,Andhra Pradesh,IN
17.75,83.25,Visakhapatnam,Andhra Pradesh,IN
17.75,82.5,Koyyuru,Andhra Pradesh,IN
17.75,81.5,Chintur,Andhra Pradesh,IN
17.75,82.0,Y. Ramavaram,Andhra Pradesh,IN
18.0,73.5,Poladpur,Maharashtra,IN
18.0,73.0,Kulāba,Maharashtra,IN
18.0,73.25,Mandangad,Maharashtra,IN
18.0,73.75,Wai,Maharashtra,IN
18.0,74.0,Wai,Maharashtra,IN
18.0,74.75,Malshiras,Maharashtra,IN
18.0,75.0,Indapur,Maharashtra,IN
18.0,78.5,Chegunta mandal,Telangana,IN
18.0,74.25,Phaltan,Maharashtra,IN
18.0,74.5,Phaltan,Maharashtra,IN
18.0,75.75,Barshi,Maharashtra,IN
18.0,77.75,Narayankhed mandal,Telangana,IN
18.0,79.75,Geesugonda mandal,Telangana,IN
18.0,75.25,Madha,Maharashtra,IN
18.0,79.0,Maddur mandal,Telangana,IN
18.0,77.0,Basavakalyana taluku,Karnataka,IN
18.0,76.75,Nilanga,Maharashtra,IN
18.0,76.5,Lohara,Maharashtra,IN
18.0,80.0,Kothaguda mandal,Telangana,IN
18.0,76.25,Tuljapur,Maharashtra,IN
18.0,78.0,Tekmal mandal,Telangana,IN
18.0,78.75,Thoguta mandal,Telangana,IN
18.0,77.25,Bhalki taluku,Karnataka,IN
18.0,77.5,Bidar,Karnataka,IN
18.0,75.5,Madha,Maharashtra,IN
18.0,78.25,Medak mandal,Telangana,IN
18.0,79.5,Khaazipet mandal,Telangana,IN
18.0,79.25,Velair mandal,Telangana,IN
18.0,80.25,Gangaram mandal,Telangana,IN
18.0,80.5,Allapalli mandal,Telangana,IN
18.0,80.75,Manuguru mandal,Telangana,IN
18.0,81.25,Konta Tahsil,Chhattisgarh,IN
18.0,81.0,Konta Tahsil,Chhattisgarh,IN
18.0,81.5,M.V. 79,Odisha,IN
18.25,74.0,Purandhar,Maharashtra,IN
18.0,83.5,Bhogapuram,Andhra Pradesh,IN
18.25,73.5,Mahad,Maharashtra,IN
18.0,82.25,Paparmetla,Odisha,IN
18.25,72.75,Kulāba,Maharashtra,IN
18.0,81.75,Kalimela,Odisha,IN
18.25,73.0,Kulāba,Maharashtra,IN
18.0,82.75,Paderu,Andhra Pradesh,IN
18.0,82.0,Gudem Kotha Veedhi,Andhra Pradesh,IN
18.25,74.25,Baramati,Maharashtra,IN
18.0,82.5,G.Madugula,Andhra Pradesh,IN
18.0,83.25,Jami,Andhra Pradesh,IN
18.25,74.75,Indapur,Maharashtra,IN
18.25,73.75,Velhe,Maharashtra,IN
18.25,74.5,Baramati,Maharashtra,IN
18.0,83.0,Devarapalle,Andhra Pradesh,IN
18.25,75.0,Karmala,Maharashtra,IN
18.25,73.25,Mangaon,Maharashtra,IN
18.25,75.25,Karmala,Maharashtra,IN
18.25,75.5,Paranda,Maharashtra,IN
18.0,76.0,Tuljapur,Maharashtra,IN
18.25,75.75,Barshi,Maharashtra,IN
18.25,76.5,Ausa,Maharashtra,IN
18.25,76.75,Nilanga,Maharashtra,IN
18.25,76.0,Dharashiv,Maharashtra,IN
18.25,80.25,Tadvai mandal,Telangana,IN
18.25,76.25,Dharashiv,Maharashtra,IN
18.25,78.75,Mustabad mandal,Telangana,IN
18.5,75.5,Bhum,Maharashtra,IN
18.5,73.5,Mulshi,Maharashtra,IN
18.5,74.5,Daund,Maharashtra,IN
18.25,77.0,Deoni,Maharashtra,IN
18.25,81.25,Konta Tahsil,Chhattisgarh,IN
18.25,77.75,Pedda Kodapgal mandal,Telangana,IN
18.25,80.75,Venkatapuram mandal,Telangana,IN
18.25,78.25,Tadwai mandal,Telangana,IN
18.25,77.5,Aurad taluku,Karnataka,IN
18.25,80.0,Venkatapur mandal,Telangana,IN
18.25,79.25,Chigurumamidi mandal,Telangana,IN
18.25,79.0,Bejjanki mandal,Telangana,IN
18.25,78.5,Domakonda mandal,Telangana,IN
18.25,78.0,Yellareddy mandal,Telangana,IN
18.25,77.25,Kamalnagar taluku,Karnataka,IN
18.25,81.0,Bijapur District,Chhattisgarh,IN
18.25,79.75,Regonda mandal,Telangana,IN
18.25,79.5,Ellandakunta mandal,Telangana,IN
18.25,80.5,Mangapet mandal,Telangana,IN
18.25,81.5,Konta Tahsil,Chhattisgarh,IN
18.25,81.75,Kalimela,Odisha,IN
18.25,82.0,Orkel,Odisha,IN
18.25,82.25,Jodamba,Odisha,IN
18.25,82.5,Peda Bayalu,Andhra Pradesh,IN
18.25,82.75,Dumbriguda,Andhra Pradesh,IN
18.5,76.5,Renapur,Maharashtra,IN
18.25,83.0,Ananthagiri,Andhra Pradesh,IN
18.25,83.25,Ananthagiri,Andhra Pradesh,IN
18.25,83.5,Gurla,Andhra Pradesh,IN
18.25,83.75,Laveru,Andhra Pradesh,IN
18.5,72.75,Kulāba,Maharashtra,IN
18.5,76.25,Kalamb,Maharashtra,IN
18.5,74.0,Haveli,Maharashtra,IN
18.5,73.25,Sudhagad,Maharashtra,IN
18.5,75.0,Karjat,Maharashtra,IN
18.5,76.0,Kalamb,Maharashtra,IN
18.5,74.25,Daund,Maharashtra,IN
18.5,73.0,Alibag,Maharashtra,IN
18.5,75.75,Washi,Maharashtra,IN
18.5,73.75,Mulshi,Maharashtra,IN
18.5,75.25,Karmala,Maharashtra,IN
18.5,74.75,Shrigonda,Maharashtra,IN
18.5,77.5,Deglur,Maharashtra,IN
18.5,78.5,Sirikonda mandal,Telangana,IN
18.5,80.5,Wazeed mandal,Telangana,IN
18.5,79.5,Srirampur mandal,Telangana,IN
18.5,82.5,Munchingi Puttu,Andhra Pradesh,IN
18.5,83.5,Therlam,Andhra Pradesh,IN
18.5,81.5,Sukma Tahsil,Chhattisgarh,IN
18.5,76.75,Chakur,Maharashtra,IN
18.5,77.0,Chakur,Maharashtra,IN
18.5,77.25,Mukhed,Maharashtra,IN
18.5,77.75,Madnur mandal,Telangana,IN
18.5,78.75,Konaraopet mandal,Telangana,IN
18.5,79.25,Sultanabad mandal,Telangana,IN
18.5,78.0,Varni mandal,Telangana,IN
18.5,79.75,Malharrao mandal,Telangana,IN
18.5,78.25,Indalwai mandal,Telangana,IN
18.5,79.0,Gangadhara mandal,Telangana,IN
18.5,80.75,Bijapur District,Chhattisgarh,IN
18.5,80.25,Kannaigudem mandal,Telangana,IN
18.5,80.0,Mutharam_Mahadevpur mandal,Telangana,IN
18.5,81.0,Bijapur District,Chhattisgarh,IN
18.5,81.75,Chhindgarh Tahsil,Chhattisgarh,IN
18.5,83.0,Pottangi,Odisha,IN
18.5,81.25,Konta Tahsil,Chhattisgarh,IN
18.5,82.25,Mudulipada,Odisha,IN
18.5,82.0,Malkangiri,Odisha,IN
18.5,82.75,Nandapur,Odisha,IN
18.5,83.25,Ramabhadrapuram,Andhra Pradesh,IN
18.5,83.75,Regidi Amadalavalasa,Andhra Pradesh,IN
18.75,73.25,Khalapur,Maharashtra,IN
18.5,84.0,Jalumuru,Andhra Pradesh,IN
18.75,72.75,Kulāba,Maharashtra,IN
18.75,73.0,Pen,Maharashtra,IN
18.75,73.5,Mawal,Maharashtra,IN
18.75,73.75,Mawal,Maharashtra,IN
18.75,74.0,Khed,Maharashtra,IN
18.75,74.25,Shirur,Maharashtra,IN
18.75,74.5,Shrigonda,Maharashtra,IN
18.75,74.75,Shrigonda,Maharashtra,IN
18.75,75.25,Ashti,Maharashtra,IN
18.75,75.5,Patoda,Maharashtra,IN
18.75,78.0,Renjal mandal,Telangana,IN
18.75,79.25,Dharmaram mandal,Telangana,IN
18.75,79.0,Mallial mandal,Telangana,IN
18.75,78.5,Kammarpally mandal,Telangana,IN
18.75,78.25,Armoor mandal,Telangana,IN
18.75,78.75,Kathlapur mandal,Telangana,IN
18.75,79.5,Ramagundam,Telangana,IN
18.75,79.75,Chennur mandal,Telangana,IN
18.75,80.25,Sironcha,Maharashtra,IN
18.75,80.0,Mahadevpur mandal,Telangana,IN
18.75,80.5,Bijapur District,Chhattisgarh,IN
18.75,81.75,Katekalyan Tahsil,Chhattisgarh,IN
18.75,82.5,Boipariguda,Odisha,IN
18.75,80.75,Bijapur District,Chhattisgarh,IN
18.75,81.0,Bijapur District,Chhattisgarh,IN
18.75,81.25,Dantewada Tahsil,Chhattisgarh,IN
18.75,81.5,Katekalyan Tahsil,Chhattisgarh,IN
18.75,82.25,Boipariguda,Odisha,IN
18.75,83.75,Seethampeta,Andhra Pradesh,IN
18.75,84.0,Pathapatnam,Andhra Pradesh,IN
18.75,84.25,Meliaputti,Andhra Pradesh,IN
18.75,82.0,Darbha Tahsil,Chhattisgarh,IN
18.75,82.75,Koraput,Odisha,IN
18.75,83.25,Makkuva,Andhra Pradesh,IN
18.75,83.5,Garugubilli,Andhra Pradesh,IN
18.75,83.0,Pottangi,Odisha,IN
19.0,73.5,Karjat,Maharashtra,IN
19.0,73.0,Thane,Maharashtra,IN
19.0,73.75,Khed,Maharashtra,IN
19.0,74.0,Ambegaon,Maharashtra,IN
19.0,73.25,Panvel,Maharashtra,IN
18.75,75.0,Karjat,Maharashtra,IN
18.75,76.25,Kaij,Maharashtra,IN
18.75,76.75,Ahmadpur,Maharashtra,IN
18.75,76.5,Ambejogai,Maharashtra,IN
18.75,77.25,Kandhar,Maharashtra,IN
18.75,77.5,Naigaon (Khairgaon),Maharashtra,IN
18.75,76.0,Kaij,Maharashtra,IN
18.75,75.75,Beed,Maharashtra,IN
18.75,77.0,Ahmadpur,Maharashtra,IN
19.0,74.5,Parner,Maharashtra,IN
19.0,74.75,Ahmednagar,Maharashtra,IN
19.0,75.0,Ashti,Maharashtra,IN
18.75,77.75,Biloli,Maharashtra,IN
19.0,75.25,Ashti,Maharashtra,IN
19.0,72.75,India,,IN
19.0,75.5,Shirur Kasar,Maharashtra,IN
19.0,75.75,Beed,Maharashtra,IN
19.0,76.0,Beed,Maharashtra,IN
19.0,76.25,Majalgaon,Maharashtra,IN
19.0,76.5,Sonpeth,Maharashtra,IN
19.0,76.75,Gangakhed,Maharashtra,IN
19.0,77.0,Palam,Maharashtra,IN
19.0,77.25,Loha,Maharashtra,IN
19.0,77.5,Naigaon (Khairgaon),Maharashtra,IN
19.0,77.75,Dharmabad,Maharashtra,IN
19.0,78.5,Laxmanchanda mandal,Telangana,IN
19.0,78.0,Mudhole mandal,Telangana,IN
19.0,78.25,Nandipet mandal,Telangana,IN
19.0,78.75,Mallapur mandal,Telangana,IN
19.0,79.0,Beerpur mandal,Telangana,IN
19.0,81.75,Tokapal Tahsil,Chhattisgarh,IN
19.0,82.75,Bhairabsingipur,Odisha,IN
19.0,79.75,Kotapalle mandal,Telangana,IN
19.0,81.5,Bastanar Tahsil,Chhattisgarh,IN
19.0,80.0,Sironcha,Maharashtra,IN
19.0,79.25,Kasipet mandal,Telangana,IN
19.0,82.0,Jagdalpur,Chhattisgarh,IN
19.0,80.5,Bijapur District,Chhattisgarh,IN
19.0,79.5,Mandamarri mandal,Telangana,IN
19.0,80.25,Aheri,Maharashtra,IN
19.0,81.25,Gidam Tahsil,Chhattisgarh,IN
19.0,82.5,Boriguma,Odisha,IN
19.0,80.75,Bijapur District,Chhattisgarh,IN
19.0,82.25,Kotpad,Odisha,IN
19.0,81.0,Bijapur District,Chhattisgarh,IN
19.0,83.0,Kakiriguma,Odisha,IN
19.0,83.25,Bandhugaon,Odisha,IN
19.0,83.5,Gummalakshmipuram,Andhra Pradesh,IN
19.0,83.75,Gunupur,Odisha,IN
19.0,84.0,Serango,Odisha,IN
19.0,84.5,Kanchili,Andhra Pradesh,IN
19.0,84.25,Ramagiri,Odisha,IN
19.25,73.25,Kalyan,Maharashtra,IN
19.25,72.75,Panju Island,Maharashtra,IN
19.25,74.25,Parner,Maharashtra,IN
19.25,73.0,Bhiwandi,Maharashtra,IN
19.25,74.75,Ahmednagar,Maharashtra,IN
19.25,75.0,Pathardi,Maharashtra,IN
19.25,74.0,Junnar,Maharashtra,IN
19.25,74.5,Parner,Maharashtra,IN
19.25,75.25,Pathardi,Maharashtra,IN
19.25,73.5,Murbad,Maharashtra,IN
19.25,73.75,Junnar,Maharashtra,IN
19.25,75.5,Georai,Maharashtra,IN
19.25,75.75,Georai,Maharashtra,IN
19.25,76.0,Majalgaon,Maharashtra,IN
19.25,76.25,Pathri,Maharashtra,IN
19.25,76.75,Parbhani,Maharashtra,IN
19.25,76.5,Manwath,Maharashtra,IN
19.25,77.0,Purna,Maharashtra,IN
19.25,77.75,Bhokar,Maharashtra,IN
19.25,77.5,Mudkhed,Maharashtra,IN
19.25,77.25,Nanded,Maharashtra,IN
19.5,73.5,Shahapur,Maharashtra,IN
19.5,74.5,Rahuri,Maharashtra,IN
19.5,75.5,Paithan,Maharashtra,IN
19.25,78.0,Kubeer mandal,Telangana,IN
19.25,78.75,Kaddampeddur mandal,Telangana,IN
19.25,78.25,Sarangapur mandal,Telangana,IN
19.25,78.5,Neradigonda mandal,Telangana,IN
19.25,79.0,Lingapur mandal,Telangana,IN
19.25,80.25,Aheri,Maharashtra,IN
19.25,79.75,Dahegaon mandal,Telangana,IN
19.5,76.5,Selu,Maharashtra,IN
19.25,79.25,Tiryani mandal,Telangana,IN
19.25,80.0,Aheri,Maharashtra,IN
19.25,79.5,Rebbena mandal,Telangana,IN
19.25,81.5,Kondagaon,Chhattisgarh,IN
19.25,83.0,Andirakanch,Odisha,IN
19.5,77.5,Hadgaon,Maharashtra,IN
19.25,82.25,Kosagumuda,Odisha,IN
19.25,82.75,Tentulikhunti,Odisha,IN
19.25,82.0,Bakavand Tahsil,Chhattisgarh,IN
19.25,81.25,Gidam Tahsil,Chhattisgarh,IN
19.25,82.5,Nabarangapur P.S,Odisha,IN
19.25,80.5,Bijapur District,Chhattisgarh,IN
19.25,81.0,Orchha Tahsil,Chhattisgarh,IN
19.25,80.75,Bijapur District,Chhattisgarh,IN
19.25,81.75,Bastar Tahsil,Chhattisgarh,IN
19.25,83.25,Rayagada,Odisha,IN
19.25,83.75,Gudari,Odisha,IN
19.25,83.5,Rayagada,Odisha,IN
19.25,84.0,R.Udayagiri,Odisha,IN
19.25,84.25,Mohana,Odisha,IN
19.25,84.75,Golanthara,Odisha,IN
19.25,84.5,Nuagaon,Odisha,IN
19.5,73.25,Shahapur,Maharashtra,IN
19.5,73.0,Vasai,Maharashtra,IN
19.5,73.75,Akola,Maharashtra,IN
19.5,74.25,Sangamner,Maharashtra,IN
19.5,74.0,Akole,Maharashtra,IN
19.5,75.0,Nevasa,Maharashtra,IN
19.5,75.25,Shevgaon,Maharashtra,IN
19.5,74.75,Rahuri,Maharashtra,IN
19.5,75.75,Ambad,Maharashtra,IN
19.5,76.0,Ghansawangi,Maharashtra,IN
19.5,78.5,Gudihathnur mandal,Telangana,IN
19.5,76.25,Partur,Maharashtra,IN
19.5,79.5,Sirpur_T mandal,Telangana,IN
19.5,72.75,India,,IN
19.5,76.75,Jintur,Maharashtra,IN
19.5,77.25,Basmath,Maharashtra,IN
19.5,77.0,Aundha (Nagnath),Maharashtra,IN
19.5,80.5,Bhamragad,Maharashtra,IN
19.5,77.75,Umarkhed,Maharashtra,IN
19.5,83.5,Bishamakatak,Odisha,IN
19.5,84.5,Badagada,Odisha,IN
19.5,81.5,Kondagaon,Chhattisgarh,IN
19.5,82.5,Paparahandi,Odisha,IN
19.5,78.0,Umarkhed,Maharashtra,IN
19.5,78.25,Kinwat,Maharashtra,IN
19.0,74.25,Parner,Maharashtra,IN
19.5,78.75,Utnur mandal,Telangana,IN
19.5,79.25,Wankidi mandal,Telangana,IN
19.5,79.0,Kerameri mandal,Telangana,IN
19.5,79.75,Kouthala mandal,Telangana,IN
19.5,80.0,Aheri,Maharashtra,IN
19.5,80.75,Bhamragad,Maharashtra,IN
19.5,80.25,Etapalli,Maharashtra,IN
19.5,81.25,Narayanpur Tahsil,Chhattisgarh,IN
19.5,81.0,Orchha Tahsil,Chhattisgarh,IN
19.5,82.25,Dabugan,Odisha,IN
19.5,84.75,Hinjili,Odisha,IN
19.5,84.25,Mohana,Odisha,IN
19.75,72.75,Palghar,Maharashtra,IN
19.5,81.75,Kondagaon,Chhattisgarh,IN
19.5,85.0,Rambha,Odisha,IN
19.75,73.0,Vikramgad,Maharashtra,IN
19.5,84.0,Adava,Odisha,IN
19.5,83.75,Chandrapur,Odisha,IN
19.5,82.0,Kondagaon,Chhattisgarh,IN
19.5,82.75,Jayapatna,Odisha,IN
19.5,83.25,Kalyanasingpur,Odisha,IN
19.5,83.0,Thuamul Rampur,Odisha,IN
19.75,73.5,Mokhada,Maharashtra,IN
19.75,74.25,Sangamner,Maharashtra,IN
19.75,74.0,Sinnar,Maharashtra,IN
19.75,73.25,Vada,Maharashtra,IN
19.75,74.75,Vaijapur,Maharashtra,IN
19.75,74.5,Rahta,Maharashtra,IN
19.75,75.25,Paithan,Maharashtra,IN
19.75,75.5,Chhatrapati Sambhajinagar,Maharashtra,IN
19.75,75.75,Badnapur,Maharashtra,IN
19.75,73.75,Igatpuri,Maharashtra,IN
19.75,75.0,Gangapur,Maharashtra,IN
19.75,76.0,Jalna,Maharashtra,IN
19.75,76.25,Mantha,Maharashtra,IN
19.75,76.5,Jintur,Maharashtra,IN
19.75,76.75,Sengaon,Maharashtra,IN
19.75,77.25,Hingoli,Maharashtra,IN
19.75,77.75,Mahagaon,Maharashtra,IN
19.75,77.0,Hingoli,Maharashtra,IN
19.75,77.5,Pusad,Maharashtra,IN
19.75,78.0,Mahoor,Maharashtra,IN
19.75,78.5,Tamsi Mandal,Telangana,IN
19.75,78.75,Bela mandal,Telangana,IN
19.75,79.0,Korpana,Maharashtra,IN
19.75,78.25,Kinwat,Maharashtra,IN
19.75,79.25,Rajura,Maharashtra,IN
19.75,79.5,Gondpipri,Maharashtra,IN
19.75,80.0,Mulchera,Maharashtra,IN
19.75,79.75,Gondpipri,Maharashtra,IN
19.75,80.25,Etapalli,Maharashtra,IN
19.75,80.5,Etapalli,Maharashtra,IN
19.75,81.0,Orchha Tahsil,Chhattisgarh,IN
19.75,80.75,Orchha Tahsil,Chhattisgarh,IN
19.75,81.25,Narayanpur Tahsil,Chhattisgarh,IN
19.75,81.75,Kondagaon,Chhattisgarh,IN
19.75,81.5,Kondagaon,Chhattisgarh,IN
19.75,82.0,Kondagaon,Chhattisgarh,IN
19.75,82.25,Umarkote,Odisha,IN
19.75,82.5,Jharigan,Odisha,IN
19.75,83.0,Junagarh,Odisha,IN
19.75,85.25,Balugaon,Odisha,IN
19.75,83.25,Sadar,Odisha,IN
19.75,83.5,Ambadala,Odisha,IN
19.75,82.75,Kokasara,Odisha,IN
19.75,84.0,Brahmanigaon,Odisha,IN
20.0,72.75,Dahanu,Maharashtra,IN
20.0,73.0,Dahanu,Maharashtra,IN
19.75,83.75,Kotagarh,Odisha,IN
19.75,84.5,Surada,Odisha,IN
19.75,85.0,Polasara,Odisha,IN
19.75,84.25,Badagada,Odisha,IN
19.75,85.5,Krushna Prasad,Odisha,IN
19.75,84.75,Buguda,Odisha,IN
20.0,73.75,Nashik,Maharashtra,IN
20.0,74.0,Niphad,Maharashtra,IN
20.0,75.25,Khuldabad,Maharashtra,IN
20.0,74.5,Yevla,Maharashtra,IN
20.0,75.5,Chhatrapati Sambhajinagar,Maharashtra,IN
20.0,73.25,Jawhar,Maharashtra,IN
20.0,73.5,Trimbakeshwar,Maharashtra,IN
20.0,75.0,Gangapur,Maharashtra,IN
20.0,74.75,Vaijapur,Maharashtra,IN
20.0,74.25,Niphad,Maharashtra,IN
20.0,75.75,Badnapur,Maharashtra,IN
20.0,76.0,Deulgaon Raja,Maharashtra,IN
20.0,76.25,Sindkhed Raja,Maharashtra,IN
20.0,76.5,Lonar,Maharashtra,IN
20.0,76.75,Risod,Maharashtra,IN
20.0,77.0,Sengaon,Maharashtra,IN
20.0,77.25,Washim,Maharashtra,IN
20.0,77.75,Mahagaon,Maharashtra,IN
20.0,78.25,Ghatanji,Maharashtra,IN
20.0,77.5,Pusad,Maharashtra,IN
20.0,78.0,Arni,Maharashtra,IN
20.0,78.5,Kelapur,Maharashtra,IN
20.0,79.5,Chandrapur,Maharashtra,IN
20.0,78.75,Zari-Jamani,Maharashtra,IN
20.0,79.0,Wani,Maharashtra,IN
20.0,79.25,Chandrapur,Maharashtra,IN
20.0,80.25,Gadchiroli,Maharashtra,IN
20.0,80.5,Etapalli,Maharashtra,IN
20.0,79.75,Mul,Maharashtra,IN
20.0,80.0,Chamorshi,Maharashtra,IN
20.0,80.75,Pakhanjur Tahsil,Chhattisgarh,IN
20.0,81.75,Kondagaon,Chhattisgarh,IN
20.0,83.75,Tumudibandha,Odisha,IN
20.0,85.75,Delanga,Odisha,IN
20.25,72.75,Umbergaon Taluka,Gujarat,IN
20.0,84.5,Bhanjanagar,Odisha,IN
20.0,84.75,Jagannath Prasad,Odisha,IN
20.0,81.0,Pakhanjur Tahsil,Chhattisgarh,IN
20.0,83.5,Narala,Odisha,IN
20.0,82.0,Raighar,Odisha,IN
20.0,83.25,Sadar,Odisha,IN
20.0,86.0,Nimapada,Odisha,IN
20.0,81.25,Antagarh Tahsil,Chhattisgarh,IN
20.0,84.25,Raikia,Odisha,IN
20.0,82.25,Mainpur Tahsil,Chhattisgarh,IN
20.0,82.75,Golamunda,Odisha,IN
20.0,82.5,Mainpur Tahsil,Chhattisgarh,IN
20.0,84.0,Baliguda,Odisha,IN
20.0,85.25,Ranapur,Odisha,IN
20.0,81.5,Kondagaon,Chhattisgarh,IN
20.0,85.5,Nirakarpur,Odisha,IN
20.0,86.25,Kakatpur,Odisha,IN
20.25,73.0,Silvassa,Dadra and Nagar Haveli and Daman and Diu,IN
20.0,85.0,Odagaon,Odisha,IN
20.25,73.25,Kaparada Taluka,Gujarat,IN
20.25,73.5,Peint,Maharashtra,IN
20.25,74.25,Chandvad,Maharashtra,IN
20.0,83.0,Kegaon,Odisha,IN
20.25,74.0,Chandvad,Maharashtra,IN
20.25,73.75,Dindori,Maharashtra,IN
20.25,75.0,Kannad,Maharashtra,IN
20.25,74.5,Nandgaon,Maharashtra,IN
20.25,74.75,Nandgaon,Maharashtra,IN
20.25,75.25,Kannad,Maharashtra,IN
20.25,75.75,Bhokardan,Maharashtra,IN
20.25,75.5,Sillod,Maharashtra,IN
20.25,76.0,Jafferabad,Maharashtra,IN
20.25,76.25,Chikhli,Maharashtra,IN
20.25,77.25,Mangrulpir,Maharashtra,IN
20.25,76.5,Mehkar,Maharashtra,IN
20.25,76.75,Mehkar,Maharashtra,IN
20.25,77.0,Malegaon,Maharashtra,IN
20.25,78.0,Yavatmal,Maharashtra,IN
20.25,78.5,Kelapur,Maharashtra,IN
20.25,78.75,Ralegaon,Maharashtra,IN
20.25,79.0,Warora,Maharashtra,IN
20.25,77.75,Darwha,Maharashtra,IN
20.25,77.5,Manora,Maharashtra,IN
20.25,78.25,Yavatmal,Maharashtra,IN
20.25,79.25,Bhadravati,Maharashtra,IN
20.5,73.5,Surgana,Maharashtra,IN
20.25,79.5,Sindewahi,Maharashtra,IN
20.5,74.5,Malegaon,Maharashtra,IN
20.5,75.5,Sillod,Maharashtra,IN
20.25,82.75,Khariar,Odisha,IN
20.25,83.5,Madanpur Rampur,Odisha,IN
20.25,85.75,Tamando,Odisha,IN
20.25,80.5,Mohla Manpur Ambagarh Chouki Tahsil,Chhattisgarh,IN
20.25,80.0,Gadchiroli,Maharashtra,IN
20.25,80.25,Dhanora,Maharashtra,IN
20.25,85.25,Fategarh,Odisha,IN
20.25,86.25,Tirtol,Odisha,IN
20.25,85.5,Khordha,Odisha,IN
20.5,72.75,Daman,Dadra and Nagar Haveli and Daman and Diu,IN
20.25,84.75,Dasapalla,Odisha,IN
20.25,85.0,Nayagarh Sadar,Odisha,IN
20.25,81.25,Bhanupratappur Tahsil,Chhattisgarh,IN
20.25,84.25,Tikabali,Odisha,IN
20.25,86.5,Kujang,Odisha,IN
20.25,83.75,Baliguda,Odisha,IN
20.25,86.0,Gobindpur,Odisha,IN
20.25,83.0,Sindhekela,Odisha,IN
20.25,79.75,Sindewahi,Maharashtra,IN
20.25,80.75,Durgkondal Tahsil,Chhattisgarh,IN
20.25,82.5,Boden,Odisha,IN
20.25,83.25,Kesinga,Odisha,IN
20.25,81.0,Bhanupratappur Tahsil,Chhattisgarh,IN
20.25,82.25,Mainpur Tahsil,Chhattisgarh,IN
20.25,81.5,Kanker Tahsil,Chhattisgarh,IN
20.25,84.0,Baliguda,Odisha,IN
20.25,81.75,Narharpur Tahsil,Chhattisgarh,IN
20.25,84.5,Chakapada,Odisha,IN
20.25,82.0,Nagri Tahsil,Chhattisgarh,IN
20.5,76.5,Khamgaon,Maharashtra,IN
20.5,77.5,Karanja,Maharashtra,IN
20.5,73.0,Pardi Taluka,Gujarat,IN
20.5,73.25,Dharampur Taluka,Gujarat,IN
20.5,73.75,Surgana,Maharashtra,IN
20.5,74.0,Kalwan,Maharashtra,IN
20.5,74.25,Deola,Maharashtra,IN
20.5,78.5,Kalamb,Maharashtra,IN
20.5,74.75,Nandgaon,Maharashtra,IN
20.5,75.0,Chalisgaon,Maharashtra,IN
20.5,75.75,Sillod,Maharashtra,IN
20.5,75.25,Soegaon,Maharashtra,IN
20.5,76.75,Patur,Maharashtra,IN
20.5,76.25,Buldhana,Maharashtra,IN
20.5,76.0,Buldhana,Maharashtra,IN
20.5,79.5,Chimur Taluka,Maharashtra,IN
20.5,80.5,Korchi,Maharashtra,IN
20.5,82.5,Komna,Odisha,IN
20.5,84.5,Puruna Katak,Odisha,IN
20.5,83.5,Tushura,Odisha,IN
20.5,81.5,Charama Tahsil,Chhattisgarh,IN
20.5,77.25,Barshitakli,Maharashtra,IN
20.5,85.5,Tigiria,Odisha,IN
20.5,77.0,Patur,Maharashtra,IN
20.5,86.5,Kendrapara Sadar,Odisha,IN
20.5,77.75,Ner,Maharashtra,IN
20.5,78.25,Babulgaon,Maharashtra,IN
20.5,78.0,Yavatmal,Maharashtra,IN
20.5,78.75,Hinganghat,Maharashtra,IN
20.5,82.0,Nagri Tahsil,Chhattisgarh,IN
20.5,81.25,Dondi Tahsil,Chhattisgarh,IN
20.5,83.75,Kantamal,Odisha,IN
20.5,79.0,Samudrapur,Maharashtra,IN
20.5,80.0,Armori,Maharashtra,IN
20.5,79.25,Chimur Taluka,Maharashtra,IN
20.5,82.25,Bindranavagarh(Gariyaband) Tahsil,Chhattisgarh,IN
20.5,80.25,Kurkheda,Maharashtra,IN
20.5,81.0,Dondi Tahsil,Chhattisgarh,IN
20.5,86.0,Jagatpur,Odisha,IN
20.5,83.0,Belpara,Odisha,IN
20.5,79.75,Nagbhir Taluka,Maharashtra,IN
20.5,80.75,Mohla Tahsil,Chhattisgarh,IN
20.5,82.75,Turekela,Odisha,IN
20.5,84.0,Gochhapada,Odisha,IN
20.5,85.75,Choudwar,Odisha,IN
20.5,81.75,Nagri Tahsil,Chhattisgarh,IN
20.5,85.0,Narasinghpur,Odisha,IN
20.5,85.25,Kanpur,Odisha,IN
20.5,84.25,Khajuripada,Odisha,IN
20.5,84.75,Gania,Odisha,IN
20.5,83.25,Saintala,Odisha,IN
20.5,86.25,Nischintakoili,Odisha,IN
20.75,70.75,Kodinar Taluka,Gujarat,IN
20.75,72.75,Valsad,Gujarat,IN
20.75,73.0,Gandevi Taluka,Gujarat,IN
20.5,86.75,Mahakalapada,Odisha,IN
20.75,71.0,Una Taluka,Gujarat,IN
20.75,73.25,Bansda Taluka,Gujarat,IN
20.75,73.5,Vaghai Taluka,Gujarat,IN
20.75,73.75,Ahava Taluka,Gujarat,IN
20.75,74.0,Baglan,Maharashtra,IN
20.75,74.25,Baglan,Maharashtra,IN
20.75,78.0,Chandur Railway,Maharashtra,IN
20.75,74.75,Dhule,Maharashtra,IN
20.75,74.5,Malegaon,Maharashtra,IN
20.75,77.0,Akola,Maharashtra,IN
20.75,77.25,Akola,Maharashtra,IN
20.75,75.5,Pachora,Maharashtra,IN
20.75,75.0,Parola,Maharashtra,IN
20.75,75.25,Bhadgaon,Maharashtra,IN
20.75,76.75,Shegaon,Maharashtra,IN
20.75,78.25,Dhamangaon Railway,Maharashtra,IN
20.75,75.75,Jamner,Maharashtra,IN
20.75,77.5,Murtijapur,Maharashtra,IN
20.75,76.25,Nandura,Maharashtra,IN
20.75,77.75,Nandgaon-Khandeshwar,Maharashtra,IN
20.75,76.0,Motala,Maharashtra,IN
20.75,76.5,Khamgaon,Maharashtra,IN
20.75,78.5,Wardha,Maharashtra,IN
20.75,84.75,Purunakot,Odisha,IN
20.75,79.75,Lakhandur Taluka,Maharashtra,IN
20.75,80.25,Arjuni Morgaon Taluka,Maharashtra,IN
20.75,83.75,Tarbha,Odisha,IN
20.75,85.5,Dhenkanal Sadar,Odisha,IN
20.75,81.25,Balod Tahsil,Chhattisgarh,IN
20.75,81.0,Dondi Luhara Tahsil,Chhattisgarh,IN
20.75,81.5,Dhamtari Tahsil,Chhattisgarh,IN
20.75,81.75,Dhamtari Tahsil,Chhattisgarh,IN
20.75,78.75,Seloo,Maharashtra,IN
20.75,82.75,Khaprakhol,Odisha,IN
20.75,85.25,Bhusan Steel Limited,Odisha,IN
20.75,86.0,Nihalprasad,Odisha,IN
20.75,79.0,Umred,Maharashtra,IN
20.75,82.5,Nuapada,Odisha,IN
20.75,80.0,Arjuni Morgaon Taluka,Maharashtra,IN
20.75,83.25,Balangir,Odisha,IN
20.75,84.25,Baudh Sadar,Odisha,IN
20.75,79.5,Bhiwapur Taluka,Maharashtra,IN
20.75,80.5,Korchi,Maharashtra,IN
20.75,80.75,Mohla Manpur Ambagarh Chouki Tahsil,Chhattisgarh,IN
20.75,84.0,Manamunda,Odisha,IN
20.75,85.0,Bantala,Odisha,IN
20.75,79.25,Bhiwapur Taluka,Maharashtra,IN
20.75,83.0,Patnagarh,Odisha,IN
20.75,84.5,Athmallik,Odisha,IN
20.75,82.0,Chhura Tahsil,Chhattisgarh,IN
20.75,83.5,Balangir,Odisha,IN
20.75,82.25,Chhura Tahsil,Chhattisgarh,IN
20.75,85.75,Gandia,Odisha,IN
20.75,86.25,Jajpur Sadar,Odisha,IN
20.75,86.5,Binjharpur,Odisha,IN
20.75,86.75,Rajkanika,Odisha,IN
21.0,73.25,Valod Taluka,Gujarat,IN
21.0,70.5,Talala Taluka,Gujarat,IN
21.0,74.5,Dhule,Maharashtra,IN
21.0,74.0,Sakri,Maharashtra,IN
21.0,70.0,Junagadh,Gujarat,IN
21.0,72.75,Jalalpore Taluka,Gujarat,IN
20.75,87.0,Rajnagar,Odisha,IN
21.0,71.25,Khambha Taluka,Gujarat,IN
21.0,71.0,Una Taluka,Gujarat,IN
21.0,70.75,Talala Taluka,Gujarat,IN
21.0,73.0,Navsari,Gujarat,IN
21.0,73.75,Subir Taluka,Gujarat,IN
21.0,70.25,Veraval,Gujarat,IN
21.0,71.5,Rajula Taluka,Gujarat,IN
21.0,74.25,Sakri,Maharashtra,IN
21.0,73.5,Vyara Taluka,Gujarat,IN
21.0,74.75,Dhule,Maharashtra,IN
21.0,76.0,Muktainagar (Edlabad),Maharashtra,IN
21.0,75.25,Dharangaon,Maharashtra,IN
21.0,77.25,Daryapur,Maharashtra,IN
21.0,75.5,Erandol,Maharashtra,IN
21.0,75.75,Bhusawal,Maharashtra,IN
21.0,75.0,Amalner,Maharashtra,IN
21.0,80.25,Sadak-Arjuni Taluka,Maharashtra,IN
21.0,82.25,Bagbahra Tahsil,Chhattisgarh,IN
21.0,77.0,Akot,Maharashtra,IN
21.0,76.5,Jalgaon Jamod,Maharashtra,IN
21.0,78.0,Teosa,Maharashtra,IN
21.0,78.75,Hingna,Maharashtra,IN
21.0,82.0,Rajim Tahsil,Chhattisgarh,IN
21.0,81.25,Gunderdehi Tahsil,Chhattisgarh,IN
21.0,79.0,Hingna,Maharashtra,IN
21.0,76.25,Muktainagar (Edlabad),Maharashtra,IN
21.0,76.75,Sangrampur,Maharashtra,IN
21.0,79.75,Pauni Taluka,Maharashtra,IN
21.0,77.5,Daryapur,Maharashtra,IN
21.0,77.75,Amravati,Maharashtra,IN
21.0,79.5,Kuhi Taluka,Maharashtra,IN
21.0,80.75,Dongargaon Tahsil,Chhattisgarh,IN
21.0,82.5,Bagbahra Tahsil,Chhattisgarh,IN
21.0,83.0,Paikamal,Odisha,IN
21.0,82.75,Jharbandha,Odisha,IN
21.0,78.25,Arvi,Maharashtra,IN
21.0,79.25,Kuhi Taluka,Maharashtra,IN
21.0,80.0,Sakoli Taluka,Maharashtra,IN
21.0,78.5,Karanja,Maharashtra,IN
21.0,81.0,Dondi Luhara Tahsil,Chhattisgarh,IN
21.0,80.5,Chhuriya Tahsil,Chhattisgarh,IN
21.0,81.5,Patan Tahsil,Chhattisgarh,IN
21.0,81.75,Kurud Tahsil,Chhattisgarh,IN
21.0,83.5,Dunguripali,Odisha,IN
21.0,83.25,Gaisilet,Odisha,IN
21.0,83.75,Binika,Odisha,IN
21.0,85.5,Kankadahad,Odisha,IN
21.0,84.25,Rairakhol,Odisha,IN
21.0,84.75,Handapa,Odisha,IN
21.0,84.0,Biramaharajpur,Odisha,IN
21.0,85.0,Kaniha,Odisha,IN
21.0,86.0,Kalinganagar,Odisha,IN
21.0,86.25,Korai,Odisha,IN
21.0,85.75,Kaliapani,Odisha,IN
21.0,85.25,Talcher Sadar,Odisha,IN
21.0,86.5,Bhadrak,Odisha,IN
21.0,86.75,Naikanidihi,Odisha,IN
21.0,84.5,Kishorenagar,Odisha,IN
21.25,70.0,Porbandar Taluka,Gujarat,IN
21.25,69.75,Junagadh,Gujarat,IN
21.25,70.25,Keshhod Taluka,Gujarat,IN
21.25,76.5,Khaknar Tahsil,Madhya Pradesh,IN
21.25,71.0,Dhari Taluka,Gujarat,IN
21.25,76.75,Dharni,Maharashtra,IN
21.25,71.25,Khambha Taluka,Gujarat,IN
21.25,78.0,Morshi,Maharashtra,IN
21.25,77.25,Chikhaldara,Maharashtra,IN
21.25,77.75,Chandurbazar,Maharashtra,IN
21.25,70.5,Mendarda Taluka,Gujarat,IN
21.25,75.25,Chopda,Maharashtra,IN
21.25,72.75,Chorasi Taluka,Gujarat,IN
21.25,71.5,Savar Kundla Taluka,Gujarat,IN
21.25,74.5,Sindkhede,Maharashtra,IN
21.25,77.5,Achalpur,Maharashtra,IN
21.25,77.0,Chikhaldara,Maharashtra,IN
21.25,74.75,Sindkhede,Maharashtra,IN
21.25,72.0,Talaja Taluka,Gujarat,IN
21.25,73.75,Uchchhal Taluka,Gujarat,IN
21.25,70.75,Visavadar Taluka,Gujarat,IN
21.25,75.5,Chopda,Maharashtra,IN
21.25,78.25,Ashti,Maharashtra,IN
21.25,76.25,Burhanpur Tahsil,Madhya Pradesh,IN
21.25,75.0,Shirpur,Maharashtra,IN
21.25,78.5,Katol,Maharashtra,IN
21.25,72.5,India,,IN
21.25,73.5,Songadh Taluka,Gujarat,IN
21.25,73.25,Mandvi Taluka,Gujarat,IN
21.25,71.75,Mahuva Taluka,Gujarat,IN
21.25,73.0,Kamrej Taluka,Gujarat,IN
21.25,75.75,Yawal,Maharashtra,IN
21.25,74.0,Nawapur,Maharashtra,IN
21.25,76.0,Raver,Maharashtra,IN
21.25,74.25,Nandurbar,Maharashtra,IN
21.25,78.75,Katol,Maharashtra,IN
21.25,79.0,Nagpur Rural Taluka,Maharashtra,IN
21.25,79.25,Parseoni,Maharashtra,IN
21.25,80.0,Tiroda Taluka,Maharashtra,IN
21.25,79.75,Mohadi Taluka,Maharashtra,IN
21.25,79.5,Mauda Taluka,Maharashtra,IN
21.25,82.5,Pithora Tahsil,Chhattisgarh,IN
21.25,81.0,Khairagarh Tahsil,Chhattisgarh,IN
21.25,80.25,Goregaon Taluka,Maharashtra,IN
21.25,81.5,Dhamdha Tahsil,Chhattisgarh,IN
21.25,81.25,Durg,Chhattisgarh,IN
21.25,80.75,Dongargarh Tahsil,Chhattisgarh,IN
21.25,80.5,Salekasa Taluka,Maharashtra,IN
21.25,82.75,Pithora Tahsil,Chhattisgarh,IN
21.25,82.25,Mahasamund Tahsil,Chhattisgarh,IN
21.25,82.0,Arang Tahsil,Chhattisgarh,IN
21.25,81.75,Raipur,Chhattisgarh,IN
21.5,69.5,India,,IN
21.5,73.5,Dediapada Taluka,Gujarat,IN
21.5,70.5,Junagadh Taluka,Gujarat,IN
21.5,71.5,Gariadhar Taluka,Gujarat,IN
21.5,72.5,Bharūch,Gujarat,IN
21.25,83.0,Saraipali Tahsil,Chhattisgarh,IN
21.5,74.5,Shahade,Maharashtra,IN
21.25,85.0,Rengali Damsite,Odisha,IN
21.5,71.25,Amreli,Gujarat,IN
21.5,70.25,Vanthali Taluka,Gujarat,IN
21.5,73.75,Sagbara Taluka,Gujarat,IN
21.5,75.5,Bhagwanpura Tahsil,Madhya Pradesh,IN
21.5,72.75,Hansot Taluka,Gujarat,IN
21.5,76.5,Nepanagar Tahsil,Madhya Pradesh,IN
21.25,84.25,Rairakhol,Odisha,IN
21.25,86.5,Khaira,Odisha,IN
21.25,83.5,Barapali,Odisha,IN
21.25,86.75,Soro,Odisha,IN
21.25,84.0,Dhama,Odisha,IN
21.25,83.25,Sohela,Odisha,IN
21.5,77.5,Bhainsdehi Tahsil,Madhya Pradesh,IN
21.25,85.5,Telkoi,Odisha,IN
21.5,70.75,Bhesan Taluka,Gujarat,IN
21.25,84.5,Naktideul,Odisha,IN
21.5,71.75,Palitana Taluka,Gujarat,IN
21.5,69.75,Porbandar Taluka,Gujarat,IN
21.5,70.0,Manavadar Taluka,Gujarat,IN
21.25,83.75,Bheden,Odisha,IN
21.25,86.25,Soso,Odisha,IN
21.5,71.0,Amreli Taluka,Gujarat,IN
21.5,73.25,Valia Taluka,Gujarat,IN
21.25,84.75,Naktideul,Odisha,IN
21.25,86.0,Ghasipura,Odisha,IN
21.25,85.75,Harichandanpur,Odisha,IN
21.5,73.0,Mangrol Taluka,Gujarat,IN
21.5,72.0,Sihor Taluka,Gujarat,IN
21.25,85.25,Khamar,Odisha,IN
21.5,78.5,Narkhed,Maharashtra,IN
21.5,74.0,Nizar Taluka,Gujarat,IN
21.5,75.25,Varla,Madhya Pradesh,IN
21.5,75.0,Shirpur,Maharashtra,IN
21.5,74.75,Shahade,Maharashtra,IN
21.5,74.25,Nizar Taluka,Gujarat,IN
21.5,76.75,Khaknar Tahsil,Madhya Pradesh,IN
21.5,75.75,Jhiranya Tahsil,Madhya Pradesh,IN
21.5,76.0,Nepanagar Tahsil,Madhya Pradesh,IN
21.5,77.0,Dharni,Maharashtra,IN
21.5,77.75,Bhainsdehi Tahsil,Madhya Pradesh,IN
21.5,76.25,Nepanagar Tahsil,Madhya Pradesh,IN
21.5,77.25,Chikhaldara,Maharashtra,IN
21.5,78.0,Multai Tahsil,Madhya Pradesh,IN
21.5,79.5,Tumsar Taluka,Maharashtra,IN
21.5,78.25,Warud,Maharashtra,IN
21.5,79.0,Parseoni,Maharashtra,IN
21.5,78.75,Sausar Tahsil,Madhya Pradesh,IN
21.5,80.5,Lanji Tahsil,Madhya Pradesh,IN
21.5,79.25,Ramtek Taluka,Maharashtra,IN
21.5,81.5,Berla Tahsil,Chhattisgarh,IN
21.5,84.5,Reamal,Odisha,IN
21.5,83.5,Bhatli,Odisha,IN
21.5,82.5,Kasdol Tahsil,Chhattisgarh,IN
21.5,85.5,Kanjipani,Odisha,IN
21.5,86.5,Kaptipada,Odisha,IN
21.5,79.75,Tumsar Taluka,Maharashtra,IN
21.5,80.0,Tiroda Taluka,Maharashtra,IN
21.5,83.25,Baramkela Tahsil,Chhattisgarh,IN
21.5,84.25,Jamankira,Odisha,IN
21.5,84.0,Ainthapali,Odisha,IN
21.5,82.0,Palari Tahsil,Chhattisgarh,IN
21.5,86.25,Mahuldiha,Odisha,IN
21.5,82.75,Pithora Tahsil,Chhattisgarh,IN
21.5,83.75,Attabira,Odisha,IN
21.5,81.25,Dhamdha Tahsil,Chhattisgarh,IN
21.5,82.25,Palari Tahsil,Chhattisgarh,IN
21.5,86.0,Ghatgaon,Odisha,IN
21.5,85.75,Ghatgaon,Odisha,IN
21.5,85.25,Palalahada,Odisha,IN
21.5,80.25,Gondiya Taluka,Maharashtra,IN
21.5,81.75,Tilda Tahsil,Chhattisgarh,IN
21.5,86.75,Nilagiri,Odisha,IN
21.5,83.0,Sarangarh Tahsil,Chhattisgarh,IN
21.5,80.75,Chhuikhadan Tahsil,Chhattisgarh,IN
21.5,81.0,Khairagarh Tahsil,Chhattisgarh,IN
21.5,85.0,Barkot,Odisha,IN
21.75,69.5,Porbandar,Gujarat,IN
21.5,87.0,Baleshwar Sadar,Odisha,IN
21.5,84.75,Debagarh,Odisha,IN
21.75,69.25,India,,IN
21.75,69.75,Ranavav Taluka,Gujarat,IN
21.75,70.5,Dhoraji Taluka,Gujarat,IN
21.75,70.25,Upleta Taluka,Gujarat,IN
21.75,70.0,Kutiyana Taluka,Gujarat,IN
21.75,71.25,Babra Taluka,Gujarat,IN
21.75,70.75,Jetpur Taluka,Gujarat,IN
21.75,71.0,Gondal Taluka,Gujarat,IN
21.75,72.75,Vagra Taluka,Gujarat,IN
21.75,72.0,Bhavnagar,Gujarat,IN
21.75,72.5,Bharūch,Gujarat,IN
21.75,71.75,Sihor Taluka,Gujarat,IN
21.75,71.5,Lathi Taluka,Gujarat,IN
21.75,72.25,Bhavnagar,Gujarat,IN
21.75,73.0,Bharuch Taluka,Gujarat,IN
21.75,74.0,Akkalkuwa,Maharashtra,IN
21.75,73.25,Jhagadiya Taluka,Gujarat,IN
21.75,73.75,Dediapada Taluka,Gujarat,IN
21.75,73.5,Nandod Taluka,Gujarat,IN
21.75,74.25,Akrani,Maharashtra,IN
21.75,75.0,Barwani Tahsil,Madhya Pradesh,IN
21.75,75.75,Bhagwanpura Tahsil,Madhya Pradesh,IN
21.75,74.75,Pansemal Tahsil,Madhya Pradesh,IN
21.75,75.25,Sendhwa Tahsil,Madhya Pradesh,IN
21.75,74.5,Shahade,Maharashtra,IN
21.75,75.5,Khargone,Madhya Pradesh,IN
21.75,76.0,Jhiranya Tahsil,Madhya Pradesh,IN
21.75,76.25,Pandhana Tahsil,Madhya Pradesh,IN
21.75,76.75,Khalwa Tahsil,Madhya Pradesh,IN
21.75,77.0,Khalwa Tahsil,Madhya Pradesh,IN
21.75,76.5,Khandwa Tahsil,Madhya Pradesh,IN
21.75,78.5,Pandhurna Tahsil,Madhya Pradesh,IN
21.75,77.5,Bhainsdehi Tahsil,Madhya Pradesh,IN
21.75,77.25,Bhainsdehi Tahsil,Madhya Pradesh,IN
21.75,79.75,Katangi Tahsil,Madhya Pradesh,IN
21.75,78.25,Multai Tahsil,Madhya Pradesh,IN
21.75,79.0,Bichhua Tahsil,Madhya Pradesh,IN
21.75,80.0,Waraseoni Tahsil,Madhya Pradesh,IN
21.75,80.5,Baihar Tahsil,Madhya Pradesh,IN
21.75,81.0,Sahaspur Lohara Tahsil,Chhattisgarh,IN
21.75,81.75,Simga Tahsil,Chhattisgarh,IN
21.75,80.25,Balagat Tahsil,Madhya Pradesh,IN
21.75,77.75,Bhainsdehi Tahsil,Madhya Pradesh,IN
21.75,81.25,Sahaspur Lohara Tahsil,Chhattisgarh,IN
21.75,78.75,Sausar Tahsil,Madhya Pradesh,IN
21.75,81.5,Bemetara Tahsil,Chhattisgarh,IN
21.75,80.75,Chhuikhadan Tahsil,Chhattisgarh,IN
21.75,78.0,Betul Tahsil,Madhya Pradesh,IN
21.75,79.5,Kurai Tahsil,Madhya Pradesh,IN
21.75,79.25,Kurai Tahsil,Madhya Pradesh,IN
21.75,82.0,Bhatapara Tahsil,Chhattisgarh,IN
21.75,82.25,Baloda Bazar Tahsil,Chhattisgarh,IN
21.75,82.75,Champa Tahsil,Chhattisgarh,IN
21.75,83.0,Malkharoda Tahsil,Chhattisgarh,IN
21.75,82.5,Pamgarh Tahsil,Chhattisgarh,IN
21.75,83.25,Dabhra Tahsil,Chhattisgarh,IN
21.75,83.5,Rengali,Odisha,IN
21.75,84.0,Thelkoloi,Odisha,IN
21.75,83.75,Lakhanpur,Odisha,IN
21.75,84.75,Tikaetpali,Odisha,IN
21.75,84.25,Katarbaga,Odisha,IN
21.75,84.5,Mahulpalli,Odisha,IN
21.75,85.25,Nayakote,Odisha,IN
21.75,85.5,Kendujhar Sadar,Odisha,IN
21.75,85.0,Lahunipara,Odisha,IN
21.75,85.75,Turumunga,Odisha,IN
21.75,86.25,Karanjia,Odisha,IN
21.75,86.0,Karanjia,Odisha,IN
21.75,86.5,Baripada Sadar,Odisha,IN
21.75,87.75,Contai-I,West Bengal,IN
21.75,88.25,Namkhana,West Bengal,IN
21.75,86.75,Barsahi,Odisha,IN
21.75,87.25,Jaleswar,Odisha,IN
21.75,87.5,Egra-I,West Bengal,IN
21.75,87.0,Baisinga,Odisha,IN
21.75,88.0,India,,IN
21.75,88.5,Mouchar Island,,IN
21.75,89.0,Chandkhali Island,West Bengal,IN
21.75,88.75,South 24 Parganas,West Bengal,IN
22.0,69.25,Kalyanpur Taluka,Gujarat,IN
22.0,69.5,Kalyanpur Taluka,Gujarat,IN
22.0,69.75,Bhanvad Taluka,Gujarat,IN
22.0,70.5,Jam Kandoma Taluka,Gujarat,IN
22.0,70.75,Gondal,Gujarat,IN
22.0,70.0,Jamjodhpur Taluka,Gujarat,IN
22.0,70.25,Jamjodhpur Taluka,Gujarat,IN
22.0,71.0,Gondal Taluka,Gujarat,IN
22.0,73.5,Dabhoi Taluka,Gujarat,IN
22.0,74.0,Kavant Taluka,Gujarat,IN
22.0,72.5,Bharūch,Gujarat,IN
22.0,73.75,Nasvadi Taluka,Gujarat,IN
22.0,71.5,Gadhada Taluka,Gujarat,IN
22.0,71.25,Babra Taluka,Gujarat,IN
22.0,73.25,Karjan Taluka,Gujarat,IN
22.0,72.25,Dholera Taluka,Gujarat,IN
22.0,71.75,Vallabhipur Taluka,Gujarat,IN
22.0,72.75,Jambusar Taluka,Gujarat,IN
22.0,73.0,Amod Taluka,Gujarat,IN
22.0,72.0,Vallabhipur Taluka,Gujarat,IN
22.0,69.0,India,,IN
22.0,74.25,Sondwa Tehsil,Madhya Pradesh,IN
22.0,74.75,Pati Tahsil,Madhya Pradesh,IN
22.0,75.0,Barwani Tahsil,Madhya Pradesh,IN
22.0,75.25,Thikri Tahsil,Madhya Pradesh,IN
22.0,75.5,Kasrawad Tahsil,Madhya Pradesh,IN
22.0,74.5,Pati Tahsil,Madhya Pradesh,IN
22.0,75.75,Kasrawad Tahsil,Madhya Pradesh,IN
22.0,76.25,Khandwa Tahsil,Madhya Pradesh,IN
22.0,76.0,Bhikangaon Tahsil,Madhya Pradesh,IN
22.0,76.5,Khandwa Tahsil,Madhya Pradesh,IN
22.0,76.75,Harsud Tahsil,Madhya Pradesh,IN
22.0,77.0,Sirali Tahsil,Madhya Pradesh,IN
22.0,77.5,Bhainsdehi Tahsil,Madhya Pradesh,IN
22.0,77.25,Rehatgarh Tahsil,Madhya Pradesh,IN
22.0,77.75,Betul Tahsil,Madhya Pradesh,IN
22.0,78.75,Mohkhed Tahsil,Madhya Pradesh,IN
22.0,80.0,Lalbarra Tahsil,Madhya Pradesh,IN
22.0,78.5,Jamai Tahsil,Madhya Pradesh,IN
22.0,79.75,Barghat Tahsil,Madhya Pradesh,IN
22.0,80.5,Baihar Tahsil,Madhya Pradesh,IN
22.0,78.0,Betul,Madhya Pradesh,IN
22.0,79.0,Chhindwara,Madhya Pradesh,IN
22.0,79.25,Chaurai Tahsil,Madhya Pradesh,IN
22.0,80.25,Balagat Tahsil,Madhya Pradesh,IN
22.0,78.25,Amli Tahsil,Madhya Pradesh,IN
22.0,79.5,Seoni,Madhya Pradesh,IN
22.0,80.75,Baihar Tahsil,Madhya Pradesh,IN
22.0,81.25,Kawardha Tahsil,Chhattisgarh,IN
22.0,81.0,Bodla Tahsil,Chhattisgarh,IN
22.0,81.5,Bemetara Tahsil,Chhattisgarh,IN
22.0,81.75,Mungeli,Chhattisgarh,IN
22.0,82.0,Takhatpur Tahsil,Chhattisgarh,IN
22.0,82.25,Masturi Tahsil,Chhattisgarh,IN
22.0,85.0,Kamarposh Balang,Odisha,IN
22.0,86.0,Jashipur,Odisha,IN
22.0,85.75,Ghagarbeda,Odisha,IN
22.0,84.75,Chandiposh,Odisha,IN
22.0,83.0,Sakti Tahsil,Chhattisgarh,IN
22.0,82.75,Champa Tahsil,Chhattisgarh,IN
22.0,82.5,Akaltara Tahsil,Chhattisgarh,IN
22.0,84.0,Bhasma,Odisha,IN
22.0,84.5,Govindpur,Odisha,IN
22.0,83.25,Raigarh Tahsil,Chhattisgarh,IN
22.0,86.25,Jashipur,Odisha,IN
22.0,84.25,Dharuadihi,Odisha,IN
22.0,85.5,Champua,Odisha,IN
22.0,85.25,Bolani,Odisha,IN
22.0,83.75,Hemgir,Odisha,IN
22.0,83.5,Raigarh Tahsil,Chhattisgarh,IN
22.0,86.5,Bangiriposi,Odisha,IN
22.0,86.75,Chandua,Odisha,IN
22.0,87.5,Potashpur-I,West Bengal,IN
22.0,87.0,Suliapada,Odisha,IN
22.0,87.75,Bhagwanpur-II,West Bengal,IN
22.0,87.25,Dantan-I,West Bengal,IN
22.0,88.0,Nandigram-I,West Bengal,IN
22.0,88.25,Kulpi,West Bengal,IN
22.0,88.5,Jaynagar - II,West Bengal,IN
22.0,88.75,Pancha Mukhani Island,West Bengal,IN
22.0,93.0,Tuipang,Mizoram,IN
22.0,89.0,South 24 Parganas,West Bengal,IN
22.25,69.0,Okhamandal Taluka,Gujarat,IN
22.25,69.5,Khambhalia Taluka,Gujarat,IN
22.25,69.25,Kalyanpur Taluka,Gujarat,IN
22.25,68.75,India,,IN
22.25,69.75,Khambhalia Taluka,Gujarat,IN
22.25,70.5,Kalavad Taluka,Gujarat,IN
22.25,70.0,Lalpur Taluka,Gujarat,IN
22.25,71.5,Botad Taluka,Gujarat,IN
22.25,70.25,Kalavad Taluka,Gujarat,IN
22.25,71.25,Vinchhiya Taluka,Gujarat,IN
22.25,72.0,Dhandhuka Taluka,Gujarat,IN
22.25,70.75,Rajkot,Gujarat,IN
22.25,71.75,Ranpur Taluka,Gujarat,IN
22.25,71.0,Rajkot Taluka,Gujarat,IN
22.25,72.25,Dholera Taluka,Gujarat,IN
22.25,72.5,India,,IN
22.25,72.75,Khambhat Taluka,Gujarat,IN
22.25,73.0,Padra Taluka,Gujarat,IN
22.25,73.5,Vagodhia Taluka,Gujarat,IN
22.25,73.25,Vadodara,Gujarat,IN
22.25,73.75,Bodeli Taluka,Gujarat,IN
22.25,74.0,Chhota Udaipur Taluka,Gujarat,IN
22.25,74.5,Alirajpur Tehsil,Madhya Pradesh,IN
22.25,75.5,Dharampuri Tahsil,Madhya Pradesh,IN
22.25,74.25,Kathiwada Tehsil,Madhya Pradesh,IN
22.25,78.0,Ghodadongri Tahsil,Madhya Pradesh,IN
22.25,74.75,Kukshi Tahsil,Madhya Pradesh,IN
22.25,76.25,Punasa Tahsil,Madhya Pradesh,IN
22.25,75.0,Manawar Tahsil,Madhya Pradesh,IN
22.25,76.75,Harsud Tahsil,Madhya Pradesh,IN
22.25,76.0,Barwaha Tahsil,Madhya Pradesh,IN
22.25,75.25,Manawar Tahsil,Madhya Pradesh,IN
22.25,77.0,Harda Tahsil,Madhya Pradesh,IN
22.25,78.25,Ghodadongri Tahsil,Madhya Pradesh,IN
22.25,75.75,Maheshwar Tahsil,Madhya Pradesh,IN
22.25,77.5,Chicholi Tahsil,Madhya Pradesh,IN
22.25,77.75,Shahpur Tahsil,Madhya Pradesh,IN
22.25,76.5,Punasa Tahsil,Madhya Pradesh,IN
22.25,77.25,Rehatgarh Tahsil,Madhya Pradesh,IN
22.25,78.5,Jamai Tahsil,Madhya Pradesh,IN
22.25,79.0,Amarwara Tahsil,Madhya Pradesh,IN
22.25,79.25,Amarwara Tahsil,Madhya Pradesh,IN
22.25,78.75,Parasia Tahsil,Madhya Pradesh,IN
22.25,79.5,Seoni Tahsil,Madhya Pradesh,IN
22.25,79.75,Seoni Tahsil,Madhya Pradesh,IN
22.25,80.0,Keolari Tahsil,Madhya Pradesh,IN
22.25,80.25,Paraswada Tahsil,Madhya Pradesh,IN
22.25,80.5,Paraswada Tahsil,Madhya Pradesh,IN
22.25,80.75,Baihar Tahsil,Madhya Pradesh,IN
22.25,81.75,Takhatpur Tahsil,Chhattisgarh,IN
22.25,81.5,Pandariya Tahsil,Chhattisgarh,IN
22.25,81.0,Baihar Tahsil,Madhya Pradesh,IN
22.25,81.25,Bodla Tahsil,Chhattisgarh,IN
22.25,82.0,Takhatpur Tahsil,Chhattisgarh,IN
22.25,82.25,Bilaspur Tahsil,Chhattisgarh,IN
22.25,84.0,Kinjirkela,Odisha,IN
22.25,83.75,Lailunga Tahsil,Chhattisgarh,IN
22.25,82.5,Baloda Tahsil,Chhattisgarh,IN
22.25,83.5,Lailunga Tahsil,Chhattisgarh,IN
22.25,84.5,Rajagangapur,Odisha,IN
22.25,82.75,Korba,Chhattisgarh,IN
22.25,83.0,Raigarh,Chhattisgarh,IN
22.25,84.75,Biramitrapur,Odisha,IN
22.25,83.25,Gharghoda Tahsil,Chhattisgarh,IN
22.25,84.25,Baragaon,Odisha,IN
22.5,70.5,Dhrol Taluka,Gujarat,IN
22.5,69.5,Jamnagar,Gujarat,IN
22.5,71.5,Sayla Taluka,Gujarat,IN
22.25,85.0,Bisra,Odisha,IN
22.5,72.5,Tarapur Taluka,Gujarat,IN
22.25,85.25,Manoharpur,Jharkhand,IN
22.25,85.75,Hat Gamharia,Jharkhand,IN
22.25,85.5,Noamundi,Jharkhand,IN
22.25,86.0,Jamda,Odisha,IN
22.25,86.25,Rairangpur,Odisha,IN
22.5,73.5,Halol Taluka,Gujarat,IN
22.5,74.5,Jobat Tehsil,Madhya Pradesh,IN
22.25,86.5,Jharpokharia,Odisha,IN
22.5,75.5,Pithampur Tahsil,Madhya Pradesh,IN
22.25,86.75,Baharagora,Jharkhand,IN
22.25,87.5,Kharagpur-II,West Bengal,IN
22.25,87.75,Moyna,West Bengal,IN
22.25,87.0,Gopiballavpur-II,West Bengal,IN
22.25,87.25,Kharagpur,West Bengal,IN
22.25,88.5,Jaynagar - I,West Bengal,IN
22.25,88.0,Shyampur - I,West Bengal,IN
22.25,88.25,Diamond Harbour - I,West Bengal,IN
22.5,69.25,India,,IN
22.25,92.5,Belaichhari Upazila,Chattogram Division,BD
22.5,70.25,Jamnagar Taluka,Gujarat,IN
22.5,70.0,Jamnagar Taluka,Gujarat,IN
22.25,92.75,Lawngtlai,Mizoram,IN
22.5,69.75,Jamnagar,Gujarat,IN
22.25,88.75,Basanti,West Bengal,IN
22.25,89.0,Hingalganj,West Bengal,IN
22.25,93.0,Tuipang,Mizoram,IN
22.5,70.75,Tankara Taluka,Gujarat,IN
22.5,71.25,Chotila Taluka,Gujarat,IN
22.5,71.0,Wankaner Taluka,Gujarat,IN
22.5,71.75,Chuda Taluka,Gujarat,IN
22.5,76.5,Satwas Tahsil,Madhya Pradesh,IN
22.5,72.0,Dhandhuka Taluka,Gujarat,IN
22.5,73.25,Savli Taluka,Gujarat,IN
22.5,72.25,Dholka Taluka,Gujarat,IN
22.5,73.0,Anand,Gujarat,IN
22.5,72.75,Petlad Taluka,Gujarat,IN
22.5,77.5,Seoni-Malwa Tahsil,Madhya Pradesh,IN
22.5,69.0,India,,IN
22.5,78.5,Pipariya Tahsil,Madhya Pradesh,IN
22.5,73.75,Jetpur Pavi Taluka,Gujarat,IN
22.5,74.75,Kukshi Tahsil,Madhya Pradesh,IN
22.5,74.0,Chhota Udaipur Taluka,Gujarat,IN
22.5,74.25,Bhavra Tehsil,Madhya Pradesh,IN
22.5,75.25,Dhar Tahsil,Madhya Pradesh,IN
22.5,75.0,Gangdhwani Tahsil,Madhya Pradesh,IN
22.5,76.0,Mhow Tahsil,Madhya Pradesh,IN
22.5,75.75,Mhow Tahsil,Madhya Pradesh,IN
22.5,79.5,Chhapara Tahsil,Madhya Pradesh,IN
22.5,80.5,Bichhya Tahsil,Madhya Pradesh,IN
22.5,81.5,Mungeli,Chhattisgarh,IN
22.5,82.5,Poundi-Uproda Tahsil,Chhattisgarh,IN
22.5,83.5,Lailunga Tahsil,Chhattisgarh,IN
22.5,84.5,Thethaitangar,Jharkhand,IN
22.5,76.25,Udaynagar Tahsil,Madhya Pradesh,IN
22.5,76.75,Satwas Tahsil,Madhya Pradesh,IN
22.5,77.0,Khategaon Tahsil,Madhya Pradesh,IN
22.5,85.5,Tonto,Jharkhand,IN
22.5,77.25,Timarni Tahsil,Madhya Pradesh,IN
22.5,86.5,Musabani,Jharkhand,IN
22.5,78.0,Sohagpur Tahsil,Madhya Pradesh,IN
22.5,77.75,Itarsi Tahsil,Madhya Pradesh,IN
22.5,78.25,Sohagpur Tahsil,Madhya Pradesh,IN
22.5,78.75,Tamia Tahsil,Madhya Pradesh,IN
22.5,79.25,Harrai Tahsil,Madhya Pradesh,IN
22.5,87.5,Keshpur,West Bengal,IN
22.5,79.0,Harrai Tahsil,Madhya Pradesh,IN
22.5,80.0,Keolari Tahsil,Madhya Pradesh,IN
22.5,88.5,Bhangar - I,West Bengal,IN
22.5,92.5,Belaichhari Upazila,Chattogram Division,BD
22.5,79.75,Dhanora Tahsil,Madhya Pradesh,IN
22.5,81.25,Bajag Tahsil,Madhya Pradesh,IN
22.5,81.0,Bichhya Tahsil,Madhya Pradesh,IN
22.5,81.75,Mungeli,Chhattisgarh,IN
22.5,80.75,Bichhya Tahsil,Madhya Pradesh,IN
22.5,82.0,Kota Tahsil,Chhattisgarh,IN
22.5,83.75,Pathalgaon Tahsil,Chhattisgarh,IN
22.5,82.75,Korba,Chhattisgarh,IN
22.5,80.25,Nainpur Tahsil,Madhya Pradesh,IN
22.5,83.25,Udaipur (Dharamjaigarh) Tahsil,Chhattisgarh,IN
22.5,82.25,Pali Tahsil,Chhattisgarh,IN
22.5,84.0,Talasara,Odisha,IN
22.5,83.0,Korba Tahsil,Chhattisgarh,IN
22.5,84.25,Bolba,Jharkhand,IN
22.5,84.75,Jaldega,Jharkhand,IN
22.5,85.0,Bano,Jharkhand,IN
22.5,85.25,Goilkera,Jharkhand,IN
22.5,85.75,Tonto,Jharkhand,IN
22.5,86.25,Potka,Jharkhand,IN
22.5,86.0,Tiring,Odisha,IN
22.5,86.75,Chakulia,Jharkhand,IN
22.5,87.0,Binpur-I,West Bengal,IN
22.5,87.25,Salbani,West Bengal,IN
22.5,87.75,Daspur-II,West Bengal,IN
22.5,88.0,Bagnan - I,West Bengal,IN
22.5,88.25,Maheshtala,West Bengal,IN
22.5,89.0,Kaliganj Upazila (Satkhira),Khulna Division,BD
22.5,88.75,Minakhan,West Bengal,IN
22.5,92.75,Lawngtlai,Mizoram,IN
22.5,93.0,Saiha,Mizoram,IN
22.75,69.75,Jamnagar,Gujarat,IN
22.75,70.5,Jodiya Taluka,Gujarat,IN
22.75,70.0,Jamnagar,Gujarat,IN
22.75,70.75,Morbi,Gujarat,IN
22.75,70.25,Jamnagar,Gujarat,IN
22.75,71.0,Wankaner Taluka,Gujarat,IN
22.75,71.25,Muli Taluka,Gujarat,IN
22.75,71.75,Surendranagar Taluka,Gujarat,IN
22.75,71.5,Muli Taluka,Gujarat,IN
22.75,72.0,Limbdi Taluka,Gujarat,IN
22.75,72.25,Bavla Taluka,Gujarat,IN
22.75,72.75,Matar Taluka,Gujarat,IN
22.75,72.5,Dholka Taluka,Gujarat,IN
22.75,73.0,Nadiad Taluka,Gujarat,IN
22.75,73.5,Godhra,Gujarat,IN
22.75,73.25,Thasra Taluka,Gujarat,IN
22.75,73.75,Ghoghamba Taluka,Gujarat,IN
22.75,74.25,Dahod Taluka,Gujarat,IN
22.75,74.5,Jhabua Tahsil,Madhya Pradesh,IN
22.75,75.0,Sardarpur Tahsil,Madhya Pradesh,IN
22.75,74.0,Limkheda Taluka,Gujarat,IN
22.75,74.75,Rama Tahsil,Madhya Pradesh,IN
22.75,75.25,Dhar Tahsil,Madhya Pradesh,IN
22.75,75.75,Hatod Tahsil,Madhya Pradesh,IN
22.75,75.5,Depalpur Tahsil,Madhya Pradesh,IN
22.75,76.0,Kanadiya Tahsil,Madhya Pradesh,IN
22.75,76.75,Kannod Tahsil,Madhya Pradesh,IN
22.75,76.5,Bagli Tahsil,Madhya Pradesh,IN
22.75,77.0,Khategaon Tahsil,Madhya Pradesh,IN
22.75,77.25,Nasrullaganj Tahsil,Madhya Pradesh,IN
22.75,76.25,Bagli Tahsil,Madhya Pradesh,IN
22.75,78.0,Babai Tahsil,Madhya Pradesh,IN
22.75,77.75,Narmadapuram,Madhya Pradesh,IN
22.75,78.25,Sohagpur Tahsil,Madhya Pradesh,IN
22.75,77.5,Rehti Tahsil,Madhya Pradesh,IN
22.75,78.75,Gadarwara Tahsil,Madhya Pradesh,IN
22.75,78.5,Bankhedi Tahsil,Madhya Pradesh,IN
22.75,79.0,Gadarwara Tahsil,Madhya Pradesh,IN
22.75,79.25,Harrai Tahsil,Madhya Pradesh,IN
22.75,79.5,Narsimhapur Tahsil,Madhya Pradesh,IN
22.75,79.75,Lakhnadon Tahsil,Madhya Pradesh,IN
22.75,80.0,Ghansaur Tahsil,Madhya Pradesh,IN
22.75,80.25,Ghansaur Tahsil,Madhya Pradesh,IN
22.75,81.0,Dindori Tahsil,Madhya Pradesh,IN
22.75,80.75,Gughari Tahsil,Madhya Pradesh,IN
22.75,80.5,Gughari Tahsil,Madhya Pradesh,IN
22.75,81.5,Bajag Tahsil,Madhya Pradesh,IN
22.75,81.25,Dindori Tahsil,Madhya Pradesh,IN
22.75,81.75,Pushparajgarh Tehsil,Madhya Pradesh,IN
22.75,82.25,Poundi-Uproda Tahsil,Chhattisgarh,IN
22.75,82.5,Poundi-Uproda Tahsil,Chhattisgarh,IN
22.75,82.0,Pendra Tahsil,Chhattisgarh,IN
22.75,82.75,Poundi-Uproda Tahsil,Chhattisgarh,IN
22.75,83.25,Udaipur (Dharamjaigarh) Tahsil,Chhattisgarh,IN
22.75,83.5,Sitapur Tahsil,Chhattisgarh,IN
22.75,83.0,Udaypur Tahsil,Chhattisgarh,IN
22.75,84.0,Kunkuri Tahsil,Chhattisgarh,IN
22.75,83.75,Bagicha Tahsil,Chhattisgarh,IN
22.75,84.25,Simdega,Jharkhand,IN
22.75,84.5,Pakar Tanr,Jharkhand,IN
22.75,84.75,Kolebira,Jharkhand,IN
22.75,85.0,Bano,Jharkhand,IN
22.75,85.25,Gudri,Jharkhand,IN
22.75,85.5,Bandgaon,Jharkhand,IN
22.75,85.75,Kuchai,Jharkhand,IN
22.75,86.0,Adityapur(Gamharia),Jharkhand,IN
22.75,86.25,Jamshedpur,Jharkhand,IN
22.75,87.0,Sarenga,West Bengal,IN
22.75,86.5,Bundwan,West Bengal,IN
22.75,87.25,Garbeta-III,West Bengal,IN
22.75,87.5,Chandrakona-II,West Bengal,IN
22.75,86.75,Ranibundh,West Bengal,IN
22.75,87.75,Khanakul - I,West Bengal,IN
22.75,88.0,Jangipara,West Bengal,IN
22.75,88.25,Chanditala - II,West Bengal,IN
22.75,92.5,Lungsen,Mizoram,IN
22.75,88.75,Baduria,West Bengal,IN
22.75,89.0,Satkhira,Khulna Division,BD
22.75,92.75,Lunglei,Mizoram,IN
22.75,93.0,Sangau,Mizoram,IN
22.75,88.5,Barasat,West Bengal,IN
23.0,70.25,Sathsaida Bet,,IN
23.0,69.0,Abdasa Taluka,Gujarat,IN
23.0,69.5,Mandvi Taluka,Gujarat,IN
23.0,69.75,Mundra Taluka,Gujarat,IN
23.0,69.25,Mandvi Taluka,Gujarat,IN
23.0,70.5,Maliya Taluka,Gujarat,IN
23.0,70.75,Maliya Taluka,Gujarat,IN
23.0,70.0,Anjar Taluka,Gujarat,IN
23.0,71.0,Halvad Taluka,Gujarat,IN
23.0,71.25,Halvad Taluka,Gujarat,IN
23.0,71.5,Dhrangadhra Taluka,Gujarat,IN
23.0,71.75,Patdi Taluka,Gujarat,IN
23.0,72.0,Lakhtar Taluka,Gujarat,IN
23.0,72.25,Sanand Taluka,Gujarat,IN
23.0,72.5,Ahmedabad,Gujarat,IN
23.0,68.75,India,,IN
23.0,73.0,Kapadvanj Taluka,Gujarat,IN
23.0,72.75,Daskroi Taluka,Gujarat,IN
23.0,73.25,Kapadvanj Taluka,Gujarat,IN
23.0,73.75,Shehera Taluka,Gujarat,IN
23.0,74.0,Singvad Taluka,Gujarat,IN
23.0,73.5,Lunavada Taluka,Gujarat,IN
23.0,74.75,Petlawad Tahsil,Madhya Pradesh,IN
23.0,75.0,Petlawad Tahsil,Madhya Pradesh,IN
23.0,74.5,Meghnagar Tahsil,Madhya Pradesh,IN
23.0,75.25,Badnawar Tahsil,Madhya Pradesh,IN
23.0,75.5,Depalpur Tahsil,Madhya Pradesh,IN
23.0,74.25,Jhalod Taluka,Gujarat,IN
23.0,76.0,Dewas Tahsil,Madhya Pradesh,IN
23.0,75.75,Sanwer Tahsil,Madhya Pradesh,IN
23.0,76.5,Jawar Tahsil,Madhya Pradesh,IN
23.0,76.25,Sonkatch Tahsil,Madhya Pradesh,IN
23.0,76.75,Ashta Tahsil,Madhya Pradesh,IN
23.0,77.25,Ichhawar Tahsil,Madhya Pradesh,IN
23.0,77.0,Ichhawar Tahsil,Madhya Pradesh,IN
23.0,77.5,Goharganj Tahsil,Madhya Pradesh,IN
23.0,78.5,Gadarwara Tahsil,Madhya Pradesh,IN
23.0,78.0,Goharganj Tahsil,Madhya Pradesh,IN
23.0,77.75,Goharganj Tahsil,Madhya Pradesh,IN
23.0,79.0,Gadarwara Tahsil,Madhya Pradesh,IN
23.0,79.5,Gotegaon Tahsil,Madhya Pradesh,IN
23.0,78.25,Baraily Tahsil,Madhya Pradesh,IN
23.0,78.75,Gadarwara Tahsil,Madhya Pradesh,IN
23.0,79.25,Narsimhapur Tahsil,Madhya Pradesh,IN
23.0,79.75,Shahpura Tahsil,Madhya Pradesh,IN
23.0,80.0,Narayanganj Tahsil,Madhya Pradesh,IN
23.0,80.25,Niwas Tahsil,Madhya Pradesh,IN
23.0,80.5,Niwas Tahsil,Madhya Pradesh,IN
23.0,80.75,Shahpura Tahsil,Madhya Pradesh,IN
23.0,81.0,Dindori Tahsil,Madhya Pradesh,IN
23.0,81.25,Pushparajgarh Tehsil,Madhya Pradesh,IN
23.0,83.25,Ambikapur,Chhattisgarh,IN
23.0,83.0,Lakhanpur Tahsil,Chhattisgarh,IN
23.0,82.75,Premnagar Tahsil,Chhattisgarh,IN
23.0,82.0,Marwahi Tahsil,Chhattisgarh,IN
23.0,81.75,Jaithari Tehsil,Madhya Pradesh,IN
23.0,82.5,Khadganva Tahsil,Chhattisgarh,IN
23.0,81.5,Pushparajgarh Tehsil,Madhya Pradesh,IN
23.0,82.25,Khadganva Tahsil,Chhattisgarh,IN
23.0,83.5,Batouli Tahsil,Chhattisgarh,IN
23.0,83.75,Bagicha Tahsil,Chhattisgarh,IN
23.0,84.5,Raidih,Jharkhand,IN
23.0,84.25,Albert Ekka(Jari),Jharkhand,IN
23.0,84.75,Basia,Jharkhand,IN
23.0,84.0,Manora Tahsil,Chhattisgarh,IN
23.0,85.0,Karra,Jharkhand,IN
23.0,85.25,Murhu,Jharkhand,IN
23.0,85.5,Erki(Tamar II),Jharkhand,IN
23.0,86.0,Chandil,Jharkhand,IN
23.0,85.75,Tamar I,Jharkhand,IN
23.0,86.25,Barabazar,West Bengal,IN
23.0,86.5,Barabazar,West Bengal,IN
23.0,86.75,Ranibundh,West Bengal,IN
23.0,87.0,Taldangra,West Bengal,IN
23.0,88.0,Jamalpur,West Bengal,IN
23.0,87.5,Jaypur,West Bengal,IN
23.0,87.25,Taldangra,West Bengal,IN
23.0,87.75,Raina - II,West Bengal,IN
23.0,88.75,Bangaon,West Bengal,IN
23.0,88.5,Kalyani,West Bengal,IN
23.0,88.25,Polba - Dadpur,West Bengal,IN
23.0,91.5,Chhagalnaiya Upazila,Chattogram Division,BD
23.0,92.5,Lungsen,Mizoram,IN
23.0,92.75,Lunglei,Mizoram,IN
23.0,93.0,Hnahthial,Mizoram,IN
23.25,68.75,Abdasa Taluka,Gujarat,IN
23.25,69.0,Abdasa Taluka,Gujarat,IN
23.25,69.25,Nakhatrana Taluka,Gujarat,IN
23.25,70.25,Bhachau Taluka,Gujarat,IN
23.25,71.5,Kachchh,Gujarat,IN
23.25,69.5,Bhuj Taluka,Gujarat,IN
23.25,69.75,Bhuj,Gujarat,IN
23.25,71.0,Kachchh,Gujarat,IN
23.25,70.0,Bhuj Taluka,Gujarat,IN
23.25,71.25,Kachchh,Gujarat,IN
23.25,72.0,Mandal Taluka,Gujarat,IN
23.25,70.75,Bhachau Taluka,Gujarat,IN
23.25,70.5,Bhachau Taluka,Gujarat,IN
23.25,71.75,Patdi Taluka,Gujarat,IN
23.25,72.25,Kadi Taluka,Gujarat,IN
23.25,68.5,India,,IN
23.25,72.75,Gandhinagar Taluka,Gujarat,IN
23.25,73.25,Bayad Taluka,Gujarat,IN
23.25,73.0,Bayad Taluka,Gujarat,IN
23.25,74.5,Kushalgarh Tehsil,Rajasthan,IN
23.25,74.0,Fatehpura Taluka,Gujarat,IN
23.25,72.5,Kalol,Gujarat,IN
23.25,73.75,Kadana Taluka,Gujarat,IN
23.25,74.75,Rawti Tahsil,Madhya Pradesh,IN
23.25,73.5,Virpur Taluka,Gujarat,IN
23.25,74.25,Sajjangarh Tehsil,Rajasthan,IN
23.25,75.25,Ratlam Tahsil,Madhya Pradesh,IN
23.25,75.5,Badnagar Tahsil,Madhya Pradesh,IN
23.25,75.75,Ghatiya Tahsil,Madhya Pradesh,IN
23.25,75.0,Ratlam Nagar Tahsil,Madhya Pradesh,IN
23.25,76.0,Tarana Tahsil,Madhya Pradesh,IN
23.25,76.25,Shajapur Tahsil,Madhya Pradesh,IN
23.25,76.75,Kalapipal Tahsil,Madhya Pradesh,IN
23.25,77.0,Sehore Tahsil,Madhya Pradesh,IN
23.25,76.5,Polayakala Tahsil,Madhya Pradesh,IN
23.25,77.5,Bhopal,Madhya Pradesh,IN
23.25,77.25,Bhopal,Madhya Pradesh,IN
23.25,77.75,Raisen Tahsil,Madhya Pradesh,IN
23.25,78.0,Sultanpur Tahsil,Madhya Pradesh,IN
23.25,78.25,Silwani Tahsil,Madhya Pradesh,IN
23.25,78.75,Silwani Tahsil,Madhya Pradesh,IN
23.25,79.0,Deori Tahsil,Madhya Pradesh,IN
23.25,78.5,Silwani Tahsil,Madhya Pradesh,IN
23.25,79.25,Tendukheda Tahsil,Madhya Pradesh,IN
23.25,79.5,Shahpura Tahsil,Madhya Pradesh,IN
23.25,79.75,Patan Tahsil,Madhya Pradesh,IN
23.25,80.0,Panagar Tahsil,Madhya Pradesh,IN
23.25,80.25,Kundam Tahsil,Madhya Pradesh,IN
23.25,80.5,Kundam Tahsil,Madhya Pradesh,IN
23.25,80.75,Karkeli Tahsil,Madhya Pradesh,IN
23.25,81.0,Nowrozabad Tahsil,Madhya Pradesh,IN
23.25,81.25,Pali Tahsil,Madhya Pradesh,IN
23.25,81.5,Shahdol,Madhya Pradesh,IN
23.25,82.5,Baikunthpur Tahsil,Chhattisgarh,IN
23.25,81.75,Shahdol,Madhya Pradesh,IN
23.25,82.0,Kotma Tehsil,Madhya Pradesh,IN
23.25,83.0,Bhaiyathan Tahsil,Chhattisgarh,IN
23.25,82.75,Ramanujnagar Tahsil,Chhattisgarh,IN
23.25,83.5,Shankargarh Tahsil,Chhattisgarh,IN
23.25,82.25,Manendragarh Tahsil,Chhattisgarh,IN
23.25,83.25,Rajpur Tahsil,Chhattisgarh,IN
23.25,84.0,Samri(Kusmi) Tahsil,Chhattisgarh,IN
23.25,83.75,Shankargarh Tahsil,Chhattisgarh,IN
23.25,84.25,Chainpur,Jharkhand,IN
23.25,84.5,Ghaghra,Jharkhand,IN
23.25,84.75,Sisai,Jharkhand,IN
23.25,85.0,Bero,Jharkhand,IN
23.25,85.25,Namkum,Jharkhand,IN
23.25,85.5,Namkum,Jharkhand,IN
23.5,68.5,Abdasa Taluka,Gujarat,IN
23.25,86.75,Hura,West Bengal,IN
23.25,87.0,Bankura,West Bengal,IN
23.25,86.25,Arsha,West Bengal,IN
23.25,86.5,Purulia - I,West Bengal,IN
23.25,85.75,Sonahatu,Jharkhand,IN
23.25,87.25,Sonamukhi,West Bengal,IN
23.25,86.0,Bagmundi,West Bengal,IN
23.5,69.5,Nakhatrana Taluka,Gujarat,IN
23.25,88.0,Burdwan - II,West Bengal,IN
23.25,87.75,Galsi - II,West Bengal,IN
23.25,87.5,Patrasayer,West Bengal,IN
23.5,70.5,Bhachau Taluka,Gujarat,IN
23.25,88.25,Kalna - I,West Bengal,IN
23.25,88.5,Shantipur,West Bengal,IN
23.25,88.75,Maheshpur Upazila,Khulna Division,BD
23.25,91.75,Silachari,Tripura,IN
23.25,91.5,Hrishyamukh,Tripura,IN
23.25,92.75,Serchhip,Mizoram,IN
23.25,91.25,Chauddagram Upazila,Chattogram Division,BD
23.25,92.5,West Bunghmun,Mizoram,IN
23.25,92.25,Bagaichhari Upazila,Chattogram Division,BD
23.25,93.0,East Lungdar,Mizoram,IN
23.5,71.5,Kachchh,Gujarat,IN
23.5,72.5,Mahesana,Gujarat,IN
23.5,73.5,Meghraj Taluka,Gujarat,IN
23.25,93.25,Khawbung,Mizoram,IN
23.5,74.5,Abapura Tehsil,Rajasthan,IN
23.5,68.75,Abdasa Taluka,Gujarat,IN
23.5,75.5,Nagda,Madhya Pradesh,IN
23.5,69.0,Nakhatrana Taluka,Gujarat,IN
23.5,76.5,Gulana Tahsil,Madhya Pradesh,IN
23.5,69.25,Nakhatrana Taluka,Gujarat,IN
23.5,69.75,Bhuj Taluka,Gujarat,IN
23.5,70.25,Kachchh,Gujarat,IN
23.5,77.5,Berasia Tahsil,Madhya Pradesh,IN
23.5,70.0,Bhuj Taluka,Gujarat,IN
23.5,78.5,Begamganj Tahsil,Madhya Pradesh,IN
23.5,70.75,Rapar Taluka,Gujarat,IN
23.5,71.25,Kachchh,Gujarat,IN
23.5,68.25,India,,IN
23.5,71.0,Rapar Taluka,Gujarat,IN
23.5,79.5,Tendukheda Tahsil,Madhya Pradesh,IN
23.5,80.5,Dhimarkheda Tahsil,Madhya Pradesh,IN
23.5,71.75,Shankheswar Taluka,Gujarat,IN
23.5,72.75,Mansa Taluka,Gujarat,IN
23.5,73.0,Prantij Taluka,Gujarat,IN
23.5,72.0,Becharaji Taluka,Gujarat,IN
23.5,74.0,Galiakot Tehsil,Rajasthan,IN
23.5,72.25,Jotana Taluka,Gujarat,IN
23.5,73.25,Modasa Taluka,Gujarat,IN
23.5,73.75,Simalwara Tehsil,Rajasthan,IN
23.5,74.25,Garhi Tehsil,Rajasthan,IN
23.5,81.5,Shahdol,Madhya Pradesh,IN
23.5,74.75,Sailana Tahsil,Madhya Pradesh,IN
23.5,75.25,Khacharod Tahsil,Madhya Pradesh,IN
23.5,75.0,Ratlam Tahsil,Madhya Pradesh,IN
23.5,75.75,Mahidpur Tahsil,Madhya Pradesh,IN
23.5,82.5,Sonhat Tahsil,Chhattisgarh,IN
23.5,77.0,Narsinghgarh Tahsil,Madhya Pradesh,IN
23.5,76.0,Maakdon Tahsil,Madhya Pradesh,IN
23.5,77.25,Shayampur Tahsil,Madhya Pradesh,IN
23.5,76.25,Shajapur Tahsil,Madhya Pradesh,IN
23.5,76.75,Pachore Tahsil,Madhya Pradesh,IN
23.5,83.5,Balrampur Tahsil,Chhattisgarh,IN
23.5,77.75,Raisen Tahsil,Madhya Pradesh,IN
23.5,78.0,Vidisha Tahsil,Madhya Pradesh,IN
23.5,84.5,Peshrar,Jharkhand,IN
23.5,78.25,Gairatganj Tahsil,Madhya Pradesh,IN
23.5,78.75,Kesli Tahsil,Madhya Pradesh,IN
23.5,79.25,Rehli Tahsil,Madhya Pradesh,IN
23.5,79.0,Deori Tahsil,Madhya Pradesh,IN
23.5,79.75,Jabera Tahsil,Madhya Pradesh,IN
23.5,80.0,Majholi Tahsil,Madhya Pradesh,IN
23.5,85.5,Ormanjhi,Jharkhand,IN
23.5,80.25,Dhimarkheda Tahsil,Madhya Pradesh,IN
23.5,80.75,Bandhogarh Umaria Tahsil,Madhya Pradesh,IN
23.5,81.0,Manpur Tahsil,Madhya Pradesh,IN
23.5,81.25,Pali Tahsil,Madhya Pradesh,IN
23.5,81.75,Shahdol,Madhya Pradesh,IN
23.5,86.5,Para,West Bengal,IN
23.5,87.5,Ausgram - II,West Bengal,IN
23.5,88.5,Krishnagar-II,West Bengal,IN
23.5,82.0,Manendragarh Tahsil,Chhattisgarh,IN
23.5,82.25,Manendragarh Tahsil,Chhattisgarh,IN
23.5,91.5,Matarbari,Tripura,IN
23.5,83.0,Oudgi Tahsil,Chhattisgarh,IN
23.5,82.75,Oudgi Tahsil,Chhattisgarh,IN
23.5,92.5,West Phaileng,Mizoram,IN
23.5,83.25,Pratappur Tahsil,Chhattisgarh,IN
23.5,84.25,Mahuadanr,Jharkhand,IN
23.5,83.75,Samri(Kusmi) Tahsil,Chhattisgarh,IN
23.5,84.0,Samri(Kusmi) Tahsil,Chhattisgarh,IN
23.5,84.75,Lohardaga,Jharkhand,IN
23.5,85.0,Chanho,Jharkhand,IN
23.5,85.25,Ranchi,Jharkhand,IN
23.5,85.75,Gola,Jharkhand,IN
23.5,86.25,Chas,Jharkhand,IN
23.5,86.0,Jaridih,Jharkhand,IN
23.5,87.75,Mangolkote,West Bengal,IN
23.5,87.0,Saltora,West Bengal,IN
23.5,86.75,Raghunathpur - I,West Bengal,IN
23.5,87.25,Barjora,West Bengal,IN
23.5,88.0,Mangolkote,West Bengal,IN
23.5,88.25,Purbasthali - II,West Bengal,IN
23.5,88.75,Damurhuda Upazila,Khulna Division,BD
23.5,91.25,Boxanagar,Tripura,IN
23.5,91.75,Amarpur,Tripura,IN
23.5,92.25,Bagaichhari Upazila,Chattogram Division,BD
23.5,93.25,Khawzawl,Mizoram,IN
23.75,68.25,Kachchh,Gujarat,IN
23.5,93.0,Serchhip,Mizoram,IN
23.75,69.5,Bhuj Taluka,Gujarat,IN
23.75,68.0,Shah Bander,Sindh,PK
23.5,92.75,Aibawk,Mizoram,IN
23.75,69.0,Lakhpat Taluka,Gujarat,IN
23.75,69.25,Bhuj Taluka,Gujarat,IN
23.75,68.75,Lakhpat Taluka,Gujarat,IN
23.75,69.75,Bhuj Taluka,Gujarat,IN
23.75,68.5,Kachchh,Gujarat,IN
23.75,70.0,Kachchh,Gujarat,IN
23.75,70.25,Kachchh,Gujarat,IN
23.75,70.5,Rapar Taluka,Gujarat,IN
23.75,70.75,Rapar Taluka,Gujarat,IN
23.75,71.5,Radhanpur Taluka,Gujarat,IN
23.75,71.25,Santalpur Taluka,Gujarat,IN
23.75,71.0,Kachchh,Gujarat,IN
23.75,72.0,Patan,Gujarat,IN
23.75,71.75,Sami Taluka,Gujarat,IN
23.75,72.25,Patan Taluka,Gujarat,IN
23.75,72.5,Visnagar Taluka,Gujarat,IN
23.75,73.25,Bhiloda Taluka,Gujarat,IN
23.75,73.0,Idar Taluka,Gujarat,IN
23.75,72.75,Vijapur Taluka,Gujarat,IN
23.75,73.5,Bichiwara Tehsil,Rajasthan,IN
23.75,74.0,Sagwara Tehsil,Rajasthan,IN
23.75,73.75,Simalwara Tehsil,Rajasthan,IN
23.75,74.25,Garhi Tehsil,Rajasthan,IN
23.75,74.5,Ghatol Tehsil,Rajasthan,IN
23.75,74.75,Peepal Khoont Tehsil,Rajasthan,IN
23.75,75.0,Piploda Tahsil,Madhya Pradesh,IN
23.75,75.25,Jaora Tahsil,Madhya Pradesh,IN
23.75,75.5,Alot Tahsil,Madhya Pradesh,IN
23.75,76.0,Agar Tahsil,Madhya Pradesh,IN
23.75,75.75,Badod Tahsil,Madhya Pradesh,IN
23.75,76.25,Nalkheda Tahsil,Madhya Pradesh,IN
23.75,76.5,Sarangpur Tahsil,Madhya Pradesh,IN
23.75,77.0,Narsinghgarh Tahsil,Madhya Pradesh,IN
23.75,76.75,Khujner Tahsil,Madhya Pradesh,IN
23.75,77.25,Berasia Tahsil,Madhya Pradesh,IN
23.75,77.5,Berasia Tahsil,Madhya Pradesh,IN
23.75,78.0,Basoda Tahsil,Madhya Pradesh,IN
23.75,78.75,Sagar,Madhya Pradesh,IN
23.75,78.25,Tyonda Tahsil,Madhya Pradesh,IN
23.75,77.75,Nateran Tahsil,Madhya Pradesh,IN
23.75,78.5,Sagar Tahsil,Madhya Pradesh,IN
23.75,79.0,Rehli Tahsil,Madhya Pradesh,IN
23.75,79.5,Damoh,Madhya Pradesh,IN
23.75,79.25,Garhakota Tahsil,Madhya Pradesh,IN
23.75,80.5,Katni,Madhya Pradesh,IN
23.75,79.75,Jabera Tahsil,Madhya Pradesh,IN
23.75,80.25,Rithi Tahsil,Madhya Pradesh,IN
23.75,81.5,Shahdol,Madhya Pradesh,IN
23.75,81.0,Manpur Tahsil,Madhya Pradesh,IN
23.75,80.0,Bahoriband Tahsil,Madhya Pradesh,IN
23.75,82.0,Bharatpur Tahsil,Chhattisgarh,IN
23.75,81.25,Shahdol,Madhya Pradesh,IN
23.75,80.75,Barhi Tahsil,Madhya Pradesh,IN
23.75,82.25,Bharatpur Tahsil,Chhattisgarh,IN
23.75,81.75,Bharatpur Tahsil,Chhattisgarh,IN
23.75,82.5,Sonhat Tahsil,Chhattisgarh,IN
23.75,82.75,Oudgi Tahsil,Chhattisgarh,IN
23.75,83.0,Pratappur Tahsil,Chhattisgarh,IN
23.75,83.75,Bhandaria,Jharkhand,IN
23.75,83.25,Wadrafnagar Tahsil,Chhattisgarh,IN
23.75,83.5,Ramanujganj Tahsil,Chhattisgarh,IN
23.75,84.5,Latehar,Jharkhand,IN
23.75,84.0,Bhandaria,Jharkhand,IN
23.75,84.25,Barwadih,Jharkhand,IN
23.75,84.75,Chandwa,Jharkhand,IN
23.75,85.0,Tandwa,Jharkhand,IN
23.75,85.75,Gumia,Jharkhand,IN
23.75,86.0,Peterwar,Jharkhand,IN
23.75,85.25,Barkagaon,Jharkhand,IN
23.75,85.5,Mandu,Jharkhand,IN
23.75,86.5,Baliapur,Jharkhand,IN
23.75,87.0,Barabani,West Bengal,IN
23.75,86.25,Baghmara-Cum-Katras,Jharkhand,IN
23.75,86.75,Nirsa-Cum-Chirkunda,Jharkhand,IN
23.75,87.25,Pandabeswar,West Bengal,IN
23.75,87.5,Dubrajpur,West Bengal,IN
23.75,88.0,Ketugram - I,West Bengal,IN
23.75,87.75,Bolpur,West Bengal,IN
23.75,88.5,Tehatta,West Bengal,IN
23.75,91.0,Muradnagar Upazila,Chattogram Division,BD
23.75,88.25,Kaliganj,West Bengal,IN
23.75,91.25,Dukli,Tripura,IN
23.75,91.5,Jampuijala,Tripura,IN
23.75,91.75,Mungiakami,Tripura,IN
23.75,92.0,Chawmanu,Tripura,IN
23.75,92.25,Dasda,Tripura,IN
23.75,92.5,West Phaileng,Mizoram,IN
23.75,93.25,Ngopa,Mizoram,IN
23.75,92.75,Aizawl,Mizoram,IN
24.0,68.5,Jati,Sindh,PK
24.0,68.0,Shah Bander,Sindh,PK
23.75,93.0,Thingsulthliah,Mizoram,IN
24.0,68.25,Jati,Sindh,PK
24.0,68.75,Jati,Sindh,PK
24.0,71.0,Kachchh,Gujarat,IN
24.0,70.0,Kachchh,Gujarat,IN
24.0,71.5,Bhabhar Taluka,Gujarat,IN
24.0,69.75,Kachchh,Gujarat,IN
24.0,71.25,Kachchh,Gujarat,IN
24.0,70.5,Kachchh,Gujarat,IN
24.0,69.0,Kachchh,Gujarat,IN
24.0,69.25,Kachchh,Gujarat,IN
24.0,70.75,Kachchh,Gujarat,IN
24.0,70.25,Kachchh,Gujarat,IN
24.0,71.75,Kankrej Taluka,Gujarat,IN
24.0,69.5,Kachchh,Gujarat,IN
24.0,72.0,Kankrej Taluka,Gujarat,IN
24.0,72.25,Sidhpur Taluka,Gujarat,IN
24.0,72.5,Vadgam Taluka,Gujarat,IN
24.0,72.75,Satlasana Taluka,Gujarat,IN
24.0,73.0,Vadali Taluka,Gujarat,IN
24.0,73.25,Vijayanagar Taluka,Gujarat,IN
24.0,73.5,Kherwara Tehsil,Rajasthan,IN
24.0,73.75,Rishabhdeo Tehsil,Rajasthan,IN
24.0,74.0,Salumbar Tehsil,Rajasthan,IN
24.0,74.5,Dhariawad Tehsil,Rajasthan,IN
24.0,74.25,Salumbar Tehsil,Rajasthan,IN
24.0,75.0,Daloda Tahsil,Madhya Pradesh,IN
24.0,75.25,Mandsaur Tahsil,Madhya Pradesh,IN
24.0,74.75,Pratapgarh Tehsil,Rajasthan,IN
24.0,75.75,Suwasra Tahsil,Madhya Pradesh,IN
24.0,75.5,Gangdhar Tehsil,Rajasthan,IN
24.0,76.0,Susner Tahsil,Madhya Pradesh,IN
24.0,76.25,Susner Tahsil,Madhya Pradesh,IN
24.0,76.75,Rajgarh Tahsil,Madhya Pradesh,IN
24.0,76.5,Khilchipur Tahsil,Madhya Pradesh,IN
24.0,77.0,Biaora Tahsil,Madhya Pradesh,IN
24.0,77.25,Maksoodangarh Tahsil,Madhya Pradesh,IN
24.0,77.5,Lateri Tahsil,Madhya Pradesh,IN
24.0,77.75,Nateran Tahsil,Madhya Pradesh,IN
24.0,78.25,Pathardi Tahsil,Madhya Pradesh,IN
24.0,78.0,Kurwai Tahsil,Madhya Pradesh,IN
24.0,78.5,Malthon Tahsil,Madhya Pradesh,IN
24.0,78.75,Banda Tahsil,Madhya Pradesh,IN
24.0,79.25,Patharia Tahsil,Madhya Pradesh,IN
24.0,79.0,Banda Tahsil,Madhya Pradesh,IN
24.0,79.5,Patera Tahsil,Madhya Pradesh,IN
24.0,81.0,Manpur Tahsil,Madhya Pradesh,IN
24.0,81.25,Shahdol,Madhya Pradesh,IN
24.0,80.5,Vijayraghavgarh Tahsil,Madhya Pradesh,IN
24.0,80.25,Shahnagar Tahsil,Madhya Pradesh,IN
24.0,80.75,Vijayraghavgarh Tahsil,Madhya Pradesh,IN
24.0,79.75,Patera Tahsil,Madhya Pradesh,IN
24.0,80.0,Raipura Tahsil,Madhya Pradesh,IN
24.0,81.75,Kusmi Tahsil,Madhya Pradesh,IN
24.0,81.5,Shahdol,Madhya Pradesh,IN
24.0,82.75,Singrauli Tahsil,Madhya Pradesh,IN
24.0,82.0,Kusmi Tahsil,Madhya Pradesh,IN
24.0,83.75,Ranka Kalan,Jharkhand,IN
24.0,82.25,Singrauli Tahsil,Madhya Pradesh,IN
24.0,82.5,Singrauli Tahsil,Madhya Pradesh,IN
24.0,84.25,Nilambar-Pitambarpur(Lesliganj),Jharkhand,IN
24.0,83.25,Ramanujganj Tahsil,Chhattisgarh,IN
24.0,84.5,Panki,Jharkhand,IN
24.0,84.0,Chainpur,Jharkhand,IN
24.0,84.75,Bariyatu,Jharkhand,IN
24.0,83.5,Ramanujganj Tahsil,Chhattisgarh,IN
24.0,85.25,Katamdag,Jharkhand,IN
24.0,85.0,Tandwa,Jharkhand,IN
24.0,85.5,Daru,Jharkhand,IN
24.0,85.75,Bishungarh,Jharkhand,IN
24.0,86.0,Dumri,Jharkhand,IN
24.0,86.25,Pirtanr,Jharkhand,IN
24.0,86.75,Jamtara,Jharkhand,IN
24.0,87.0,Fatehpur,Jharkhand,IN
24.0,87.25,Rajnagar,West Bengal,IN
24.0,86.5,Narayanpur,Jharkhand,IN
24.0,87.5,Mohammad Bazar,West Bengal,IN
24.0,87.75,Mayureswar - II,West Bengal,IN
24.0,88.25,Beldanga - I,West Bengal,IN
24.0,88.0,Khargram,West Bengal,IN
24.0,88.5,Domkal,West Bengal,IN
24.0,91.25,Brahmanbaria,Chattogram Division,BD
24.0,91.75,Tulashikhar,Tripura,IN
24.0,91.5,Padmabil,Tripura,IN
24.0,92.0,Manu,Tripura,IN
24.0,92.25,Jampuii Hills,Tripura,IN
24.0,92.5,Zawlnuam,Mizoram,IN
24.0,92.75,'N' Thingdawl,Mizoram,IN
24.0,93.0,Phullen,Mizoram,IN
24.0,93.25,Ngopa,Mizoram,IN
24.0,93.75,Tonzang Township,Chin,MM
24.0,94.0,Chakpikarong,Manipur,IN
24.25,68.75,Jati,Sindh,PK
24.25,69.0,Badīn District,Sindh,PK
24.0,83.0,Dudhi,Uttar Pradesh,IN
24.25,69.75,Diplo,Sindh,PK
24.25,69.5,Kachchh,Gujarat,IN
24.25,70.75,Nagar Parkar,Sindh,PK
24.25,69.25,Kachchh,Gujarat,IN
24.25,70.0,Diplo,Sindh,PK
24.25,70.5,Kachchh,Gujarat,IN
24.25,70.25,Kachchh,Gujarat,IN
24.25,71.0,Kachchh,Gujarat,IN
24.25,71.25,Kachchh,Gujarat,IN
24.25,72.25,Deesa,Gujarat,IN
24.25,72.75,Amirgadh Taluka,Gujarat,IN
24.25,71.5,Vav Taluka,Gujarat,IN
24.25,73.0,Danta Taluka,Gujarat,IN
24.25,72.0,Deesa Taluka,Gujarat,IN
24.25,74.0,Salumbar Tehsil,Rajasthan,IN
24.25,71.75,Deodar Taluka,Gujarat,IN
24.25,72.5,Palanpur Taluka,Gujarat,IN
24.25,73.75,Sarada Tehsil,Rajasthan,IN
24.25,73.25,Kotra Tehsil,Rajasthan,IN
24.25,74.5,Pratapgarh Tehsil,Rajasthan,IN
24.25,73.5,Jhadol Tehsil,Rajasthan,IN
24.25,74.25,Lasadiya Tehsil,Rajasthan,IN
24.25,75.0,Malhargarh Tahsil,Madhya Pradesh,IN
24.25,74.75,Jiran Tehsil,Madhya Pradesh,IN
24.25,75.25,Malhargarh Tahsil,Madhya Pradesh,IN
24.25,75.5,Shamgarh Tahsil,Madhya Pradesh,IN
24.25,75.75,Garoth Tahsil,Madhya Pradesh,IN
24.25,76.0,Sunel Tehsil,Rajasthan,IN
24.25,77.0,Chachaura Tahsil,Madhya Pradesh,IN
24.25,76.75,Manoharthana Tehsil,Rajasthan,IN
24.25,76.25,Bakani Tehsil,Rajasthan,IN
24.25,76.5,Aklera Tehsil,Rajasthan,IN
24.25,77.25,Maksoodangarh Tahsil,Madhya Pradesh,IN
24.25,77.5,Sironj Tahsil,Madhya Pradesh,IN
24.25,77.75,Sironj Tahsil,Madhya Pradesh,IN
24.25,78.0,Mungaoli Tahsil,Madhya Pradesh,IN
24.25,78.25,Bina Tahsil,Madhya Pradesh,IN
24.25,78.5,Malthon Tahsil,Madhya Pradesh,IN
24.25,78.75,Mahroni Tehsil,Uttar Pradesh,IN
24.25,79.0,Shahgarh Tahsil,Madhya Pradesh,IN
24.25,79.5,Batiyagarh Tahsil,Madhya Pradesh,IN
24.25,79.25,Buxwaha Tahsil,Madhya Pradesh,IN
24.25,79.75,Hatta Tahsil,Madhya Pradesh,IN
24.25,80.0,Pawai Tahsil,Madhya Pradesh,IN
24.25,80.25,Pawai Tahsil,Madhya Pradesh,IN
24.25,80.5,Pawai Tahsil,Madhya Pradesh,IN
24.25,80.75,Maihar Tahsil,Madhya Pradesh,IN
24.25,81.0,Amarpatan Tahsil,Madhya Pradesh,IN
24.25,81.25,Ramnagar Tahsil,Madhya Pradesh,IN
24.25,82.0,Gopadbanas Tahsil,Madhya Pradesh,IN
24.25,81.5,Rampur Naikin Tahsil,Madhya Pradesh,IN
24.25,81.75,Gopadbanas Tahsil,Madhya Pradesh,IN
24.25,82.25,Deosar Tahsil,Madhya Pradesh,IN
24.25,82.5,Chitrangi Tahsil,Madhya Pradesh,IN
24.25,82.75,Chitrangi Tahsil,Madhya Pradesh,IN
24.25,83.0,Dudhi,Uttar Pradesh,IN
24.25,83.5,Nagaruntari,Jharkhand,IN
24.25,83.25,Dudhi,Uttar Pradesh,IN
24.25,83.75,Majhiaon,Jharkhand,IN
24.25,84.0,Nawa Bazar,Jharkhand,IN
24.25,86.25,Giridih,Jharkhand,IN
24.25,84.75,Kunda,Jharkhand,IN
24.25,86.5,Gande,Jharkhand,IN
24.25,85.25,Mayur Hand,Jharkhand,IN
24.25,84.5,Pratappur,Jharkhand,IN
24.25,87.25,Dumka,Jharkhand,IN
24.25,85.75,Chalkusa,Jharkhand,IN
24.25,85.0,Kanha Chatti,Jharkhand,IN
24.25,84.25,Chhatarpur,Jharkhand,IN
24.25,86.75,Sarath,Jharkhand,IN
24.25,85.5,Barhi,Jharkhand,IN
24.25,86.0,Birni,Jharkhand,IN
24.25,87.0,Palojori,Jharkhand,IN
24.25,87.75,Rampurhat - I,West Bengal,IN
24.25,87.5,Shikaripara,Jharkhand,IN
24.25,88.0,Nalhati - II,West Bengal,IN
24.25,88.5,Raninagar - II,West Bengal,IN
24.25,88.25,Jiaganj Azimganj,West Bengal,IN
24.25,91.75,Kamalganj Upazila,Sylhet Division,BD
24.5,69.5,Diplo,Sindh,PK
24.25,91.25,Lakhai Upazila,Sylhet Division,BD
24.25,91.5,Chunarughat Upazila,Sylhet Division,BD
24.5,70.5,Islamkot,Sindh,PK
24.25,92.0,Chandipur,Tripura,IN
24.25,92.25,Patharkandi,Assam,IN
24.25,92.5,Katlichara,Assam,IN
24.5,71.5,Vav Taluka,Gujarat,IN
24.5,72.5,Reodar Tehsil,Rajasthan,IN
24.25,92.75,'N' Thingdawl,Mizoram,IN
24.25,93.0,Darlawn,Mizoram,IN
24.25,93.25,Thanlon,Manipur,IN
24.25,93.5,Henglep,Manipur,IN
24.5,73.5,Jhadol Tehsil,Rajasthan,IN
24.25,94.25,Tengnoupal,Manipur,IN
24.25,93.75,Churachandpur,Manipur,IN
24.5,69.25,Diplo,Sindh,PK
24.5,68.75,Badīn District,Sindh,PK
24.25,94.0,Chandel,Manipur,IN
24.5,74.5,Bari Sadri Tehsil,Rajasthan,IN
24.5,75.5,Rampura Tehsil,Madhya Pradesh,IN
24.5,76.5,Khanpur Tehsil,Rajasthan,IN
24.5,70.25,Islamkot,Sindh,PK
24.5,77.5,Ashoknagar Tahsil,Madhya Pradesh,IN
24.5,70.0,Islamkot,Sindh,PK
24.5,78.5,Lalitpur Tehsil,Uttar Pradesh,IN
24.5,70.75,Nagar Parkar,Sindh,PK
24.5,71.0,Nagar Parkar,Sindh,PK
24.5,79.5,Bijawar Tahsil,Madhya Pradesh,IN
24.5,71.75,Tharad Taluka,Gujarat,IN
24.5,71.25,Kachchh,Gujarat,IN
24.5,72.0,Dhanera Taluka,Gujarat,IN
24.5,72.25,Dhanera Taluka,Gujarat,IN
24.5,80.5,Nagod Tahsil,Madhya Pradesh,IN
24.5,72.75,Abu Road Tehsil,Rajasthan,IN
24.5,73.25,Kotra Tehsil,Rajasthan,IN
24.5,73.0,Abu Road Tehsil,Rajasthan,IN
24.5,81.5,Gurh Tahsil,Madhya Pradesh,IN
24.5,74.0,Girwa Tehsil,Rajasthan,IN
24.5,73.75,Udaipur,Rajasthan,IN
24.5,76.25,Asnawar Tehsil,Rajasthan,IN
24.5,74.25,Dungla Tehsil,Rajasthan,IN
24.5,76.75,Chhipabarod Tehsil,Rajasthan,IN
24.5,74.75,Neemuch Tehsil,Madhya Pradesh,IN
24.5,75.75,Bhanpura Tahsil,Madhya Pradesh,IN
24.5,75.25,Manasa Tehsil,Madhya Pradesh,IN
24.5,75.0,Neemuch Tehsil,Madhya Pradesh,IN
24.5,76.0,Pachpahar Tehsil,Rajasthan,IN
24.5,77.25,Raghogarh Tahsil,Madhya Pradesh,IN
24.5,77.0,Chhabra Tehsil,Rajasthan,IN
24.5,82.5,Chitrangi Tahsil,Madhya Pradesh,IN
24.5,83.5,Ketar,Jharkhand,IN
24.5,78.0,Mungaoli Tahsil,Madhya Pradesh,IN
24.5,77.75,Ashoknagar Tahsil,Madhya Pradesh,IN
24.5,78.25,Lalitpur Tehsil,Uttar Pradesh,IN
24.5,78.75,Mahroni Tehsil,Uttar Pradesh,IN
24.5,84.5,Dumaria,Bihar,IN
24.5,79.0,Tikamgarh Tahsil,Madhya Pradesh,IN
24.0,93.5,Singngat,Manipur,IN
24.5,79.25,Bada Malhera Tahsil,Madhya Pradesh,IN
24.5,79.75,Bijawar Tahsil,Madhya Pradesh,IN
24.5,85.5,Koderma,Jharkhand,IN
24.5,80.0,Amanganj Tahsil,Madhya Pradesh,IN
24.5,80.25,Gunnor Tahsil,Madhya Pradesh,IN
24.5,86.5,Chakai,Bihar,IN
24.5,80.75,Unchahara Tahsil,Madhya Pradesh,IN
24.5,81.0,Rampur Baghelan Tahsil,Madhya Pradesh,IN
24.5,81.25,Rewa,Madhya Pradesh,IN
24.5,81.75,Mauganj Tahsil,Madhya Pradesh,IN
24.5,87.5,Gopikandar,Jharkhand,IN
24.5,82.0,Sihawal Tahsil,Madhya Pradesh,IN
24.5,82.25,Bahari Tahsil,Madhya Pradesh,IN
24.5,82.75,Robertsganj,Uttar Pradesh,IN
24.5,88.5,Godagari Upazila,Rajshahi Division,BD
24.5,83.0,Robertsganj,Uttar Pradesh,IN
24.5,83.75,Bhawnathpur,Jharkhand,IN
24.5,92.5,Ramkrishna Nagar,Assam,IN
24.5,83.25,Robertsganj,Uttar Pradesh,IN
24.5,93.5,Henglep,Manipur,IN
24.5,84.0,Hussainabad,Jharkhand,IN
24.5,84.25,Hariharganj,Jharkhand,IN
24.5,84.75,Banke Bazar,Bihar,IN
24.5,85.0,Barachatti,Bihar,IN
24.5,85.25,Fatehpur,Bihar,IN
24.5,86.25,Deori,Jharkhand,IN
24.5,85.75,Domchanch,Jharkhand,IN
24.5,86.0,Deori,Jharkhand,IN
24.5,86.75,Mohanpur,Jharkhand,IN
24.5,87.25,Ramgarh,Jharkhand,IN
24.5,87.0,Saraiyahat,Jharkhand,IN
24.5,87.75,Maheshpur,Jharkhand,IN
24.5,88.0,Suti - I,West Bengal,IN
24.5,88.25,চাঁপাইনবাবগঞ্জ উপশহর Chapainawabganj Sub-City,Rajshahi Division,BD
24.5,92.0,Kulaura Upazila,Sylhet Division,BD
24.5,91.75,Moulvibazar,Sylhet Division,BD
24.5,93.0,Sonai,Assam,IN
24.5,92.75,Katlichara,Assam,IN
24.5,93.25,Thanlon,Manipur,IN
24.5,92.25,Patharkandi,Assam,IN
24.5,93.75,Moirang,Manipur,IN
24.5,94.0,Kakching,Manipur,IN
24.75,71.5,Chitalwana Tehsil,Rajasthan,IN
24.5,94.25,Machi,Manipur,IN
24.75,71.0,Nagar Parkar,Sindh,PK
24.75,71.25,Sedwa Tehsil,Rajasthan,IN
24.75,72.0,Sanchore Tehsil,Rajasthan,IN
24.75,71.75,Sanchore Tehsil,Rajasthan,IN
24.75,72.25,Raniwara Tehsil,Rajasthan,IN
24.75,72.5,Reodar Tehsil,Rajasthan,IN
24.75,72.75,Sirohi Tehsil,Rajasthan,IN
24.75,73.0,Pindwara Tehsil,Rajasthan,IN
24.75,73.25,Kotra Tehsil,Rajasthan,IN
24.75,74.0,Mavli Tehsil,Rajasthan,IN
24.75,73.75,Nathdwara Tehsil,Rajasthan,IN
24.75,74.25,Kapasan Tehsil,Rajasthan,IN
24.75,74.5,Bhadesar Tehsil,Rajasthan,IN
24.75,73.5,Gogunda Tehsil,Rajasthan,IN
24.75,74.75,Chittaurgarh Tehsil,Rajasthan,IN
24.75,75.25,Rawatbhata Tehsil,Rajasthan,IN
24.75,75.0,Nimbahera Tehsil,Rajasthan,IN
24.75,75.5,Rawatbhata Tehsil,Rajasthan,IN
24.75,75.75,Bhanpura Tahsil,Madhya Pradesh,IN
24.75,76.0,Ramganj Mandi Tehsil,Rajasthan,IN
24.75,76.5,Atru Tehsil,Rajasthan,IN
24.75,76.75,Atru Tehsil,Rajasthan,IN
24.75,76.25,Khanpur Tehsil,Rajasthan,IN
24.75,77.25,Guna Tahsil,Madhya Pradesh,IN
24.75,77.5,Guna Tahsil,Madhya Pradesh,IN
24.75,77.0,Bamori Tahsil,Madhya Pradesh,IN
24.75,77.75,Isagarh Tahsil,Madhya Pradesh,IN
24.75,78.0,Chanderi Tahsil,Madhya Pradesh,IN
24.75,78.25,Lalitpur Tehsil,Uttar Pradesh,IN
24.75,78.5,Lalitpur,Uttar Pradesh,IN
24.75,79.0,Baldeogarh Tahsil,Madhya Pradesh,IN
24.75,78.75,Mahroni Tehsil,Uttar Pradesh,IN
24.75,79.25,Baldeogarh Tahsil,Madhya Pradesh,IN
24.75,79.5,Bijawar Tahsil,Madhya Pradesh,IN
24.75,79.75,Rajnagar Tahsil,Madhya Pradesh,IN
24.75,80.0,Rajnagar Tahsil,Madhya Pradesh,IN
24.75,80.25,Panna Tahsil,Madhya Pradesh,IN
24.75,80.5,Nagod Tahsil,Madhya Pradesh,IN
24.75,80.75,Raghurajnagar Tahsil,Madhya Pradesh,IN
24.75,81.0,Kotar Tahsil,Madhya Pradesh,IN
24.75,81.25,Semaria Tahsil,Madhya Pradesh,IN
24.75,81.5,Mangawan Tahsil,Madhya Pradesh,IN
24.75,82.25,Hanumana Tahsil,Madhya Pradesh,IN
24.75,81.75,Naigarhi Tahsil,Madhya Pradesh,IN
24.75,82.0,Hanumana Tahsil,Madhya Pradesh,IN
24.75,82.5,Lalganj,Uttar Pradesh,IN
24.75,82.75,Ghorawal,Uttar Pradesh,IN
24.75,83.0,Robertsganj,Uttar Pradesh,IN
24.75,83.75,Adhaura,Bihar,IN
24.75,83.25,Chakia,Uttar Pradesh,IN
24.75,83.5,Adhaura,Bihar,IN
24.75,84.0,Rohtas,Bihar,IN
24.75,84.25,Nabinagar,Bihar,IN
24.75,85.0,Gaya,Bihar,IN
24.75,86.5,Jhajha,Bihar,IN
24.75,84.5,Madanpur,Bihar,IN
24.75,85.5,Akbarpur,Bihar,IN
24.75,85.75,Satgawan,Jharkhand,IN
24.75,86.25,Sono,Bihar,IN
24.75,86.0,Tisri,Jharkhand,IN
24.75,86.75,Katoria,Bihar,IN
24.75,84.75,Guraru,Bihar,IN
24.75,85.25,Wazirganj,Bihar,IN
24.75,87.0,Bausi,Bihar,IN
24.75,87.25,Godda,Jharkhand,IN
24.75,87.75,Hiranpur,Jharkhand,IN
24.75,88.0,Kaliachak - III,West Bengal,IN
24.75,87.5,Litipara,Jharkhand,IN
24.75,92.25,Barlekha Upazila,Sylhet Division,BD
24.75,92.5,Nilambazar,Assam,IN
24.75,93.0,Lakhipur,Assam,IN
24.75,93.5,Nungba,Manipur,IN
24.75,93.25,Tamenglong West,Manipur,IN
24.75,92.75,Silchar,Assam,IN
24.75,93.75,Saitu-Gamphazol,Manipur,IN
24.75,94.0,Keirao Bitra,Manipur,IN
24.75,94.5,Kamjong,Manipur,IN
25.0,70.75,Chachro,Sindh,PK
25.0,71.25,Sedwa Tehsil,Rajasthan,IN
25.0,72.0,Bhinmal Tehsil,Rajasthan,IN
25.0,71.5,Chitalwana Tehsil,Rajasthan,IN
25.0,71.75,Chitalwana Tehsil,Rajasthan,IN
25.0,72.5,Jaswantpura Tehsil,Rajasthan,IN
25.0,72.25,Bhinmal Tehsil,Rajasthan,IN
24.75,94.25,Kasom Khullen,Manipur,IN
25.0,72.75,Sirohi Tehsil,Rajasthan,IN
25.0,71.0,Sedwa Tehsil,Rajasthan,IN
25.0,73.0,Sheoganj Tehsil,Rajasthan,IN
25.0,73.25,Bali Tehsil,Rajasthan,IN
25.0,73.5,Gogunda Tehsil,Rajasthan,IN
25.0,73.75,Nathdwara Tehsil,Rajasthan,IN
25.0,74.25,Railmagra Tehsil,Rajasthan,IN
25.0,74.0,Rajsamand Tehsil,Rajasthan,IN
25.0,75.0,Begun Tehsil,Rajasthan,IN
25.0,74.75,Chittaurgarh Tehsil,Rajasthan,IN
25.0,74.5,Gangrar Tehsil,Rajasthan,IN
25.0,75.5,Rawatbhata Tehsil,Rajasthan,IN
25.0,76.0,Ladpura Tehsil,Rajasthan,IN
25.0,75.25,Singoli Tehsil,Madhya Pradesh,IN
25.0,75.75,Ladpura Tehsil,Rajasthan,IN
25.0,76.5,Baran,Rajasthan,IN
25.0,76.25,Sangod Tehsil,Rajasthan,IN
25.0,76.75,Kishanganj Tehsil,Rajasthan,IN
25.0,77.25,Guna Tahsil,Madhya Pradesh,IN
25.0,77.75,Badarwas Tahsil,Madhya Pradesh,IN
25.0,77.5,Badarwas Tahsil,Madhya Pradesh,IN
25.0,78.0,Khaniyadhana Tahsil,Madhya Pradesh,IN
25.0,78.5,Talbehat,Uttar Pradesh,IN
25.0,79.0,Jatara Tahsil,Madhya Pradesh,IN
25.0,78.25,Khaniyadhana Tahsil,Madhya Pradesh,IN
25.0,78.75,Mohangarh Tahsil,Madhya Pradesh,IN
25.0,77.0,Bamori Tahsil,Madhya Pradesh,IN
25.0,79.25,Palera Tahsil,Madhya Pradesh,IN
25.0,79.5,Chhatarpur Tahsil,Madhya Pradesh,IN
25.0,79.75,Maharajpur Tahsil,Madhya Pradesh,IN
25.0,80.0,Chandla Tahsil,Madhya Pradesh,IN
25.0,80.25,Ajaigarh Tahsil,Madhya Pradesh,IN
25.0,80.5,Majhgawan Tahsil,Madhya Pradesh,IN
25.0,80.75,Majhgawan Tahsil,Madhya Pradesh,IN
25.0,81.0,Karwi,Uttar Pradesh,IN
25.0,81.25,Jawa Tahsil,Madhya Pradesh,IN
25.0,81.75,Teonthar Tahsil,Madhya Pradesh,IN
25.0,82.0,Koraon,Uttar Pradesh,IN
25.0,81.5,Jawa Tahsil,Madhya Pradesh,IN
25.0,82.5,Marihan,Uttar Pradesh,IN
25.0,82.25,Koraon,Uttar Pradesh,IN
25.0,83.0,Chunar,Uttar Pradesh,IN
25.0,82.75,Chunar,Uttar Pradesh,IN
25.0,83.75,Bhabua,Bihar,IN
25.0,83.5,Chainpur,Bihar,IN
25.0,83.25,Chakia,Uttar Pradesh,IN
25.0,84.0,Sasaram,Bihar,IN
25.0,84.25,Dehri,Bihar,IN
25.0,84.75,Konch,Bihar,IN
25.0,84.5,Daudnagar,Bihar,IN
25.0,85.25,Neem Chak Bathani,Bihar,IN
25.0,85.0,Belaganj,Bihar,IN
25.0,85.75,Ariari,Bihar,IN
25.0,85.5,Nardiganj,Bihar,IN
25.0,86.25,Barhat,Bihar,IN
25.0,86.0,Halsi,Bihar,IN
25.0,86.5,Kharagpur,Bihar,IN
25.0,86.75,Phulidumar,Bihar,IN
25.0,87.0,Rajaun,Bihar,IN
25.0,87.75,Rajmahal,Jharkhand,IN
25.0,87.5,Borio,Jharkhand,IN
25.0,92.25,Kanaighat Upazila,Sylhet Division,BD
25.0,87.25,Mahagama,Jharkhand,IN
25.0,88.0,Malda,West Bengal,IN
25.0,88.25,Habibpur,West Bengal,IN
25.0,93.0,Udarbond,Assam,IN
25.0,93.25,Mahur,Assam,IN
25.0,92.75,Silchar,Assam,IN
25.0,92.5,Katigora,Assam,IN
25.0,93.5,Tamenglong,Manipur,IN
25.0,93.75,Tamenglong North,Manipur,IN
25.0,94.0,Saikul,Manipur,IN
25.0,94.5,Kamjong,Manipur,IN
25.0,94.25,Ukhrul,Manipur,IN
25.25,71.25,Dhanaoo Tehsil,Rajasthan,IN
25.25,70.75,Chachro,Sindh,PK
25.25,71.5,Dhorimanna Tehsil,Rajasthan,IN
25.25,71.0,Dhanaoo Tehsil,Rajasthan,IN
25.25,71.75,Gudha Malani Tehsil,Rajasthan,IN
25.25,72.25,Sayla Tehsil,Rajasthan,IN
25.25,72.0,Bagora Tehsil,Rajasthan,IN
25.25,72.5,Jalor Tehsil,Rajasthan,IN
25.25,72.75,Jalor Tehsil,Rajasthan,IN
25.25,73.25,Bali Tehsil,Rajasthan,IN
25.25,73.0,Sumerpur Tehsil,Rajasthan,IN
25.25,73.75,Gadbor Tehsil,Rajasthan,IN
25.25,73.5,Desuri Tehsil,Rajasthan,IN
25.25,74.5,Bhilwara Tehsil,Rajasthan,IN
25.25,74.0,Amet Tehsil,Rajasthan,IN
25.25,74.25,Sahara Tehsil,Rajasthan,IN
25.25,74.75,Hameergarh Tehsil,Rajasthan,IN
25.25,75.0,Mandalgarh Tehsil,Rajasthan,IN
25.25,75.25,Mandalgarh Tehsil,Rajasthan,IN
25.25,75.5,Bundi Tehsil,Rajasthan,IN
25.25,75.75,Talera Tehsil,Rajasthan,IN
25.25,76.25,Digod Tehsil,Rajasthan,IN
25.25,76.0,Ladpura Tehsil,Rajasthan,IN
25.25,76.5,Mangrol Tehsil,Rajasthan,IN
25.25,76.75,Kishanganj Tehsil,Rajasthan,IN
25.25,77.25,Shahbad Tehsil,Rajasthan,IN
25.25,77.0,Shahbad Tehsil,Rajasthan,IN
25.25,77.75,Kolaras Tahsil,Madhya Pradesh,IN
25.25,78.0,Pichhore Tahsil,Madhya Pradesh,IN
25.25,78.75,Niwari Tahsil,Madhya Pradesh,IN
25.25,78.5,Jhansi,Uttar Pradesh,IN
25.25,78.25,Pichhore Tahsil,Madhya Pradesh,IN
25.25,79.0,Lidhaura Tahsil,Madhya Pradesh,IN
25.25,79.25,Mauranipur,Uttar Pradesh,IN
25.25,79.5,Kulpahar,Uttar Pradesh,IN
25.25,80.25,Gaurihar Tahsil,Madhya Pradesh,IN
25.25,80.5,Naraini,Uttar Pradesh,IN
25.25,79.75,Mahoba,Uttar Pradesh,IN
25.25,80.0,Gaurihar Tahsil,Madhya Pradesh,IN
25.25,80.75,Karwi,Uttar Pradesh,IN
25.25,81.25,Mau,Uttar Pradesh,IN
25.25,81.5,Mau,Uttar Pradesh,IN
25.25,81.0,Karwi,Uttar Pradesh,IN
25.25,82.0,Karchhana,Uttar Pradesh,IN
25.25,82.25,Gyanpur,Uttar Pradesh,IN
25.25,81.75,Bara,Uttar Pradesh,IN
25.25,82.75,Sadar,Uttar Pradesh,IN
25.25,82.5,Aurai,Uttar Pradesh,IN
25.25,83.75,Mohania,Bihar,IN
25.25,84.25,Suryapura,Bihar,IN
25.25,83.0,Varanasi,Uttar Pradesh,IN
25.25,83.5,Durgawati,Bihar,IN
25.25,84.0,Kochas,Bihar,IN
25.25,83.25,Mughal Sarai,Uttar Pradesh,IN
25.25,84.5,Tarari,Bihar,IN
25.25,84.75,Karpi,Bihar,IN
25.25,85.0,Jehanabad,Bihar,IN
25.25,85.5,Noorsarai,Bihar,IN
25.25,85.75,Barbigha,Bihar,IN
25.25,85.25,Ekangarsarai,Bihar,IN
25.25,86.0,Barahiya,Bihar,IN
25.25,86.25,Surajgarha,Bihar,IN
25.25,87.0,Bhagalpur,Bihar,IN
25.25,86.5,Dharhara,Bihar,IN
25.25,87.25,Kahalgaon,Bihar,IN
25.25,86.75,Sultanganj,Bihar,IN
25.25,77.5,Kolaras Tahsil,Madhya Pradesh,IN
25.25,87.5,Mandro,Jharkhand,IN
25.25,88.5,Tapan,West Bengal,IN
25.25,88.0,Ratua - I,West Bengal,IN
25.5,70.5,Dali,Sindh,PK
25.25,87.75,Sahibganj (block),Jharkhand,IN
25.25,88.75,Balurghat,West Bengal,IN
25.25,88.25,Gazole,West Bengal,IN
25.25,90.25,Gasuapara,Meghalaya,IN
25.5,71.5,Barmer Tehsil,Rajasthan,IN
25.25,91.0,Ranikor,Meghalaya,IN
25.25,90.5,Baghmara,Meghalaya,IN
25.25,90.75,Rongara,Meghalaya,IN
25.5,72.5,Siwana Tehsil,Rajasthan,IN
25.5,73.5,Rani Tehsil,Rajasthan,IN
25.25,91.5,Mawsynram,Meghalaya,IN
25.25,91.25,Ranikor,Meghalaya,IN
25.25,92.25,Khliehriat,Meghalaya,IN
25.5,74.5,Mandal Tehsil,Rajasthan,IN
25.25,92.0,Amlarem,Meghalaya,IN
25.25,91.75,Shella Bholaganj,Meghalaya,IN
25.25,92.5,Saipung,Meghalaya,IN
25.25,92.75,Saipung,Meghalaya,IN
25.25,93.25,Maibong,Assam,IN
25.25,93.5,Tamenglong West,Manipur,IN
25.25,93.0,Maibong,Assam,IN
25.25,93.75,Tamenglong North,Manipur,IN
25.25,94.0,Kangpoki,Manipur,IN
25.5,75.5,Hindoli Tehsil,Rajasthan,IN
25.25,94.25,Senapati,Manipur,IN
25.5,76.5,Pipalda Tehsil,Rajasthan,IN
25.25,94.5,Chingai,Manipur,IN
25.5,70.75,Chohtan Tehsil,Rajasthan,IN
25.5,71.75,Sindhari Tehsil,Rajasthan,IN
25.5,72.0,Sindhari Tehsil,Rajasthan,IN
25.5,71.0,Chohtan Tehsil,Rajasthan,IN
25.5,71.25,Chohtan Tehsil,Rajasthan,IN
25.5,72.25,Siwana Tehsil,Rajasthan,IN
25.5,73.0,Ahore Tehsil,Rajasthan,IN
25.5,73.25,Pali Tehsil,Rajasthan,IN
25.5,72.75,Ahore Tehsil,Rajasthan,IN
25.5,77.5,Pohri Tahsil,Madhya Pradesh,IN
25.5,79.5,Rath,Uttar Pradesh,IN
25.5,78.5,Jhansi,Uttar Pradesh,IN
25.5,73.75,Marwar Junction Tehsil,Rajasthan,IN
25.5,74.0,Deogarh Tehsil,Rajasthan,IN
25.5,80.5,Banda,Uttar Pradesh,IN
25.5,74.25,Kareda Tehsil,Rajasthan,IN
25.5,75.0,Kotri Tehsil,Rajasthan,IN
25.5,74.75,Banera Tehsil,Rajasthan,IN
25.5,75.25,Jahazpur Tehsil,Rajasthan,IN
25.5,81.5,Chail,Uttar Pradesh,IN
25.5,82.5,Mariahu,Uttar Pradesh,IN
25.5,75.75,Hindoli Tehsil,Rajasthan,IN
25.5,76.0,Keshoraipatan Tehsil,Rajasthan,IN
25.5,76.75,Karahal Tahsil,Madhya Pradesh,IN
25.5,76.25,Digod Tehsil,Rajasthan,IN
25.5,83.5,Zamania,Uttar Pradesh,IN
25.5,84.5,Jagdishpur,Bihar,IN
25.5,78.75,Tahrauli,Uttar Pradesh,IN
25.5,77.25,Pohri Tahsil,Madhya Pradesh,IN
25.5,77.75,Shivpuri Tahsil,Madhya Pradesh,IN
25.5,77.0,Karahal Tahsil,Madhya Pradesh,IN
25.5,78.0,Karera Tahsil,Madhya Pradesh,IN
25.5,78.25,Karera Tahsil,Madhya Pradesh,IN
25.5,79.25,Garautha,Uttar Pradesh,IN
25.5,79.0,Tahrauli,Uttar Pradesh,IN
25.5,80.0,Mahoba,Uttar Pradesh,IN
25.5,79.75,Charkhari,Uttar Pradesh,IN
25.5,80.25,Banda,Uttar Pradesh,IN
25.5,80.75,Baberu,Uttar Pradesh,IN
25.5,88.5,Kushmundi,West Bengal,IN
25.5,81.25,Khaga,Uttar Pradesh,IN
25.5,81.0,Baberu,Uttar Pradesh,IN
25.5,82.75,Pindra,Uttar Pradesh,IN
25.5,83.0,Pindra,Uttar Pradesh,IN
25.5,82.25,Handia,Uttar Pradesh,IN
25.5,82.0,Phulpur,Uttar Pradesh,IN
25.5,90.5,Samanda,Meghalaya,IN
25.5,85.5,Bakhtiarpur,Bihar,IN
25.5,87.5,Barari,Bihar,IN
25.5,86.5,Khagaria,Bihar,IN
25.5,91.5,Mawthadraishan,Meghalaya,IN
25.5,81.75,Soraon,Uttar Pradesh,IN
25.5,84.0,Itarhi,Bihar,IN
25.5,84.25,Chaugain,Bihar,IN
25.5,83.25,Sakaldiha,Uttar Pradesh,IN
25.5,83.75,Zamania,Uttar Pradesh,IN
25.5,84.75,Koilwar,Bihar,IN
25.5,92.5,Laskein,Meghalaya,IN
25.5,93.5,Kebai Khelma,Nagaland,IN
25.5,94.5,Chingai,Manipur,IN
25.5,86.75,Gogri,Bihar,IN
25.5,86.0,Teghra,Bihar,IN
25.5,86.25,Dandari,Bihar,IN
25.5,87.25,Sameli,Bihar,IN
25.5,89.75,Raomari Upazila,Rangpur Division,BD
25.5,91.25,Nongstoin,Meghalaya,IN
25.5,91.0,Mawshynrut,Meghalaya,IN
25.5,85.75,Pandarak,Bihar,IN
25.5,88.75,Dinajpur Sadar Upazila,Rangpur Division,BD
25.5,87.75,Pranpur,Bihar,IN
25.5,90.75,Baghmara,Meghalaya,IN
25.5,88.0,Barsoi,Bihar,IN
25.5,88.25,Itahar,West Bengal,IN
25.5,85.0,Naubatpur,Bihar,IN
25.5,87.0,Chausa,Bihar,IN
25.5,85.25,Fatwah,Bihar,IN
25.5,90.25,Gambegre,Meghalaya,IN
25.5,90.0,Betasing,Meghalaya,IN
25.5,91.75,Mawphlang,Meghalaya,IN
25.5,92.0,Mawkynrew,Meghalaya,IN
25.5,92.25,Thadlaskein,Meghalaya,IN
25.5,92.75,Umrangso,Assam,IN
25.5,93.25,Maibong,Assam,IN
25.5,93.0,Umrangso,Assam,IN
25.5,93.75,Peren,Nagaland,IN
25.5,94.25,Zuketsa,Nagaland,IN
25.5,94.0,Senapati,Manipur,IN
25.75,70.25,Sindh,Sindh,PK
25.75,71.5,Barmer,Rajasthan,IN
25.75,70.5,Gadraroad Tehsil,Rajasthan,IN
25.75,70.75,Ramsar Tehsil,Rajasthan,IN
25.75,71.25,Barmer,Rajasthan,IN
25.75,71.0,Ramsar Tehsil,Rajasthan,IN
25.75,72.25,Pachpadra Tehsil,Rajasthan,IN
25.75,71.75,Baytoo Tehsil,Rajasthan,IN
25.75,72.0,Sindhari Tehsil,Rajasthan,IN
25.75,72.5,Samdhari Tehsil,Rajasthan,IN
25.75,73.0,Rohat Tehsil,Rajasthan,IN
25.75,73.75,Marwar Junction Tehsil,Rajasthan,IN
25.75,73.25,Pali Tehsil,Rajasthan,IN
25.75,72.75,Ahore Tehsil,Rajasthan,IN
25.75,73.5,Pali Tehsil,Rajasthan,IN
25.75,74.75,Hurda Tehsil,Rajasthan,IN
25.75,74.0,Beawar Tehsil,Rajasthan,IN
25.75,74.25,Badnor Tehsil,Rajasthan,IN
25.75,74.5,Hurda Tehsil,Rajasthan,IN
25.75,75.0,Phooliya Kalan Tehsil,Rajasthan,IN
25.75,75.25,Sawar Tehsil,Rajasthan,IN
25.75,75.5,Deoli Tehsil,Rajasthan,IN
25.75,75.75,Nainwa Tehsil,Rajasthan,IN
25.75,76.0,Nainwa Tehsil,Rajasthan,IN
25.75,76.25,Indargarh Tehsil,Rajasthan,IN
25.75,76.5,Pipalda Tehsil,Rajasthan,IN
25.75,76.75,Sheopur Tahsil,Madhya Pradesh,IN
25.75,78.25,Badhoni Tahsil,Madhya Pradesh,IN
25.75,77.0,Karahal Tahsil,Madhya Pradesh,IN
25.75,77.5,Bairrad Tahsil,Madhya Pradesh,IN
25.75,77.75,Shivpuri Tahsil,Madhya Pradesh,IN
25.75,78.0,Bhitarwar Tahsil,Madhya Pradesh,IN
25.75,77.25,Vijaypur Tahsil,Madhya Pradesh,IN
25.75,80.25,Maudaha,Uttar Pradesh,IN
25.75,79.75,Sarila,Uttar Pradesh,IN
25.75,79.0,Moth,Uttar Pradesh,IN
25.75,78.5,Datia Tahsil,Madhya Pradesh,IN
25.75,79.5,Sarila,Uttar Pradesh,IN
25.75,79.25,Garautha,Uttar Pradesh,IN
25.75,78.75,Bhander Tahsil,Madhya Pradesh,IN
25.75,80.0,Maudaha,Uttar Pradesh,IN
25.75,80.5,Banda,Uttar Pradesh,IN
25.75,80.75,Fatehpur,Uttar Pradesh,IN
25.75,81.0,Fatehpur,Uttar Pradesh,IN
25.75,81.75,Kunda,Uttar Pradesh,IN
25.75,81.25,Sirathu,Uttar Pradesh,IN
25.75,81.5,Kunda,Uttar Pradesh,IN
25.75,82.0,Raniganj,Uttar Pradesh,IN
25.75,82.25,Machhlishahr,Uttar Pradesh,IN
25.75,82.75,Jaunpur,Uttar Pradesh,IN
25.75,82.5,Jaunpur,Uttar Pradesh,IN
25.75,83.0,Lalganj,Uttar Pradesh,IN
25.75,83.25,Jakhania,Uttar Pradesh,IN
25.75,83.5,Ghazipur,Uttar Pradesh,IN
25.75,83.75,Mohammadabad,Uttar Pradesh,IN
25.75,84.0,Ballia,Uttar Pradesh,IN
25.75,84.5,Bairia,Uttar Pradesh,IN
25.75,85.0,Dighwara,Bihar,IN
25.75,84.75,Chhapra,Bihar,IN
25.75,84.25,Ballia,Uttar Pradesh,IN
25.75,85.25,Hajipur,Bihar,IN
25.75,85.5,Jandaha,Bihar,IN
25.75,85.75,Sarairanjan,Bihar,IN
25.75,86.0,Bibhutpur,Bihar,IN
25.75,86.25,Hasanpur,Bihar,IN
25.75,87.0,Bihariganj,Bihar,IN
25.75,86.75,Sonbarsa,Bihar,IN
25.75,86.5,Simri Bakhtiarpur,Bihar,IN
25.75,87.25,Dhamdaha,Bihar,IN
25.75,87.5,Purnia,Bihar,IN
25.75,87.75,Kadwa,Bihar,IN
25.75,88.0,Karandighi,West Bengal,IN
25.75,88.25,Hemtabad,West Bengal,IN
25.75,89.75,Kurigram,Rangpur Division,BD
25.75,90.0,Selsella,Meghalaya,IN
25.75,90.25,Dadenggiri,Meghalaya,IN
25.75,90.5,Songsak,Meghalaya,IN
25.75,91.25,Boko,Assam,IN
25.75,91.75,Mairang,Meghalaya,IN
25.75,91.0,Mawshynrut,Meghalaya,IN
25.75,91.5,Mairang,Meghalaya,IN
25.75,90.75,Dambo Rongjeng,Meghalaya,IN
25.75,92.25,Donka,Assam,IN
25.75,93.25,Diphu,Assam,IN
25.75,92.0,Umsning,Meghalaya,IN
25.75,92.75,Donka,Assam,IN
25.75,92.5,Donka,Assam,IN
25.75,93.0,Umrangso,Assam,IN
25.75,93.5,Diphu,Assam,IN
25.75,94.25,Kezocha,Nagaland,IN
25.75,94.0,Sechu-Zubza,Nagaland,IN
25.75,93.75,Chumukedima,Nagaland,IN
25.75,94.5,Phek Sadar,Nagaland,IN
25.75,94.75,Phor,Nagaland,IN
25.75,95.0,Khongsa,Nagaland,IN
26.0,70.5,Gadraroad Tehsil,Rajasthan,IN
26.0,71.0,Gadraroad Tehsil,Rajasthan,IN
26.0,70.0,Sindh,Sindh,PK
26.0,70.25,Gadraroad Tehsil,Rajasthan,IN
26.0,71.25,Sheo Tehsil,Rajasthan,IN
26.0,70.75,Gadraroad Tehsil,Rajasthan,IN
26.0,71.75,Baytoo Tehsil,Rajasthan,IN
26.0,73.0,Luni Tehsil,Rajasthan,IN
26.0,71.5,Baytoo Tehsil,Rajasthan,IN
26.0,72.0,Gira Tehsil,Rajasthan,IN
26.0,73.5,Sojat Tehsil,Rajasthan,IN
26.0,72.75,Luni Tehsil,Rajasthan,IN
26.0,75.0,Sarwar Tehsil,Rajasthan,IN
26.0,74.0,Raipur Tehsil,Rajasthan,IN
26.0,74.75,Bhinay Tehsil,Rajasthan,IN
26.0,72.5,Pachpadra Tehsil,Rajasthan,IN
26.0,76.5,Khandar Tehsil,Rajasthan,IN
26.0,79.25,Konch,Uttar Pradesh,IN
26.0,77.75,Gwalior Tahsil,Madhya Pradesh,IN
26.0,74.25,Beawar,Rajasthan,IN
26.0,72.25,Pachpadra Tehsil,Rajasthan,IN
26.0,77.5,Vijaypur Tahsil,Madhya Pradesh,IN
26.0,75.25,Kekri Tehsil,Rajasthan,IN
26.0,76.75,Khandar Tehsil,Rajasthan,IN
26.0,80.0,Hamirpur,Uttar Pradesh,IN
26.0,77.25,Vijaypur Tahsil,Madhya Pradesh,IN
26.0,78.5,Pichhore Tahsil,Madhya Pradesh,IN
26.0,78.0,Gwalior Tahsil,Madhya Pradesh,IN
26.0,79.5,Orai,Uttar Pradesh,IN
26.0,80.25,Ghatampur,Uttar Pradesh,IN
26.0,80.5,Bindki,Uttar Pradesh,IN
26.0,79.75,Kalpi,Uttar Pradesh,IN
26.0,78.75,Bhander Tahsil,Madhya Pradesh,IN
26.0,75.5,Todaraisingh Tehsil,Rajasthan,IN
26.0,79.0,Konch,Uttar Pradesh,IN
26.0,76.25,Sawai Madhopur,Rajasthan,IN
26.0,75.75,Tonk Tehsil,Rajasthan,IN
26.0,76.0,Uniara Tehsil,Rajasthan,IN
26.0,73.25,Rohat Tehsil,Rajasthan,IN
26.0,77.0,Beerpur Tahsil,Madhya Pradesh,IN
26.0,73.75,Sojat Tehsil,Rajasthan,IN
26.0,78.25,Chinour Tahsil,Madhya Pradesh,IN
26.0,74.5,Masuda Tehsil,Rajasthan,IN
26.0,81.75,Lalganj,Uttar Pradesh,IN
26.0,80.75,Fatehpur,Uttar Pradesh,IN
26.0,81.0,Fatehpur,Uttar Pradesh,IN
26.0,81.25,Unchahar,Uttar Pradesh,IN
26.0,81.5,Salon,Uttar Pradesh,IN
26.0,84.5,Ekma,Bihar,IN
26.0,86.0,Baheri,Bihar,IN
26.0,87.75,Amour,Bihar,IN
26.0,84.0,Sikanderpur,Uttar Pradesh,IN
26.0,86.25,Gora Bauram,Bihar,IN
26.0,89.5,Phulbari Upazila (Kurigram),Rangpur Division,BD
26.0,82.0,Patti,Uttar Pradesh,IN
26.0,87.25,Raniganj,Bihar,IN
26.0,90.5,Balijana,Assam,IN
26.0,83.25,Azamgarh,Uttar Pradesh,IN
26.0,93.75,Diphu,Assam,IN
26.0,84.75,Baniapur,Bihar,IN
26.0,88.25,Ranisankail Upazila,Rangpur Division,BD
26.0,83.5,Mau,Uttar Pradesh,IN
26.0,82.5,Kadipur,Uttar Pradesh,IN
26.0,85.75,Kalyanpur,Bihar,IN
26.0,86.5,Nauhatta,Bihar,IN
26.0,90.25,Lakhipur,Assam,IN
26.0,85.25,Paterhi Belsar,Bihar,IN
26.0,85.0,Maker,Bihar,IN
26.0,94.0,Ralan,Nagaland,IN
26.0,92.25,Donka,Assam,IN
26.0,86.75,Singheshwar,Bihar,IN
26.0,87.5,Araria,Bihar,IN
26.0,83.0,Nizamabad,Uttar Pradesh,IN
26.0,90.75,Dudhnai,Assam,IN
26.0,84.25,Raghunathpur,Bihar,IN
26.0,92.75,Donka,Assam,IN
26.0,87.0,Kumarkhand,Bihar,IN
26.0,82.25,Patti,Uttar Pradesh,IN
26.0,93.0,Lanka,Assam,IN
26.0,83.75,Maunath Bhanjan,Uttar Pradesh,IN
26.0,91.0,Rangjuli,Assam,IN
26.0,91.75,Jirang,Meghalaya,IN
26.0,89.75,Nageshwari Upazila,Rangpur Division,BD
26.0,91.25,Boko,Assam,IN
26.0,92.0,Umling,Meghalaya,IN
26.0,82.75,Phulpur,Uttar Pradesh,IN
26.0,92.5,Donka,Assam,IN
26.0,93.5,Diphu,Assam,IN
26.0,93.25,Diphu,Assam,IN
26.0,91.5,Palasbari,Assam,IN
26.0,88.0,Goalpokhar - II,West Bengal,IN
26.0,90.0,Dhubri,Assam,IN
26.0,85.5,Sakra,Bihar,IN
26.0,94.25,Chunlika,Nagaland,IN
26.0,94.5,Zunheboto Sadar,Nagaland,IN
26.25,70.0,Sindh,Sindh,PK
26.0,95.0,Thonoknyu,Nagaland,IN
26.0,94.75,Amahator,Nagaland,IN
26.25,70.25,Jaisalmer Tehsil,Rajasthan,IN
26.25,70.5,Fatehgarh Tehsil,Rajasthan,IN
26.25,77.75,Joura Tahsil,Madhya Pradesh,IN
26.25,78.0,Gwalior Tahsil,Madhya Pradesh,IN
26.25,75.25,Malpura Tehsil,Rajasthan,IN
26.25,74.25,Raipur Tehsil,Rajasthan,IN
26.25,74.75,Nasirabad Tehsil,Rajasthan,IN
26.25,76.75,Sapotra Tehsil,Rajasthan,IN
26.25,73.5,Bilara Tehsil,Rajasthan,IN
26.25,75.5,Malpura Tehsil,Rajasthan,IN
26.25,70.75,Fatehgarh Tehsil,Rajasthan,IN
26.25,71.25,Sheo Tehsil,Rajasthan,IN
26.25,71.75,Gira Tehsil,Rajasthan,IN
26.25,80.75,Bighapur,Uttar Pradesh,IN
26.25,72.0,Gira Tehsil,Rajasthan,IN
26.25,76.5,Malarna Doongar Tehsil,Rajasthan,IN
26.25,72.25,Shergarh Tehsil,Rajasthan,IN
26.25,80.5,Kanpur,Uttar Pradesh,IN
26.25,74.0,Jaitaran Tehsil,Rajasthan,IN
26.25,78.75,Seondha Tahsil,Madhya Pradesh,IN
26.25,72.5,Pachpadra Tehsil,Rajasthan,IN
26.25,73.25,Jodhpur Tehsil,Rajasthan,IN
26.25,79.25,Madhogarh,Uttar Pradesh,IN
26.25,73.75,Bilara Tehsil,Rajasthan,IN
26.25,76.0,Niwai Tehsil,Rajasthan,IN
26.25,77.25,Sabalgarh Tahsil,Madhya Pradesh,IN
26.25,71.0,Sheo Tehsil,Rajasthan,IN
26.25,77.5,Kailaras Tahsil,Madhya Pradesh,IN
26.25,76.25,Bonli Tehsil,Rajasthan,IN
26.25,75.0,Sarwar Tehsil,Rajasthan,IN
26.25,75.75,Peeplu Tehsil,Rajasthan,IN
26.25,79.75,Bhognipur,Uttar Pradesh,IN
26.25,80.25,Ghatampur,Uttar Pradesh,IN
26.25,72.75,Luni Tehsil,Rajasthan,IN
26.25,77.0,Sapotra Tehsil,Rajasthan,IN
26.25,79.5,Kalpi,Uttar Pradesh,IN
26.25,74.5,Peesangan Tehsil,Rajasthan,IN
26.25,78.5,Tansen Tahsil,Madhya Pradesh,IN
26.25,80.0,Bhognipur,Uttar Pradesh,IN
26.25,81.25,Raebareli,Uttar Pradesh,IN
26.25,78.25,Murar Tahsil,Madhya Pradesh,IN
26.25,81.0,Raebareli,Uttar Pradesh,IN
26.25,71.5,Sheo Tehsil,Rajasthan,IN
26.25,79.0,Mihona Tahsil,Madhya Pradesh,IN
26.25,73.0,Jodhpur,Rajasthan,IN
26.25,81.5,Tiloi,Uttar Pradesh,IN
26.25,82.25,Jaisinghpur,Uttar Pradesh,IN
26.25,82.5,Kadipur,Uttar Pradesh,IN
26.25,81.75,Gauriganj,Uttar Pradesh,IN
26.25,82.0,Sultanpur,Uttar Pradesh,IN
26.25,83.0,Burhanpur,Uttar Pradesh,IN
26.25,82.75,Jalalpur,Uttar Pradesh,IN
26.5,70.5,Jaisalmer Tehsil,Rajasthan,IN
26.25,87.0,Chhatapur,Bihar,IN
26.25,93.25,Phuloni,Assam,IN
26.25,94.75,Longkhim,Nagaland,IN
26.25,93.0,Phuloni,Assam,IN
26.25,83.75,Madhuban,Uttar Pradesh,IN
26.5,70.25,Jaisalmer Tehsil,Rajasthan,IN
26.25,90.0,Bagribari (Pt),Assam,IN
26.25,92.75,Nagaon,Assam,IN
26.25,92.5,Raha,Assam,IN
26.25,85.75,Singhwara,Bihar,IN
26.25,85.25,Minapur,Bihar,IN
26.25,90.25,Bilasipara Pt,Assam,IN
26.25,91.0,Baghbor,Assam,IN
26.25,85.0,Sahebganj,Bihar,IN
26.25,92.25,Mayong,Assam,IN
26.25,90.75,Kalgachia,Assam,IN
26.25,83.5,Ghosi,Uttar Pradesh,IN
26.25,84.75,Baikunthpur,Bihar,IN
26.25,94.5,Akuluto,Nagaland,IN
26.25,91.25,Barkhetri,Assam,IN
26.25,84.25,Ziradei,Bihar,IN
26.25,83.25,Sagri,Uttar Pradesh,IN
26.25,87.25,Forbesganj,Bihar,IN
26.25,88.0,Thakurganj,Bihar,IN
26.25,89.25,Mathabhanga - I,West Bengal,IN
26.25,89.0,Mekliganj,West Bengal,IN
26.25,84.0,Bhatpar Rani,Uttar Pradesh,IN
26.25,89.75,Agamoni,Assam,IN
26.25,91.5,Hajo,Assam,IN
26.25,94.25,Sanis,Nagaland,IN
26.25,88.75,Debiganj Upazila,Rangpur Division,BD
26.25,91.75,North Guwahati (Pt),Assam,IN
26.25,88.25,Islampur,West Bengal,IN
26.25,94.0,Golaghat,Assam,IN
26.25,92.0,Mayong,Assam,IN
26.25,95.0,Noklak,Nagaland,IN
26.25,86.75,Kishanpur,Bihar,IN
26.25,86.25,Jhanjharpur,Bihar,IN
26.25,87.75,Bahadurganj,Bihar,IN
26.25,87.5,Araria,Bihar,IN
26.25,86.5,Ghoghardiha,Bihar,IN
26.25,93.5,Silonijan,Assam,IN
26.25,86.0,Keotiranway,Bihar,IN
26.25,93.75,Silonijan,Assam,IN
26.25,89.5,Cooch Behar,West Bengal,IN
26.25,90.5,Boitamari,Assam,IN
26.5,70.0,Sindh,Sindh,PK
26.25,84.5,Barharia,Bihar,IN
26.25,85.5,Bochaha,Bihar,IN
26.5,74.5,Pushkar Tehsil,Rajasthan,IN
26.5,73.5,Bhopalgarh Tehsil,Rajasthan,IN
26.5,71.5,Pokaran Tehsil,Rajasthan,IN
26.5,72.5,Balesar Tehsil,Rajasthan,IN
26.5,76.5,Bamanwas Tehsil,Rajasthan,IN
26.5,78.5,Gormi Tahsil,Madhya Pradesh,IN
26.5,80.5,Unnao,Uttar Pradesh,IN
26.5,77.5,Sarmathura Tehsil,Rajasthan,IN
26.5,82.5,Akbarpur,Uttar Pradesh,IN
26.5,81.5,Tiloi,Uttar Pradesh,IN
26.5,79.5,Auraiya,Uttar Pradesh,IN
26.5,75.5,Phagi Tehsil,Rajasthan,IN
26.5,70.75,Fatehgarh Tehsil,Rajasthan,IN
26.5,74.0,Riyan Badi Tehsil,Rajasthan,IN
26.5,72.75,Tinwari Tehsil,Rajasthan,IN
26.5,74.25,Riyan Badi Tehsil,Rajasthan,IN
26.5,71.75,Bhaniyana Tehsil,Rajasthan,IN
26.5,71.0,Fatehgarh Tehsil,Rajasthan,IN
26.5,72.25,Shergarh Tehsil,Rajasthan,IN
26.5,73.25,Baori Tehsil,Rajasthan,IN
26.5,81.25,Maharajganj,Uttar Pradesh,IN
26.5,80.75,Purwa,Uttar Pradesh,IN
26.5,79.25,Chakarnagar,Uttar Pradesh,IN
26.5,78.25,Gohad Tahsil,Madhya Pradesh,IN
26.5,80.0,Akbarpur,Uttar Pradesh,IN
26.5,81.0,Maharajganj,Uttar Pradesh,IN
26.5,73.0,Tinwari Tehsil,Rajasthan,IN
26.5,82.0,Bikapur,Uttar Pradesh,IN
26.5,82.75,Tanda,Uttar Pradesh,IN
26.5,81.75,Musafirkhana,Uttar Pradesh,IN
26.5,80.25,Kanpur,Uttar Pradesh,IN
26.5,72.0,Bhaniyana Tehsil,Rajasthan,IN
26.5,71.25,Fatehgarh Tehsil,Rajasthan,IN
26.5,78.0,Morena,Madhya Pradesh,IN
26.5,75.25,Malpura Tehsil,Rajasthan,IN
26.5,76.25,Lalsot Tehsil,Rajasthan,IN
26.5,77.0,Karauli Tehsil,Rajasthan,IN
26.5,76.75,Gangapur,Rajasthan,IN
26.5,73.75,Bhopalgarh Tehsil,Rajasthan,IN
26.5,74.75,Ajmer Tehsil,Rajasthan,IN
26.5,76.0,Niwai Tehsil,Rajasthan,IN
26.5,75.75,Phagi Tehsil,Rajasthan,IN
26.5,79.0,Bhind Tahsil,Madhya Pradesh,IN
26.5,77.25,Sarmathura Tehsil,Rajasthan,IN
26.5,77.75,Joura Tahsil,Madhya Pradesh,IN
26.5,78.75,Mehgaon Tahsil,Madhya Pradesh,IN
26.5,79.75,Derapur,Uttar Pradesh,IN
26.5,83.0,Ghanghata,Uttar Pradesh,IN
26.5,75.0,Arain Tehsil,Rajasthan,IN
26.5,82.25,Bikapur,Uttar Pradesh,IN
26.5,83.5,Chauri Chaura,Uttar Pradesh,IN
26.5,84.5,Gopalganj,Bihar,IN
26.5,85.5,Runisaidpur,Bihar,IN
26.5,87.5,Drabesha,,NP
26.5,86.5,Laukaha,Bihar,IN
26.5,88.5,Tetulia,Rangpur Division,BD
26.5,90.5,Sidli (Pt),Assam,IN
26.5,92.5,Dhing,Assam,IN
26.5,94.5,Alongkima,Nagaland,IN
26.5,91.5,Ghograpar (Pt),Assam,IN
26.5,89.5,Alipurduar,West Bengal,IN
26.5,93.5,Silonijan,Assam,IN
26.5,83.25,Khajni,Uttar Pradesh,IN
26.5,83.75,Deoria,Uttar Pradesh,IN
26.5,85.75,Pupri,Bihar,IN
26.5,85.0,Chakia(Pipra),Bihar,IN
26.5,86.0,Basopatti,Bihar,IN
26.5,84.0,Bijaipur,Bihar,IN
26.5,84.75,Sangrampur,Bihar,IN
26.5,85.25,Dumri Katsari,Bihar,IN
26.5,84.25,Kuchaikote,Bihar,IN
26.5,87.75,Baigundhura,,NP
26.5,86.25,Babubarhi,Bihar,IN
26.5,86.75,Itahari Bishnupur,,NP
26.5,89.0,Mekliganj,West Bengal,IN
26.5,88.25,Siliguri Subdivsion,West Bengal,IN
26.5,88.0,Jalthal,,NP
26.5,89.75,Kumargram,West Bengal,IN
26.5,90.75,Bijni (Pt),Assam,IN
26.5,91.25,Bajali (Pt),Assam,IN
26.75,69.75,Jaisalmer Tehsil,Rajasthan,IN
26.5,92.25,Dalgaon (Pt),Assam,IN
26.5,88.75,Jalpaiguri,West Bengal,IN
26.5,94.0,Golaghat,Assam,IN
26.5,89.25,Falakata,West Bengal,IN
26.5,90.0,Gossaigaon (Pt),Assam,IN
26.5,94.75,Longleng,Nagaland,IN
26.5,91.75,Goreswar (Pt),Assam,IN
26.5,87.25,Biratnagar,,NP
26.5,92.75,Rupahi,Assam,IN
26.5,93.25,Phuloni,Assam,IN
26.5,93.0,Kaliabor,Assam,IN
26.75,69.5,Khairpur District,Sindh,PK
26.5,92.0,Mangaldoi (Pt),Assam,IN
26.5,94.25,Changpang,Nagaland,IN
26.5,87.0,Basantpur,Bihar,IN
26.5,95.0,Angjangyang,Nagaland,IN
26.5,93.75,Silonijan,Assam,IN
26.5,90.25,Kokrajhar,Assam,IN
26.5,91.0,Sarupeta (Pt),Assam,IN
26.75,70.0,Jaisalmer Tehsil,Rajasthan,IN
26.75,70.5,Jaisalmer Tehsil,Rajasthan,IN
26.75,70.25,Jaisalmer Tehsil,Rajasthan,IN
26.75,71.5,Pokaran Tehsil,Rajasthan,IN
26.75,72.0,Bhaniyana Tehsil,Rajasthan,IN
26.75,72.25,Dechoo Tehsil,Rajasthan,IN
26.75,70.75,Jaisalmer Tehsil,Rajasthan,IN
26.75,73.25,Baori Tehsil,Rajasthan,IN
26.75,71.75,Pokaran Tehsil,Rajasthan,IN
26.75,72.5,Balesar Tehsil,Rajasthan,IN
26.75,71.25,Fatehgarh Tehsil,Rajasthan,IN
26.75,73.0,Osian Tehsil,Rajasthan,IN
26.75,71.0,Fatehgarh Tehsil,Rajasthan,IN
26.75,72.75,Osian Tehsil,Rajasthan,IN
26.75,74.25,Degana Tehsil,Rajasthan,IN
26.75,73.75,Merta Tehsil,Rajasthan,IN
26.75,76.25,Lawan Tehsil,Rajasthan,IN
26.75,80.0,Bilhaur,Uttar Pradesh,IN
26.75,78.75,Ater Tahsil,Madhya Pradesh,IN
26.75,80.75,Sarojani Nagar,Uttar Pradesh,IN
26.75,79.0,Etawah,Uttar Pradesh,IN
26.75,81.0,Mohanlalganj,Uttar Pradesh,IN
26.75,77.25,Karauli Tehsil,Rajasthan,IN
26.75,77.5,Baseri Tehsil,Rajasthan,IN
26.75,74.0,Merta Tehsil,Rajasthan,IN
26.75,74.75,Kishangarh Tehsil,Rajasthan,IN
26.75,76.5,Nadoti Tehsil,Rajasthan,IN
26.75,75.5,Phagi Tehsil,Rajasthan,IN
26.75,73.5,Bhopalgarh Tehsil,Rajasthan,IN
26.75,76.75,Nadoti Tehsil,Rajasthan,IN
26.75,82.75,Basti,Uttar Pradesh,IN
26.75,81.75,Rudauli,Uttar Pradesh,IN
26.75,75.0,Kishangarh Tehsil,Rajasthan,IN
26.75,81.5,Ramsanehighat,Uttar Pradesh,IN
26.75,82.5,Harraiya,Uttar Pradesh,IN
26.75,78.0,Rajakhera Tehsil,Rajasthan,IN
26.75,78.5,Porsa Tahsil,Madhya Pradesh,IN
26.75,83.0,Khalilabad,Uttar Pradesh,IN
26.75,78.25,Porsa Tahsil,Madhya Pradesh,IN
26.75,80.25,Safipur,Uttar Pradesh,IN
26.75,79.5,Bidhuna,Uttar Pradesh,IN
26.75,77.75,Bari Tehsil,Rajasthan,IN
26.75,81.25,Haidergarh,Uttar Pradesh,IN
26.75,82.0,Sohawal,Uttar Pradesh,IN
26.75,82.25,Nav Ayodhya,Uttar Pradesh,IN
26.75,75.25,Phulera Tehsil,Rajasthan,IN
26.75,76.0,Bassi Tehsil,Rajasthan,IN
26.75,80.5,Hasanganj,Uttar Pradesh,IN
26.75,77.0,Hindaun Tehsil,Rajasthan,IN
26.75,75.75,Sanganer Tehsil,Rajasthan,IN
26.75,74.5,Degana Tehsil,Rajasthan,IN
26.75,79.25,Bharthana,Uttar Pradesh,IN
26.75,79.75,Rasulabad,Uttar Pradesh,IN
26.75,89.75,Tsham-Zhi-Gosa,Dagana District,BT
26.75,88.75,Mal,West Bengal,IN
26.75,91.5,Tamulpur,Assam,IN
26.75,90.25,Kokrajhar,Assam,IN
26.75,93.75,Bokakhat,Assam,IN
26.75,91.75,Harisinga tehsil,Assam,IN
26.75,91.0,Barnagar,Assam,IN
26.75,83.5,Gorakhpur,Uttar Pradesh,IN
26.75,85.0,Motihari,Bihar,IN
26.75,86.0,Hansapur Kathpula,,NP
26.75,88.25,Naxalbari block,West Bengal,IN
26.75,86.25,Barchhawa,,NP
26.75,92.5,Dhekiajuli (Pt),Assam,IN
26.75,94.25,Jorhat,Assam,IN
26.75,91.25,Jalah (Pt),Assam,IN
26.75,94.0,Dergaon,Assam,IN
26.75,85.25,Dhaka,Bihar,IN
26.75,92.0,Harisinga tehsil,Assam,IN
26.75,88.0,Khudunabari,,NP
26.75,85.5,Bathnaha,Bihar,IN
26.75,84.0,Kushinagar,Uttar Pradesh,IN
26.75,95.0,Mon Sadar,Nagaland,IN
26.75,85.75,Sonaul,,NP
26.75,88.5,Rajganj,West Bengal,IN
26.75,93.0,Na-Duar,Assam,IN
26.75,93.5,Bokakhat,Assam,IN
27.0,69.5,Khairpur District,Sindh,PK
26.75,86.5,Lahan,,NP
26.75,84.25,Thakrahan,Bihar,IN
26.75,83.25,Sahjanwa,Uttar Pradesh,IN
26.75,84.5,Nautan,Bihar,IN
26.75,93.25,Biswanath,Assam,IN
26.75,89.0,Dhupguri,West Bengal,IN
26.75,87.0,Tapeswori,,NP
26.75,83.75,Kushinagar,Uttar Pradesh,IN
26.75,89.5,Alipurduar - I,West Bengal,IN
26.75,90.75,Bijni (Pt),Assam,IN
26.75,90.0,Damchhunang,Dagana District,BT
27.0,70.0,Jaisalmer Tehsil,Rajasthan,IN
27.0,70.5,Jaisalmer Tehsil,Rajasthan,IN
26.75,89.25,Madarihat,West Bengal,IN
26.75,92.25,Mazbat tehsil,Assam,IN
27.0,69.75,Jaisalmer Tehsil,Rajasthan,IN
26.75,94.75,Namsang,Nagaland,IN
26.75,94.5,Teok,Assam,IN
27.0,70.25,Jaisalmer Tehsil,Rajasthan,IN
26.75,92.75,Chariduar,Assam,IN
26.75,90.5,Bengtol,Assam,IN
26.75,95.25,Pangchao SDO,Arunachal Pradesh,IN
26.75,84.75,Sugauli,Bihar,IN
27.0,75.5,Phulera Tehsil,Rajasthan,IN
27.0,76.25,Dausa Tehsil,Rajasthan,IN
27.0,79.25,Bhogaon,Uttar Pradesh,IN
27.0,76.0,Jamwa Ramgarh Tehsil,Rajasthan,IN
27.0,77.0,Mahwa Tehsil,Rajasthan,IN
27.0,75.25,Phulera Tehsil,Rajasthan,IN
27.0,73.5,Mundwa Tehsil,Rajasthan,IN
27.0,82.5,Mankapur,Uttar Pradesh,IN
27.0,78.75,Shikohabad,Uttar Pradesh,IN
27.0,75.75,Jaipur Municipal Corporation,Rajasthan,IN
27.0,72.75,Lohawat Tehsil,Rajasthan,IN
27.0,70.75,Jaisalmer Tehsil,Rajasthan,IN
27.0,74.5,Makrana Tehsil,Rajasthan,IN
27.0,80.0,Bilgram,Uttar Pradesh,IN
27.0,71.25,Jaisalmer Tehsil,Rajasthan,IN
27.0,74.75,Parbatsar Tehsil,Rajasthan,IN
27.0,74.25,Degana Tehsil,Rajasthan,IN
27.0,77.5,Rupbas Tehsil,Rajasthan,IN
27.0,79.5,Chhibramau,Uttar Pradesh,IN
27.0,71.5,Pokaran Tehsil,Rajasthan,IN
27.0,71.0,Jaisalmer Tehsil,Rajasthan,IN
27.0,73.25,Kheenvsar Tehsil,Rajasthan,IN
27.0,81.5,Sirauli Gauspur,Uttar Pradesh,IN
27.0,82.0,Tarabganj,Uttar Pradesh,IN
27.0,78.0,Kheragarh,Uttar Pradesh,IN
27.0,73.0,Osian Tehsil,Rajasthan,IN
27.0,75.0,Nawa Tehsil,Rajasthan,IN
27.0,79.0,Karhal,Uttar Pradesh,IN
27.0,79.75,Kannauj,Uttar Pradesh,IN
27.0,76.5,Baswa Tehsil,Rajasthan,IN
27.0,78.5,Shikohabad,Uttar Pradesh,IN
27.0,72.25,Phalodi Tehsil,Rajasthan,IN
27.0,74.0,Mundwa Tehsil,Rajasthan,IN
27.0,72.0,Pokaran Tehsil,Rajasthan,IN
27.0,82.25,Mankapur,Uttar Pradesh,IN
27.0,81.75,Colonelganj,Uttar Pradesh,IN
27.0,71.75,Pokaran Tehsil,Rajasthan,IN
27.0,80.5,Sandila,Uttar Pradesh,IN
27.0,77.75,Rupbas Tehsil,Rajasthan,IN
27.0,81.25,Barabanki,Uttar Pradesh,IN
27.0,83.0,Mehdawal,Uttar Pradesh,IN
27.0,80.25,Safipur,Uttar Pradesh,IN
27.0,77.25,Bayana Tehsil,Rajasthan,IN
27.0,80.75,Sarojani Nagar,Uttar Pradesh,IN
27.0,78.25,Fatehabad,Uttar Pradesh,IN
27.0,82.75,Rudhauli,Uttar Pradesh,IN
27.0,76.75,Baswa Tehsil,Rajasthan,IN
27.0,81.0,Fatehpur,Uttar Pradesh,IN
27.0,73.75,Mundwa Tehsil,Rajasthan,IN
27.0,72.5,Lohawat Tehsil,Rajasthan,IN
27.0,83.5,Maharajganj,Uttar Pradesh,IN
27.0,83.25,Campierganj,Uttar Pradesh,IN
27.0,91.0,Dali,Zhemgang District,BT
27.0,92.5,Bhalukpong EAC,Arunachal Pradesh,IN
27.0,91.75,Chhoedoong_Kakani,Samdrup Jongkhar District,BT
27.0,93.75,Narayanpur,Assam,IN
27.0,91.5,Rimoong,Samdrup Jongkhar District,BT
27.0,88.5,Kalimpong -I,West Bengal,IN
27.0,95.5,Khonsa HQ,Arunachal Pradesh,IN
27.0,88.75,Gorubathan,West Bengal,IN
27.0,93.0,Seijosa,Arunachal Pradesh,IN
27.0,93.5,Balijan ADC,Arunachal Pradesh,IN
27.0,91.25,Serduwa,Pemagatshel District,BT
27.0,90.75,Pongchola Tadijong,Zhemgang District,BT
27.0,92.25,Shergaon Circle,Arunachal Pradesh,IN
27.0,94.0,Bihpuria,Assam,IN
27.0,94.75,Dimow,Assam,IN
27.0,85.0,Kalaiya,,NP
27.0,90.0,Pangna Patala,Dagana District,BT
27.0,84.25,Bagaha,Bihar,IN
27.25,70.75,Jaisalmer Tehsil,Rajasthan,IN
27.0,89.25,Gawaling Karzhing,Samtse District,BT
27.0,92.0,Khandophoog_Minjiwoong,Samdrup Jongkhar District,BT
27.0,83.75,Maharajganj,Uttar Pradesh,IN
27.0,92.75,Chariduar,Assam,IN
27.0,84.0,Kushinagar,Uttar Pradesh,IN
27.0,89.5,Dagoa Sorchen,Chukha,BT
27.0,85.25,Birtiprastoka,,NP
27.0,93.25,Pakke Kessang,Arunachal Pradesh,IN
27.0,95.25,Kanubari ADC,Arunachal Pradesh,IN
27.0,95.0,Sonari,Assam,IN
27.0,84.75,Sikta,Bihar,IN
27.25,69.75,Jaisalmer Tehsil,Rajasthan,IN
27.0,88.25,Jorebunglow Sukiapokhri,West Bengal,IN
27.25,70.25,Jaisalmer Tehsil,Rajasthan,IN
27.0,89.0,Dephellingtoed Namseling,Samtse District,BT
27.0,94.5,Sibsagar,Assam,IN
27.25,70.0,Jaisalmer Tehsil,Rajasthan,IN
27.0,84.5,Lauriya,Bihar,IN
27.25,70.5,Jaisalmer Tehsil,Rajasthan,IN
27.0,95.75,Khimiyang EAC,Arunachal Pradesh,IN
27.25,69.5,Sindh,Sindh,PK
27.0,85.5,Janaki Nagar,,NP
27.0,90.25,Maenchhulam,Sarpang District,BT
27.0,88.0,Pyang,,NP
27.0,94.25,Majuli,Assam,IN
27.0,90.5,Chhoetenkhar,Sarpang District,BT
27.25,71.0,Jaisalmer Tehsil,Rajasthan,IN
27.25,71.5,Jaisalmer Tehsil,Rajasthan,IN
27.25,71.25,Jaisalmer Tehsil,Rajasthan,IN
27.25,72.25,Bap Tehsil,Rajasthan,IN
27.25,74.0,Jayal Tehsil,Rajasthan,IN
27.25,78.5,Jasrana,Uttar Pradesh,IN
27.25,75.0,Nawa Tehsil,Rajasthan,IN
27.25,78.0,Agra,Uttar Pradesh,IN
27.25,73.75,Nagaur,Rajasthan,IN
27.25,76.0,Amber Tehsil,Rajasthan,IN
27.25,76.75,Reni Tehsil,Rajasthan,IN
27.25,73.5,Nagaur Tehsil,Rajasthan,IN
27.25,79.0,Mainpuri,Uttar Pradesh,IN
27.25,73.25,Kheenvsar Tehsil,Rajasthan,IN
27.25,80.5,Sandila,Uttar Pradesh,IN
27.25,77.25,Nadbai Tehsil,Rajasthan,IN
27.25,73.0,Bapini Tehsil,Rajasthan,IN
27.25,74.5,Didwana Tehsil,Rajasthan,IN
27.25,71.75,Pokaran Tehsil,Rajasthan,IN
27.25,81.25,Fatehpur,Uttar Pradesh,IN
27.25,80.0,Bilgram,Uttar Pradesh,IN
27.25,79.5,Farrukhabad,Uttar Pradesh,IN
27.25,76.5,Rajgarh Tehsil,Rajasthan,IN
27.25,83.25,Pharenda,Uttar Pradesh,IN
27.25,80.25,Hardoi,Uttar Pradesh,IN
27.25,79.25,Bhogaon,Uttar Pradesh,IN
27.25,80.75,Sidhauli,Uttar Pradesh,IN
27.25,81.5,Kaiserganj,Uttar Pradesh,IN
27.25,72.5,Phalodi Tehsil,Rajasthan,IN
27.25,74.75,Maulasar Tehsil,Rajasthan,IN
27.25,76.25,Thanagazi Tehsil,Rajasthan,IN
27.25,77.75,Mathura,Uttar Pradesh,IN
27.25,83.5,Maharajganj,Uttar Pradesh,IN
27.25,75.5,Chomu Tehsil,Rajasthan,IN
27.25,75.25,Danta Ramgarh Tehsil,Rajasthan,IN
27.25,75.75,Chomu Tehsil,Rajasthan,IN
27.25,74.25,Jayal Tehsil,Rajasthan,IN
27.25,72.0,Bap Tehsil,Rajasthan,IN
27.25,83.0,Naugarh,Uttar Pradesh,IN
27.25,82.25,Gonda,Uttar Pradesh,IN
27.25,81.75,Colonelganj,Uttar Pradesh,IN
27.25,77.0,Kathumar Tehsil,Rajasthan,IN
27.25,77.5,Bharatpur,Rajasthan,IN
27.25,82.5,Utraula,Uttar Pradesh,IN
27.25,78.25,Tundla,Uttar Pradesh,IN
27.25,72.75,Phalodi Tehsil,Rajasthan,IN
27.25,78.75,Mainpuri,Uttar Pradesh,IN
27.25,82.0,Gonda,Uttar Pradesh,IN
27.25,79.75,Sawayajpur,Uttar Pradesh,IN
27.25,81.0,Mahmudabad,Uttar Pradesh,IN
27.25,82.75,Itwa,Uttar Pradesh,IN
27.25,83.75,Nichlaul,Uttar Pradesh,IN
27.25,84.0,Sidhaw,Bihar,IN
27.5,69.5,Pano Akil Cantonment,Sindh,PK
27.5,71.5,Pokaran Tehsil,Rajasthan,IN
27.5,70.5,Jaisalmer Tehsil,Rajasthan,IN
27.5,74.5,Ladnu Tehsil,Rajasthan,IN
27.5,73.5,Nokha Tehsil,Rajasthan,IN
27.5,72.5,Bap Tehsil,Rajasthan,IN
27.25,93.25,Leporiang Circle,Arunachal Pradesh,IN
27.25,88.0,Chyangthapu,,NP
27.25,94.25,Kadam,Assam,IN
27.5,71.75,Pokaran Tehsil,Rajasthan,IN
27.5,71.25,Jaisalmer Tehsil,Rajasthan,IN
27.25,84.75,Parsa Wildlife Reserve,,NP
27.5,72.0,Bap Tehsil,Rajasthan,IN
27.25,92.25,Dirang ADC,Arunachal Pradesh,IN
27.25,93.5,Sagalee ADC,Arunachal Pradesh,IN
27.5,72.25,Kolayat Tehsil,Rajasthan,IN
27.25,84.5,Gaunaha,Bihar,IN
27.25,84.25,Ramnagar,Bihar,IN
27.5,70.0,Jaisalmer Tehsil,Rajasthan,IN
27.25,95.5,Margherita,Assam,IN
27.25,88.25,Gyalshing,Sikkim,IN
27.5,71.0,Jaisalmer Tehsil,Rajasthan,IN
27.25,96.75,Nanyun Township,Sagaing,MM
27.5,73.0,Nokha Tehsil,Rajasthan,IN
27.5,70.25,Jaisalmer Tehsil,Rajasthan,IN
27.25,88.5,Gangtok,Sikkim,IN
27.5,70.75,Jaisalmer Tehsil,Rajasthan,IN
27.5,75.0,Badalwas city,Rajasthan,IN
27.5,72.75,Bap Tehsil,Rajasthan,IN
27.5,69.75,Sindh,Sindh,PK
27.5,74.0,Jayal Tehsil,Rajasthan,IN
27.25,97.0,Vijoynagar EAC,Arunachal Pradesh,IN
27.5,75.25,Danta Ramgarh Tehsil,Rajasthan,IN
27.5,74.75,Didwana Tehsil,Rajasthan,IN
27.25,95.0,Tingkhong,Assam,IN
27.25,93.0,Seppa,Arunachal Pradesh,IN
27.5,74.25,Ladnu Tehsil,Rajasthan,IN
27.25,95.25,Naharkatiya,Assam,IN
27.25,88.75,Rongli subdivision,Sikkim,IN
27.25,92.5,Singchung ADC,Arunachal Pradesh,IN
27.25,94.5,Dhakuakhana (Pt-I),Assam,IN
27.25,94.0,Naobaicha,Assam,IN
27.25,92.0,Khiliphoo,Trashigang District,BT
27.25,94.75,Dibrugarh West,Assam,IN
27.25,96.0,Manmao EAC,Arunachal Pradesh,IN
27.25,92.75,Thrizino ADC,Arunachal Pradesh,IN
27.5,73.25,Nokha Tehsil,Rajasthan,IN
27.25,95.75,Namtok EAC,Arunachal Pradesh,IN
27.25,93.75,Toru Circle,Arunachal Pradesh,IN
27.5,73.75,Nagaur Tehsil,Rajasthan,IN
27.5,76.5,Alwar Tehsil,Rajasthan,IN
27.5,75.5,Khandela Tehsil,Rajasthan,IN
27.5,76.0,Shahpura Tehsil,Rajasthan,IN
27.5,75.75,Sri Madhopur Tehsil,Rajasthan,IN
27.5,76.25,Thanagazi Tehsil,Rajasthan,IN
27.5,76.75,Ramgarh Tehsil,Rajasthan,IN
27.5,82.5,Tulsipur,Uttar Pradesh,IN
27.5,78.5,Etah,Uttar Pradesh,IN
27.5,79.5,Kaimganj,Uttar Pradesh,IN
27.5,77.5,Mathura,Uttar Pradesh,IN
27.5,80.5,Misrikh,Uttar Pradesh,IN
27.5,88.5,Mangan,Sikkim,IN
27.5,81.5,Mahasi,Uttar Pradesh,IN
27.5,92.5,Nafra EAC,Arunachal Pradesh,IN
27.5,93.5,Mengio EAC,Arunachal Pradesh,IN
27.5,83.5,Bagaha,,NP
27.5,84.5,Chitwan,,NP
27.5,83.75,Jahada,,NP
27.5,88.0,Yamfudin,,NP
27.5,91.75,Bongkhar Circle,Arunachal Pradesh,IN
27.5,78.75,Etah,Uttar Pradesh,IN
27.5,77.0,Govindgarh Tehsil,Rajasthan,IN
27.5,93.0,Bameng ADC,Arunachal Pradesh,IN
27.5,78.0,Hathras,Uttar Pradesh,IN
27.5,77.25,Deeg Tehsil,Rajasthan,IN
27.5,88.75,Mangan,Sikkim,IN
27.5,82.0,Ikauna,Uttar Pradesh,IN
27.5,81.0,Biswan,Uttar Pradesh,IN
27.5,80.0,Hardoi,Uttar Pradesh,IN
27.5,77.75,Mahavan,Uttar Pradesh,IN
27.5,81.75,Bahraich,Uttar Pradesh,IN
27.5,79.25,Aliganj,Uttar Pradesh,IN
27.5,82.25,Tulsipur,Uttar Pradesh,IN
27.5,93.75,Yachuli ADC,Arunachal Pradesh,IN
27.5,80.75,Sitapur,Uttar Pradesh,IN
27.5,92.25,Dirang ADC,Arunachal Pradesh,IN
27.5,84.0,Chitwan,,NP
27.5,83.0,Singkhor,,NP
27.5,92.0,Jang ADC,Arunachal Pradesh,IN
27.5,92.75,Lada Circle,Arunachal Pradesh,IN
27.5,79.75,Sawayajpur,Uttar Pradesh,IN
27.5,93.25,Gyawe Purang Circle,Arunachal Pradesh,IN
27.5,80.25,Hardoi,Uttar Pradesh,IN
27.5,81.25,Biswan,Uttar Pradesh,IN
27.5,79.0,Aliganj,Uttar Pradesh,IN
27.5,88.25,Gyalshing,Sikkim,IN
27.5,82.75,Shohratgarh,Uttar Pradesh,IN
27.5,78.25,Jalesar,Uttar Pradesh,IN
27.5,83.25,Lumbini Cultural,,NP
27.5,94.0,Dollungmukh Circle,Arunachal Pradesh,IN
27.5,94.25,Kadam,Assam,IN
27.5,84.25,Chitwan,,NP
27.5,94.5,Dhemaji,Assam,IN
27.5,96.5,Miao ADC,Arunachal Pradesh,IN
27.5,95.5,Tinsukia,Assam,IN
27.5,95.25,Tinsukia,Assam,IN
27.75,70.0,Sindh,Sindh,PK
27.75,70.75,Liaqat Pur Tehsil,Punjab,PK
27.75,78.0,Iglas,Uttar Pradesh,IN
27.75,74.5,Sujangarh Tehsil,Rajasthan,IN
27.75,75.5,Udaipurwati Tehsil,Rajasthan,IN
27.75,73.5,Nokha Tehsil,Rajasthan,IN
27.75,75.25,Sikar Tehsil,Rajasthan,IN
27.75,72.25,Kolayat Tehsil,Rajasthan,IN
27.75,72.75,Kolayat Tehsil,Rajasthan,IN
27.75,78.5,Kasganj,Uttar Pradesh,IN
27.75,72.0,Pokaran Tehsil,Rajasthan,IN
27.75,71.75,Pokaran Tehsil,Rajasthan,IN
27.5,96.75,Miao ADC,Arunachal Pradesh,IN
27.75,79.5,Jalalabad,Uttar Pradesh,IN
27.5,95.75,Margherita,Assam,IN
27.75,73.25,Nokha Tehsil,Rajasthan,IN
27.5,95.0,Dibrugarh,Assam,IN
27.75,71.25,Jaisalmer Tehsil,Rajasthan,IN
27.75,73.0,Kolayat Tehsil,Rajasthan,IN
27.75,70.25,Jaisalmer Tehsil,Rajasthan,IN
27.75,78.25,Koil,Uttar Pradesh,IN
27.5,97.0,Putao Township,Kachin,MM
27.75,71.0,Liaqat Pur Tehsil,Punjab,PK
27.75,76.0,Patan Tehsil,Rajasthan,IN
27.5,96.25,Miao ADC,Arunachal Pradesh,IN
27.75,77.25,Kaman Tehsil,Rajasthan,IN
27.75,77.75,Mat,Uttar Pradesh,IN
27.75,71.5,Pokaran Tehsil,Rajasthan,IN
27.5,96.0,Bordumsa ADC,Arunachal Pradesh,IN
27.75,70.5,Jaisalmer Tehsil,Rajasthan,IN
27.75,79.25,Dataganj,Uttar Pradesh,IN
27.5,94.75,Sissibargaon,Assam,IN
27.75,73.75,Nokha Tehsil,Rajasthan,IN
27.75,75.75,Neem Ka Thana Tehsil,Rajasthan,IN
27.75,76.75,Kishangarh Bas Tehsil,Rajasthan,IN
27.75,72.5,Kolayat Tehsil,Rajasthan,IN
27.75,77.5,Chhata,Uttar Pradesh,IN
27.75,78.75,Sahawar,Uttar Pradesh,IN
27.75,76.5,Bansur Tehsil,Rajasthan,IN
27.75,74.75,Lachhmangarh Tehsil,Rajasthan,IN
27.75,77.0,Ferozepur Jhirka,Haryana,IN
27.75,74.25,Bidasar Tehsil,Rajasthan,IN
27.75,76.25,Bansur Tehsil,Rajasthan,IN
27.75,75.0,Lachhmangarh Tehsil,Rajasthan,IN
27.75,74.0,Bidasar Tehsil,Rajasthan,IN
27.75,79.0,Patiyali,Uttar Pradesh,IN
27.75,80.0,Shahjahanpur,Uttar Pradesh,IN
27.75,80.25,Shahabad,Uttar Pradesh,IN
27.75,79.75,Shahjahanpur,Uttar Pradesh,IN
27.75,96.5,Wakro Circle,Arunachal Pradesh,IN
27.75,88.5,Chungthang,Sikkim,IN
27.75,95.5,Doom Dooma,Assam,IN
28.0,70.0,Sadiqabad Tehsil,Punjab,PK
27.75,92.75,Sawa Circle,Arunachal Pradesh,IN
27.75,94.25,Raga ADC,Arunachal Pradesh,IN
27.75,96.25,Chongkham EAC,Arunachal Pradesh,IN
27.75,81.5,Nanpara,Uttar Pradesh,IN
28.0,70.5,Jaisalmer Tehsil,Rajasthan,IN
28.0,71.5,Yazman Tehsil,Punjab,PK
27.75,92.0,Thingbu Circle,Arunachal Pradesh,IN
27.75,97.0,Hawai HQ,Arunachal Pradesh,IN
27.75,94.75,Likabali SDO,Arunachal Pradesh,IN
27.75,81.0,Laharpur,Uttar Pradesh,IN
27.75,80.75,Sitapur,Uttar Pradesh,IN
27.75,93.25,Phassang,Arunachal Pradesh,IN
27.75,82.0,Bhinga,Uttar Pradesh,IN
28.0,72.5,Kolayat Tehsil,Rajasthan,IN
27.75,93.75,Palin,Arunachal Pradesh,IN
27.75,94.5,Gensi EAC,Arunachal Pradesh,IN
27.75,96.75,Hawai,Arunachal Pradesh,IN
27.75,92.25,Thingbu Circle,Arunachal Pradesh,IN
28.0,72.25,Kolayat Tehsil,Rajasthan,IN
27.75,95.25,Jonai,Assam,IN
27.75,91.5,Pangkhar Taphel,Trashiyangtse District,BT
27.75,95.75,Sadiya,Assam,IN
27.75,95.0,Jonai,Assam,IN
28.0,71.25,Yazman Tehsil,Punjab,PK
28.0,70.25,Rahim Yar Khan Tehsil,Punjab,PK
27.75,88.0,Lelep,,NP
28.0,71.75,Yazman Tehsil,Punjab,PK
28.0,72.0,Kolayat Tehsil,Rajasthan,IN
28.0,71.0,Liaqat Pur Tehsil,Punjab,PK
27.75,96.0,Chongkham EAC,Arunachal Pradesh,IN
27.75,82.75,Gugauli,,NP
27.75,93.0,Sawa Circle,Arunachal Pradesh,IN
27.75,81.75,Bhinga,Uttar Pradesh,IN
27.75,88.25,Chungthang,Sikkim,IN
27.75,88.75,Chungthang,Sikkim,IN
27.75,94.0,Kamporijo Circle,Arunachal Pradesh,IN
27.75,82.25,Balrampur,Uttar Pradesh,IN
27.75,82.5,Gadhawa,,NP
27.75,80.5,Misrikh,Uttar Pradesh,IN
27.75,91.75,Zemithang Circle,Arunachal Pradesh,IN
27.75,92.5,Nafra EAC,Arunachal Pradesh,IN
27.75,93.5,Sangram SDO,Arunachal Pradesh,IN
27.75,81.25,Dhaurahara,Uttar Pradesh,IN
28.0,75.75,Khetri Tehsil,Rajasthan,IN
28.0,77.0,Nuh,Haryana,IN
28.0,80.75,Lakhimpur,Uttar Pradesh,IN
28.0,78.5,Atrauli,Uttar Pradesh,IN
28.0,82.25,Satbariya,,NP
28.0,72.75,Kolayat Tehsil,Rajasthan,IN
28.0,79.75,Tilhar,Uttar Pradesh,IN
28.0,91.5,Khachu,Tibet,CN
28.0,80.0,Powayan,Uttar Pradesh,IN
28.0,79.25,Budaun,Uttar Pradesh,IN
28.0,91.75,Tsona City,Tibet,CN
28.0,81.75,Phatepur,,NP
28.0,92.25,Khartak,Tibet,CN
28.0,75.0,Fatehpur Tehsil,Rajasthan,IN
28.0,79.5,Tilhar,Uttar Pradesh,IN
28.0,73.5,Bikaner Tehsil,Rajasthan,IN
28.0,74.0,Sri Dungargarh Tehsil,Rajasthan,IN
28.0,76.5,Mandawar Tehsil,Rajasthan,IN
28.0,79.0,Budaun,Uttar Pradesh,IN
28.0,78.25,Atrauli,Uttar Pradesh,IN
28.0,78.75,Sahaswan,Uttar Pradesh,IN
28.0,73.75,Sri Dungargarh Tehsil,Rajasthan,IN
28.0,73.0,Kolayat Tehsil,Rajasthan,IN
28.0,82.0,Khaskusma,,NP
28.0,77.25,Hathin,Haryana,IN
28.0,74.25,Ratangarh Tehsil,Rajasthan,IN
28.0,76.25,Behror Tehsil,Rajasthan,IN
28.0,80.5,Lakhimpur,Uttar Pradesh,IN
28.0,77.5,Hassanpur,Haryana,IN
28.0,88.5,Chungthang,Sikkim,IN
28.0,81.0,Dhaurahara,Uttar Pradesh,IN
28.0,88.75,Chungthang,Sikkim,IN
28.0,88.0,Kyungzê,Tibet,CN
28.0,81.25,Nanpara,Uttar Pradesh,IN
28.0,92.5,Tsona City,Tibet,CN
28.0,80.25,Mohammdi,Uttar Pradesh,IN
28.0,92.75,Sarli Circle,Arunachal Pradesh,IN
28.0,77.75,Khair,Uttar Pradesh,IN
28.0,81.5,Nanpara,Uttar Pradesh,IN
28.0,88.25,Kampa County,Tibet,CN
28.0,76.0,Narnaul,Haryana,IN
28.0,92.0,Tsona Township,Tibet,CN
28.0,93.0,Sarli Circle,Arunachal Pradesh,IN
28.0,74.75,Ratangarh Tehsil,Rajasthan,IN
28.0,76.75,Kotkasim Tehsil,Rajasthan,IN
28.0,78.0,Gabhana,Uttar Pradesh,IN
28.0,74.5,Ratangarh Tehsil,Rajasthan,IN
28.0,75.25,Nawalgarh Tehsil,Rajasthan,IN
28.0,73.25,Bikaner,Rajasthan,IN
28.0,75.5,Udaipurwati Tehsil,Rajasthan,IN
28.25,72.25,Kolayat Tehsil,Rajasthan,IN
28.25,72.5,Kolayat Tehsil,Rajasthan,IN
28.0,94.75,Basar ADC,Arunachal Pradesh,IN
28.0,94.0,Chetam Peer Yapu Circle,Arunachal Pradesh,IN
28.0,95.5,Namsing Circle,Arunachal Pradesh,IN
28.0,96.5,Hayuliang Circle,Arunachal Pradesh,IN
28.0,97.25,Hawai HQ,Arunachal Pradesh,IN
28.0,94.25,Dumporijo ADC,Arunachal Pradesh,IN
28.25,73.25,Bikaner Tehsil,Rajasthan,IN
28.25,71.75,Yazman Tehsil,Punjab,PK
28.25,75.25,Malesar Tehsil,Rajasthan,IN
28.0,95.75,Roing HQ,Arunachal Pradesh,IN
28.25,74.0,Sri Dungargarh Tehsil,Rajasthan,IN
28.25,73.75,Sri Dungargarh Tehsil,Rajasthan,IN
28.0,96.0,Koronu Circle,Arunachal Pradesh,IN
28.0,96.25,Tezu HQ,Arunachal Pradesh,IN
28.25,75.5,Chirawa Tehsil,Rajasthan,IN
28.25,76.75,Gurugram,Haryana,IN
28.0,93.5,Parsi-Parlo,Arunachal Pradesh,IN
28.25,74.25,Sardarshahar Tehsil,Rajasthan,IN
28.25,72.0,Yazman Tehsil,Punjab,PK
28.25,72.75,Kolayat Tehsil,Rajasthan,IN
28.0,96.75,Manchal Circle,Arunachal Pradesh,IN
28.25,74.5,Sardarshahar Tehsil,Rajasthan,IN
28.0,93.25,Sarli Circle,Arunachal Pradesh,IN
28.25,77.75,Khurja,Uttar Pradesh,IN
28.25,73.0,Poogal Tehsil,Rajasthan,IN
28.0,95.0,Koyu EAC,Arunachal Pradesh,IN
28.25,76.25,Mahendragarh,Haryana,IN
28.25,75.0,Churu,Rajasthan,IN
28.0,93.75,Tali ADC,Arunachal Pradesh,IN
28.25,76.5,Rewari,Haryana,IN
28.25,74.75,Churu Tehsil,Rajasthan,IN
28.0,94.5,Maro Circle,Arunachal Pradesh,IN
28.25,79.0,Bisauli,Uttar Pradesh,IN
28.0,97.0,Walong,Arunachal Pradesh,IN
28.25,77.0,Taoru,Haryana,IN
28.25,78.5,Gunnaur,Uttar Pradesh,IN
28.25,75.75,Surajgarh Tehsil,Rajasthan,IN
28.25,79.5,Faridpur,Uttar Pradesh,IN
28.25,77.5,Ballabgarh,Haryana,IN
28.25,78.25,Debai,Uttar Pradesh,IN
28.25,76.0,Buhana Tehsil,Rajasthan,IN
28.0,95.25,Bilat Circle,Arunachal Pradesh,IN
28.25,79.25,Aonla,Uttar Pradesh,IN
28.25,77.25,Palwal,Haryana,IN
28.25,78.0,Shikarpur,Uttar Pradesh,IN
28.25,79.75,Bisalpur,Uttar Pradesh,IN
28.25,78.75,Bisauli,Uttar Pradesh,IN
28.25,73.5,Bikaner Tehsil,Rajasthan,IN
28.5,73.5,Lunkaransar Tehsil,Rajasthan,IN
28.5,72.5,Khajuwala Tehsil,Rajasthan,IN
28.5,74.5,Sardarshahar Tehsil,Rajasthan,IN
28.5,75.5,Rajgarh Tehsil,Rajasthan,IN
28.5,76.5,Matenhail,Haryana,IN
28.5,72.75,Poogal Tehsil,Rajasthan,IN
28.25,93.5,Pipsorang Circle,Arunachal Pradesh,IN
28.25,96.75,Goiliang Circle,Arunachal Pradesh,IN
28.25,80.25,Powayan,Uttar Pradesh,IN
28.25,80.0,Powayan,Uttar Pradesh,IN
28.25,97.25,Kibithoo Circle,Arunachal Pradesh,IN
28.25,81.0,Nighasan,Uttar Pradesh,IN
28.5,73.75,Lunkaransar Tehsil,Rajasthan,IN
28.25,95.5,Mebo ADC,Arunachal Pradesh,IN
28.25,94.75,Kamba ADC,Arunachal Pradesh,IN
28.5,75.0,Churu Tehsil,Rajasthan,IN
28.25,80.75,Nighasan,Uttar Pradesh,IN
28.25,80.5,Gola Gokaran Nath,Uttar Pradesh,IN
28.5,75.75,Loharu,Haryana,IN
28.25,88.5,Kampa County,Tibet,CN
28.5,74.0,Lunkaransar Tehsil,Rajasthan,IN
28.5,75.25,Taranagar Tehsil,Rajasthan,IN
28.25,88.75,Kampa County,Tibet,CN
28.5,73.25,Chhatargarh Tehsil,Rajasthan,IN
28.25,97.0,Kibithoo Circle,Arunachal Pradesh,IN
28.25,81.25,Nanpara,Uttar Pradesh,IN
28.25,96.5,Metengliang Circle,Arunachal Pradesh,IN
28.25,95.75,Roing HQ,Arunachal Pradesh,IN
28.25,93.75,Pipsorang Circle,Arunachal Pradesh,IN
28.25,93.25,Damin Circle,Arunachal Pradesh,IN
28.25,96.0,Hunli SDO,Arunachal Pradesh,IN
28.25,92.5,Jorra,Tibet,CN
28.25,92.75,Chayul Township,Tibet,CN
28.25,93.0,Damin Circle,Arunachal Pradesh,IN
28.25,94.5,Darak Circle,Arunachal Pradesh,IN
28.25,94.0,Taliha ADC,Arunachal Pradesh,IN
28.25,81.5,Bansgadi,,NP
28.25,95.0,Rebo Perging Circle,Arunachal Pradesh,IN
28.25,94.25,Taliha ADC,Arunachal Pradesh,IN
28.5,77.0,Gurugram,Haryana,IN
28.5,72.25,Khajuwala Tehsil,Rajasthan,IN
28.5,76.75,Jhajjar,Haryana,IN
28.5,76.0,Badhra,Haryana,IN
28.5,73.0,Poogal Tehsil,Rajasthan,IN
28.25,96.25,Desali Circle,Arunachal Pradesh,IN
28.5,72.0,Yazman Tehsil,Punjab,PK
28.25,95.25,Katan Circle,Arunachal Pradesh,IN
28.5,74.75,Sardarshahar Tehsil,Rajasthan,IN
28.5,74.25,Sardarshahar Tehsil,Rajasthan,IN
28.5,76.25,Dadri,Haryana,IN
28.5,77.5,Greater Noida,Uttar Pradesh,IN
28.5,77.75,Sikandrabad,Uttar Pradesh,IN
28.5,77.25,Kalkaji Tehsil,Delhi,IN
28.5,78.25,Anupshahr,Uttar Pradesh,IN
28.5,78.0,Siana,Uttar Pradesh,IN
28.5,78.5,Sambhal,Uttar Pradesh,IN
28.5,79.5,Nawabganj,Uttar Pradesh,IN
28.5,94.5,Tato,Arunachal Pradesh,IN
28.5,80.5,Palia,Uttar Pradesh,IN
28.5,93.5,Limeking Circle,Arunachal Pradesh,IN
28.5,96.5,Zayul County,Tibet,CN
28.5,95.5,Dambuk ADC,Arunachal Pradesh,IN
28.5,80.0,Puranpur,Uttar Pradesh,IN
28.5,78.75,Chandausi,Uttar Pradesh,IN
28.5,80.75,Palia,Uttar Pradesh,IN
28.5,81.0,Bhajani-Trishakti,,NP
28.75,75.75,Tosham,Haryana,IN
28.5,93.75,Nacho SDO,Arunachal Pradesh,IN
28.75,75.0,Taranagar Tehsil,Rajasthan,IN
28.75,75.5,Rajgarh Tehsil,Rajasthan,IN
28.5,81.25,Bardiya National Park,,NP
28.75,76.25,Bhiwani,Haryana,IN
28.5,79.75,Nawabganj,Uttar Pradesh,IN
28.5,80.25,Puranpur,Uttar Pradesh,IN
28.75,76.0,Bhiwani,Haryana,IN
28.75,73.5,Lunkaransar Tehsil,Rajasthan,IN
28.75,74.25,Sardarshahar Tehsil,Rajasthan,IN
28.5,79.25,Meerganj,Uttar Pradesh,IN
28.75,73.25,Chhatargarh Tehsil,Rajasthan,IN
28.5,93.0,Doyul township,Tibet,CN
28.75,74.0,Lunkaransar Tehsil,Rajasthan,IN
28.5,94.0,Siyum ADC,Arunachal Pradesh,IN
28.5,94.25,Mechuka ADC,Arunachal Pradesh,IN
28.5,79.0,Shahabad,Uttar Pradesh,IN
28.5,96.0,Kronli (Arzoo circle),Arunachal Pradesh,IN
28.75,74.75,Taranagar Tehsil,Rajasthan,IN
28.5,96.25,Desali Circle,Arunachal Pradesh,IN
28.75,74.5,Sardarshahar Tehsil,Rajasthan,IN
28.75,72.5,Khajuwala Tehsil,Rajasthan,IN
28.5,94.75,Boleng ADC,Arunachal Pradesh,IN
28.5,95.75,Anelih,Arunachal Pradesh,IN
28.5,95.0,Riga EAC,Arunachal Pradesh,IN
28.5,95.25,Mariyang ADC,Arunachal Pradesh,IN
28.5,93.25,Taksing Circle,Arunachal Pradesh,IN
28.75,72.75,Khajuwala Tehsil,Rajasthan,IN
28.75,75.25,Rajgarh Tehsil,Rajasthan,IN
28.5,97.0,Zayul County,Tibet,CN
28.75,72.25,Yazman Tehsil,Punjab,PK
28.75,73.75,Lunkaransar Tehsil,Rajasthan,IN
28.5,96.75,Chaglagam Circle,Arunachal Pradesh,IN
28.75,73.0,Rawla Mandi Tehsil,Rajasthan,IN
28.75,76.5,Kalanaur,Haryana,IN
28.75,77.0,Kanjhawalan Tehsil,Delhi,IN
28.75,77.25,Karawal Nagar Tehsil,Delhi,IN
28.75,76.75,Bahadurgarh,Haryana,IN
28.75,78.25,Hasanpur,Uttar Pradesh,IN
28.75,78.75,Bilari,Uttar Pradesh,IN
28.75,77.5,Modinagar,Uttar Pradesh,IN
28.75,77.75,Hapur,Uttar Pradesh,IN
28.75,78.0,Garhmukteshwar,Uttar Pradesh,IN
28.75,78.5,Sambhal,Uttar Pradesh,IN
28.75,79.0,Rampur,Uttar Pradesh,IN
28.75,79.75,Pilibhit,Uttar Pradesh,IN
28.75,96.25,Etalin Circle,Arunachal Pradesh,IN
28.75,96.5,Etalin Circle,Arunachal Pradesh,IN
28.75,80.5,Raikawar Bichawa,,NP
29.0,72.25,Yazman Tehsil,Punjab,PK
29.0,75.5,Bhadra Tehsil,Rajasthan,IN
29.0,73.5,Chhatargarh Tehsil,Rajasthan,IN
29.0,76.5,Lakhan Majra,Haryana,IN
29.0,74.75,Nohar Tehsil,Rajasthan,IN
29.0,76.0,Bawani Khera,Haryana,IN
28.75,95.0,Yingkiong Circle,Arunachal Pradesh,IN
29.0,74.5,Nohar Tehsil,Rajasthan,IN
28.75,94.25,Monigong EAC,Arunachal Pradesh,IN
28.75,80.75,Chaumala,,NP
28.75,79.25,Milak,Uttar Pradesh,IN
29.0,72.5,Fort Abbas Tehsil,Punjab,PK
28.75,94.0,Mechuka ADC,Arunachal Pradesh,IN
29.0,72.75,Fort Abbas Tehsil,Punjab,PK
29.0,75.25,Bhadra Tehsil,Rajasthan,IN
29.0,74.0,Suratgarh Tehsil,Rajasthan,IN
28.75,93.25,Gyemdong,Tibet,CN
28.75,95.5,Etalin Circle,Arunachal Pradesh,IN
28.75,80.0,Khatīma,Uttarakhand,IN
28.75,79.5,Baheri,Uttar Pradesh,IN
28.75,93.5,Gyemdong,Tibet,CN
28.75,94.75,Migging Circle,Arunachal Pradesh,IN
28.75,95.25,Singa Circle,Arunachal Pradesh,IN
28.75,80.25,Puranpur,Uttar Pradesh,IN
29.0,75.75,Hisar,Haryana,IN
28.75,96.0,Anini Circle,Arunachal Pradesh,IN
29.0,73.25,Anupgarh Tehsil,Rajasthan,IN
29.0,73.75,Lunkaransar Tehsil,Rajasthan,IN
28.75,93.75,Nelung,Tibet,CN
29.0,74.25,Rawatsar Tehsil,Rajasthan,IN
28.75,94.5,Payum Circle,Arunachal Pradesh,IN
29.0,75.0,Bhadra Tehsil,Rajasthan,IN
29.0,76.25,Maham,Haryana,IN
28.75,95.75,Etalin Circle,Arunachal Pradesh,IN
29.0,73.0,Gharsana Tehsil,Rajasthan,IN
29.0,77.0,Sonipat,Haryana,IN
29.0,76.75,Gohana,Haryana,IN
29.0,77.25,Baghpat,Uttar Pradesh,IN
29.0,77.5,Meerut,Uttar Pradesh,IN
29.0,77.75,Meerut,Uttar Pradesh,IN
29.0,78.0,Mawana,Uttar Pradesh,IN
29.0,79.25,Gadarpur,Uttarakhand,IN
29.0,78.75,Thakurdwara,Uttar Pradesh,IN
29.0,78.25,Dhanaura,Uttar Pradesh,IN
29.0,79.0,Tanda,Uttar Pradesh,IN
29.0,78.5,Amroha,Uttar Pradesh,IN
29.25,77.0,Samalkha,Haryana,IN
29.25,75.0,Nohar Tehsil,Rajasthan,IN
29.0,95.5,Etalin Circle,Arunachal Pradesh,IN
29.25,76.75,Gohana,Haryana,IN
29.25,72.75,Fort Abbas Tehsil,Punjab,PK
29.25,75.25,Bhadra Tehsil,Rajasthan,IN
29.25,73.5,Vijayanagar Tehsil,Rajasthan,IN
29.25,78.75,Thakurdwara,Uttar Pradesh,IN
29.25,78.0,Mawana,Uttar Pradesh,IN
29.25,74.75,Nohar Tehsil,Rajasthan,IN
29.25,75.75,Hisar,Haryana,IN
29.25,76.25,Jind,Haryana,IN
29.0,95.0,Tuting ADC,Arunachal Pradesh,IN
29.25,78.5,Dhampur,Uttar Pradesh,IN
29.25,73.0,Fort Abbas Tehsil,Punjab,PK
29.25,76.5,Phillukhera,Haryana,IN
29.0,94.5,Tuting ADC,Arunachal Pradesh,IN
29.0,94.75,Tuting ADC,Arunachal Pradesh,IN
29.0,94.25,South Yiloba Ethnic Township,Tibet,CN
29.25,75.5,Adampur,Haryana,IN
29.0,94.0,Nelung,Tibet,CN
29.0,96.0,Anini Circle,Arunachal Pradesh,IN
29.25,77.5,Budhana,Uttar Pradesh,IN
29.25,73.25,Anupgarh Tehsil,Rajasthan,IN
29.0,79.5,Rudrapur,Uttarakhand,IN
29.25,74.25,Rawatsar Tehsil,Rajasthan,IN
29.25,73.75,Suratgarh Tehsil,Rajasthan,IN
29.0,96.5,Zayul County,Tibet,CN
29.0,96.25,Etalin Circle,Arunachal Pradesh,IN
29.25,78.25,Bijnor,Uttar Pradesh,IN
29.25,77.75,Khatauli,Uttar Pradesh,IN
29.25,74.5,Rawatsar Tehsil,Rajasthan,IN
29.0,79.75,Sitarganj,Uttarakhand,IN
29.0,95.75,Mipi Circle,Arunachal Pradesh,IN
29.25,79.5,Nainital,Uttarakhand,IN
29.25,77.25,Baraut,Uttar Pradesh,IN
29.25,76.0,Hansi,Haryana,IN
29.0,80.0,Khatīma,Uttarakhand,IN
29.25,74.0,Suratgarh Tehsil,Rajasthan,IN
29.25,79.75,Dhari,Uttarakhand,IN
29.0,95.25,Etalin Circle,Arunachal Pradesh,IN
29.25,79.25,Kaladhungi,Uttarakhand,IN
29.25,79.0,Kashipur,Uttarakhand,IN
29.25,80.0,Purnagiri,Uttarakhand,IN
29.25,94.25,Mainling Township,Tibet,CN
29.25,80.25,Champawat,Uttarakhand,IN
29.25,94.5,Qanag,Tibet,CN
29.25,95.0,Drepung,Tibet,CN
29.25,94.0,Tashi Rabten,Tibet,CN
29.25,94.75,Drepung,Tibet,CN
29.5,73.5,Raisinghnagar Tehsil,Rajasthan,IN
29.5,75.5,Fatehabad,Haryana,IN
29.5,74.5,Tibi Tehsil,Rajasthan,IN
29.5,77.5,Muzaffarnagar,Uttar Pradesh,IN
29.5,94.5,Linzhi,Tibet,CN
29.5,78.5,Nagina,Uttar Pradesh,IN
29.5,76.5,Alewa,Haryana,IN
29.5,79.5,Kosya Kutauli,Uttarakhand,IN
29.5,78.75,Kotdwara,Uttarakhand,IN
29.25,96.5,Zayul County,Tibet,CN
29.5,78.0,Bijnor,Uttar Pradesh,IN
29.5,80.0,Bhanoli,Uttarakhand,IN
29.75,73.0,Chishtian Sharif,Punjab,PK
29.25,96.25,Zayul County,Tibet,CN
29.5,74.75,Ellenabad,Haryana,IN
29.5,75.0,Sirsa,Haryana,IN
29.5,74.25,Hanumangarh,Rajasthan,IN
29.5,73.75,Padampur Tehsil,Rajasthan,IN
29.25,95.75,Mipi Circle,Arunachal Pradesh,IN
29.75,73.25,Bahāwalnagar District,Punjab,PK
29.5,77.0,Gharaunda,Haryana,IN
29.5,73.25,Raisinghnagar Tehsil,Rajasthan,IN
29.5,75.25,Nathusari Chopta,Haryana,IN
29.5,96.25,Yupug,Tibet,CN
29.5,79.75,Lamgara Tehsil,Uttarakhand,IN
29.5,73.0,Haroonabad Tehsil,Punjab,PK
29.25,96.0,Mipi Circle,Arunachal Pradesh,IN
29.5,80.25,Pithoragarh Tehsil,Uttarakhand,IN
29.25,95.25,Medog Township,Tibet,CN
29.25,95.5,Medog Township,Tibet,CN
29.5,76.75,Assandh,Haryana,IN
29.5,96.0,Gutang,Tibet,CN
29.5,77.75,Muzaffarnagar,Uttar Pradesh,IN
29.5,79.0,Ramnagar,Uttarakhand,IN
29.5,76.0,Narwana,Haryana,IN
29.5,78.25,Najibabad,Uttar Pradesh,IN
29.5,74.0,Pilibanga Tehsil,Rajasthan,IN
29.5,75.75,Bhuna,Haryana,IN
29.5,76.25,Uchana,Haryana,IN
29.5,77.25,Shamli,Uttar Pradesh,IN
29.5,95.5,帮辛乡,Tibet,CN
29.5,79.25,Nainital,Uttarakhand,IN
29.5,95.75,Gutang,Tibet,CN
29.75,73.5,Karanpur Tehsil,Rajasthan,IN
29.75,74.0,Sadulshahar Tehsil,Rajasthan,IN
29.75,73.75,Padampur Tehsil,Rajasthan,IN
29.75,74.75,Dabwali,Haryana,IN
29.75,74.25,Hanumangarh Tehsil,Rajasthan,IN
29.75,74.5,Dabwali,Haryana,IN
29.75,75.0,Goriwala,Haryana,IN
29.75,75.5,Ratia,Haryana,IN
29.75,77.0,Karnal,Haryana,IN
29.75,76.0,Moonak Tahsil,Punjab,IN
29.75,75.25,Sardulgarh Tahsil,Punjab,IN
29.75,76.25,Kalayat,Haryana,IN
29.75,76.5,Kaithal,Haryana,IN
29.75,76.75,Nissang,Haryana,IN
29.75,75.75,Jakhal,Haryana,IN
29.75,77.75,Deoband,Uttar Pradesh,IN
30.0,76.0,Sunam Tahsil,Punjab,IN
29.75,77.25,Nakur,Uttar Pradesh,IN
29.75,78.25,Hardwar,Uttarakhand,IN
30.0,73.75,Sri Ganganagar,Rajasthan,IN
29.75,80.25,Didihat,Uttarakhand,IN
30.0,74.75,Bathinda Tahsil,Punjab,IN
30.0,74.25,Abohar,Punjab,IN
30.0,76.75,Kurukshetra,Haryana,IN
30.0,76.25,Guhla,Haryana,IN
30.0,75.75,Sunam Tahsil,Punjab,IN
29.75,78.0,Laksar,Uttarakhand,IN
30.0,78.0,Hardwar,Uttarakhand,IN
30.0,75.5,Mansa Tahsil,Punjab,IN
29.75,78.75,Lansdowne,Uttarakhand,IN
30.0,77.25,Radaur,Haryana,IN
30.0,77.0,Ladwa,Haryana,IN
30.0,76.5,Pehowa,Haryana,IN
29.75,79.25,Bhikiasain,Uttarakhand,IN
29.75,77.5,Rampur Maniharan,Uttar Pradesh,IN
30.0,75.25,Talwandi Sabo Tahsil,Punjab,IN
29.75,78.5,Kotdwara,Uttarakhand,IN
29.75,80.0,Gangolihat,Uttarakhand,IN
30.0,77.5,Saharanpur,Uttar Pradesh,IN
30.0,79.5,Garud,Uttarakhand,IN
29.75,79.5,Dwarahat,Uttarakhand,IN
30.0,75.0,Talwandi Sabo Tahsil,Punjab,IN
30.0,78.5,Yamkeshwar,Uttarakhand,IN
30.0,74.5,Malout Tahsil,Punjab,IN
30.0,78.75,Pauri,Uttarakhand,IN
30.0,78.25,Yamkeshwar,Uttarakhand,IN
30.0,79.75,Kapkot,Uttarakhand,IN
30.0,74.0,Abohar Tahsil,Punjab,IN
30.0,77.75,Saharanpur,Uttar Pradesh,IN
30.0,73.25,Bahawalnagar,Punjab,PK
29.75,79.0,Dhoomakot,Uttarakhand,IN
30.0,73.5,Minchinabad Tehsil,Punjab,PK
30.0,79.25,Gairsain,Uttarakhand,IN
30.0,79.0,Thailisain,Uttarakhand,IN
30.0,80.0,Kapkot,Uttarakhand,IN
30.0,80.25,Munsiari tehsil,Uttarakhand,IN
30.25,74.25,Abohar,Punjab,IN
30.25,73.75,Minchinabad Tehsil,Punjab,PK
30.0,80.5,Dharchula district (India),Uttarakhand,IN
30.25,74.5,Malout Tahsil,Punjab,IN
30.25,74.0,Fazilka Tahsil,Punjab,IN
30.25,73.5,Pakpattan,Punjab,PK
30.25,74.75,Bathinda Tahsil,Punjab,IN
30.25,75.0,Bathinda,Punjab,IN
30.5,74.5,Sri Muktsar Sahib,Punjab,IN
30.5,76.5,Rajpura Tahsil,Punjab,IN
30.5,77.5,Paonta Sahib,Himachal Pradesh,IN
30.5,75.5,Barnala,Punjab,IN
29.75,79.75,Bāgeshwar,Uttarakhand,IN
30.5,78.5,Pratapnagar,Uttarakhand,IN
30.5,79.5,Joshimath Tehsil,Uttarakhand,IN
30.25,75.5,Tapa,Punjab,IN
30.25,75.25,Rampura Phul Tahsil,Punjab,IN
30.25,77.0,Barara,Haryana,IN
30.25,76.0,Sangrur Tahsil,Punjab,IN
30.25,76.5,Patiala Tahsil,Punjab,IN
30.25,79.5,Chamoli Tehsil,Uttarakhand,IN
30.25,79.75,Tharali,Uttarakhand,IN
30.25,77.25,Saraswati Nagar,Haryana,IN
30.25,78.75,Devprayag,Uttarakhand,IN
30.5,75.25,Rampura Phul Tahsil,Punjab,IN
30.5,74.0,Fazilka Tahsil,Punjab,IN
30.25,76.75,Ambala,Haryana,IN
30.25,75.75,Sangrur Tahsil,Punjab,IN
30.25,77.5,Chhachhrauli,Haryana,IN
30.5,76.25,Nabha Tahsil,Punjab,IN
30.25,76.25,Patiala Tahsil,Punjab,IN
30.25,78.0,Dehradun,Uttarakhand,IN
30.25,79.25,Karnaprayag,Uttarakhand,IN
30.25,80.5,Dharchula district (India),Uttarakhand,IN
30.25,78.25,Rishikesh,Uttarakhand,IN
30.25,80.25,Munsiari tehsil,Uttarakhand,IN
30.5,77.25,Nahan,Himachal Pradesh,IN
30.25,80.0,Kapkot,Uttarakhand,IN
30.5,73.75,Depalpur Tehsil,Punjab,PK
30.25,78.5,Narendra Nagar,Uttarakhand,IN
30.5,76.0,Malerkotla,Punjab,IN
30.25,77.75,Behat,Uttar Pradesh,IN
30.5,74.25,Jalalabad Tahsil,Punjab,IN
30.5,77.0,Raipur Rani,Haryana,IN
30.5,75.0,Bagha Purana Tahsil,Punjab,IN
30.25,81.0,Dharchula district (India),Uttarakhand,IN
30.25,79.0,Rudraprayag,Uttarakhand,IN
30.5,76.75,Rajpura Tahsil,Punjab,IN
30.25,80.75,Dharchula district (India),Uttarakhand,IN
30.5,74.75,Kotkapura Tahsil,Punjab,IN
30.5,75.75,Dhuri Tahsil,Punjab,IN
30.5,77.75,Paonta Sahib,Himachal Pradesh,IN
30.5,80.5,Daba,Tibet,CN
30.5,78.25,Dhanaulti,Uttarakhand,IN
30.5,78.75,Ghansali,Uttarakhand,IN
30.5,79.75,Joshimath Tehsil,Uttarakhand,IN
30.5,78.0,Dhanaulti,Uttarakhand,IN
30.5,79.25,Chamoli Tehsil,Uttarakhand,IN
30.5,79.0,Jakholi,Uttarakhand,IN
30.5,80.75,Purang,Tibet,CN
30.5,80.25,Munsiari tehsil,Uttarakhand,IN
30.5,80.0,Joshimath Tehsil,Uttarakhand,IN
30.75,74.0,Depalpur Tehsil,Punjab,PK
30.75,74.25,Chunian Tehsil,Punjab,PK
30.75,74.75,Faridkot,Punjab,IN
30.75,74.5,Faridkot Tahsil,Punjab,IN
30.75,75.0,Bagha Purana Tahsil,Punjab,IN
30.75,75.25,Moga,Punjab,IN
30.75,77.75,Tyuni,Uttarakhand,IN
30.75,75.5,Jagraon Tahsil,Punjab,IN
31.0,76.0,Ludhiana (East) Tahsil,Punjab,IN
30.75,76.0,Payal Tahsil,Punjab,IN
30.75,77.0,Kalka,Haryana,IN
31.0,75.25,Dharamkot Tahsil,Punjab,IN
30.75,79.25,Bhatwari,Uttarakhand,IN
30.75,79.0,Ghansali,Uttarakhand,IN
31.0,74.5,Kasur,Punjab,PK
31.0,74.75,Firozpur,Punjab,IN
31.0,75.0,Zira Tahsil,Punjab,IN
31.0,77.25,Junga,Himachal Pradesh,IN
31.0,74.25,Kasur Tehsil,Punjab,PK
31.0,77.0,Solan,Himachal Pradesh,IN
30.75,75.75,Ludhiana (East) Tahsil,Punjab,IN
31.0,76.5,Balachaur Tahsil,Punjab,IN
30.75,80.25,Daba,Tibet,CN
30.75,79.5,Joshimath Tehsil,Uttarakhand,IN
30.75,78.5,Bhatwari,Uttarakhand,IN
30.75,77.25,Pachhad,Himachal Pradesh,IN
31.0,76.25,Samrala Tahsil,Punjab,IN
30.75,78.25,Dunda,Uttarakhand,IN
30.75,76.25,Khanna,Punjab,IN
30.75,76.5,Chamkaur Sahib Tahsil,Punjab,IN
30.75,79.75,Joshimath Tehsil,Uttarakhand,IN
31.0,75.75,Ludhiana,Punjab,IN
30.75,77.5,Renuka,Himachal Pradesh,IN
31.0,76.75,Baddi,Himachal Pradesh,IN
30.75,80.0,Joshimath Tehsil,Uttarakhand,IN
31.0,77.75,Nerua,Himachal Pradesh,IN
31.0,75.5,Nakodar Tahsil,Punjab,IN
31.0,77.5,Chaupal,Himachal Pradesh,IN
30.75,76.75,Chandigarh,,IN
30.75,78.0,Chakrata,Uttarakhand,IN
30.75,78.75,Bhatwari,Uttarakhand,IN
31.0,78.0,Mori,Uttarakhand,IN
31.0,78.75,Bhatwari,Uttarakhand,IN
31.0,79.25,Bhatwari,Uttarakhand,IN
31.0,79.0,Bhatwari,Uttarakhand,IN
31.0,78.25,Puraula,Uttarakhand,IN
31.0,78.5,Rajgarhi,Uttarakhand,IN
31.0,79.5,Joshimath Tehsil,Uttarakhand,IN
31.0,80.0,Daba,Tibet,CN
31.0,79.75,Joshimath Tehsil,Uttarakhand,IN
31.25,74.5,Kasur,Punjab,PK
31.5,74.5,Lahore Cantonment Tehsil,Punjab,PK
31.5,75.5,Bhulath Tahsil,Punjab,IN
31.5,76.5,Barsar,Himachal Pradesh,IN
31.5,78.5,Moorang,Himachal Pradesh,IN
31.5,77.5,Ani,Himachal Pradesh,IN
31.25,75.0,Tarn Taran Tahsil,Punjab,IN
31.25,75.75,Phagwara Tahsil,Punjab,IN
31.25,75.5,Jalandhar II Tahsil,Punjab,IN
31.25,77.0,Darlaghat,Himachal Pradesh,IN
31.25,78.0,Chirgaon,Himachal Pradesh,IN
31.25,75.25,Sultanpur Lodhi Tahsil,Punjab,IN
31.25,77.75,Rohru,Himachal Pradesh,IN
31.25,74.75,Patti Tahsil,Punjab,IN
31.25,76.75,Bilaspur,Himachal Pradesh,IN
31.25,77.5,Nankhari,Himachal Pradesh,IN
31.25,76.25,Garhshankar Tahsil,Punjab,IN
31.25,76.5,Anandpur Sahib Tahsil,Punjab,IN
31.25,76.0,Garhshankar Tahsil,Punjab,IN
31.25,78.25,Dodra Kwar,Himachal Pradesh,IN
31.25,77.25,Seoni,Himachal Pradesh,IN
31.25,78.5,Sangla,Himachal Pradesh,IN
31.25,79.0,Bhatwari,Uttarakhand,IN
31.5,75.0,Khadur Sahib Tahsil,Punjab,IN
31.25,79.5,Thoding Township,Tibet,CN
31.5,74.75,Tarn Taran Tahsil,Punjab,IN
31.25,79.25,Sarang,Tibet,CN
31.25,78.75,Sangla,Himachal Pradesh,IN
31.5,75.25,Khadur Sahib Tahsil,Punjab,IN
31.5,77.75,Rampur,Himachal Pradesh,IN
31.75,74.5,Ferozewala Tehsil,Punjab,PK
31.5,79.0,Sarang,Tibet,CN
31.5,75.75,Hoshiarpur,Punjab,IN
31.5,76.0,Hoshiarpur,Punjab,IN
31.5,77.0,Chachyot,Himachal Pradesh,IN
31.5,78.25,Kalpa,Himachal Pradesh,IN
31.5,78.0,Nichar,Himachal Pradesh,IN
31.5,78.75,Sarang,Tibet,CN
31.5,76.75,Bilaspur,Himachal Pradesh,IN
31.5,77.25,Thunag,Himachal Pradesh,IN
31.5,76.25,Una,Himachal Pradesh,IN
31.75,74.75,Ajnala Tahsil,Punjab,IN
31.75,75.75,Dasua Tahsil,Punjab,IN
31.75,75.25,Batala,Punjab,IN
31.75,75.5,Batala Tahsil,Punjab,IN
31.75,77.0,Mandi,Himachal Pradesh,IN
31.75,75.0,Amritsar II Tahsil,Punjab,IN
31.75,76.5,Tira Sujanpur,Himachal Pradesh,IN
31.75,77.25,Sainj,Himachal Pradesh,IN
31.75,76.25,Rakkar,Himachal Pradesh,IN
31.75,76.75,Sarkaghat,Himachal Pradesh,IN
31.75,76.0,Amb,Himachal Pradesh,IN
31.75,77.5,Sainj,Himachal Pradesh,IN
31.75,78.25,Moorang,Himachal Pradesh,IN
31.75,77.75,Nichar,Himachal Pradesh,IN
31.75,78.0,Nichar,Himachal Pradesh,IN
32.0,74.5,Muridke Tehsil,Punjab,PK
31.75,78.5,Poo district,Himachal Pradesh,IN
31.75,78.75,Diyag,Tibet,CN
32.0,74.75,Narowal,Punjab,PK
32.0,76.5,Palampur,Himachal Pradesh,IN
32.0,76.0,Dera Gopipur,Himachal Pradesh,IN
32.0,77.0,Kullu,Himachal Pradesh,IN
32.0,75.75,Mukerian Tahsil,Punjab,IN
32.0,75.25,Gurdaspur Tahsil,Punjab,IN
32.5,75.5,Kathua,Jammu and Kashmir,IN
32.0,76.25,Kangra,Himachal Pradesh,IN
32.5,76.5,Brahmaur,Himachal Pradesh,IN
32.0,77.25,Kullu,Himachal Pradesh,IN
32.0,75.0,Dera Baba Nanak Tahsil,Punjab,IN
32.0,78.5,Hangrang,Himachal Pradesh,IN
32.0,78.0,Spiti,Himachal Pradesh,IN
32.0,77.5,Kullu,Himachal Pradesh,IN
32.0,75.5,Gurdaspur Tahsil,Punjab,IN
32.0,76.75,Jogindarnagar,Himachal Pradesh,IN
32.0,77.75,Kullu,Himachal Pradesh,IN
32.0,78.25,Spiti,Himachal Pradesh,IN
32.25,76.25,Dharamshala,Himachal Pradesh,IN
32.25,75.25,Shakar Garh,Punjab,PK
32.25,74.75,Pasrur,Punjab,PK
32.25,75.5,Pathankot,Punjab,IN
32.25,75.0,Shakargarh Tehsil,Punjab,PK
32.25,76.0,Jawali,Himachal Pradesh,IN
32.25,75.75,Nurpur,Himachal Pradesh,IN
32.25,76.5,Holi,Himachal Pradesh,IN
32.0,78.75,Hangrang,Himachal Pradesh,IN
32.25,77.0,Multhan,Himachal Pradesh,IN
32.25,77.25,Manali,Himachal Pradesh,IN
32.25,76.75,Holi,Himachal Pradesh,IN
32.25,78.0,Spiti,Himachal Pradesh,IN
32.25,77.75,Spiti,Himachal Pradesh,IN
32.25,77.5,Lahul,Himachal Pradesh,IN
32.25,78.25,Spiti,Himachal Pradesh,IN
32.5,77.5,Lahul,Himachal Pradesh,IN
32.25,78.5,Spiti,Himachal Pradesh,IN
32.5,75.0,Samba District,Jammu and Kashmir,IN
32.5,77.0,Lahul,Himachal Pradesh,IN
32.5,76.75,Brahmaur,Himachal Pradesh,IN
32.5,76.0,Bhattiyat,Himachal Pradesh,IN
32.5,74.75,Ranbir Singh Pora,Jammu and Kashmir,IN
32.5,75.25,Samba District,Jammu and Kashmir,IN
32.5,76.25,Chamba,Himachal Pradesh,IN
32.5,75.75,Bashohli,Jammu and Kashmir,IN
32.5,78.5,Tsosib Sumkyil,Tibet,CN
32.5,77.25,Lahul,Himachal Pradesh,IN
32.5,77.75,Spiti,Himachal Pradesh,IN
32.5,78.0,Spiti,Himachal Pradesh,IN
32.5,78.25,Spiti,Himachal Pradesh,IN
32.5,78.75,Tsosib Sumkyil,Tibet,CN
32.75,74.5,Sialkot Tehsil,Punjab,PK
32.75,78.25,Leh Tehsil,Ladakh,IN
32.75,74.75,Jammu,Jammu and Kashmir,IN
32.75,77.5,Lahul,Himachal Pradesh,IN
32.75,77.0,Lahul,Himachal Pradesh,IN
32.75,76.25,Chaurah,Himachal Pradesh,IN
33.0,76.5,Pangi,Himachal Pradesh,IN
33.0,76.75,Pangi,Himachal Pradesh,IN
33.0,74.5,Akhnoor,Jammu and Kashmir,IN
32.75,78.75,Leh Tehsil,Ladakh,IN
33.0,74.0,Bhimber District,Azad Kashmir,PK
33.0,76.25,Pangi,Himachal Pradesh,IN
33.0,75.0,Reasi,Jammu and Kashmir,IN
33.0,73.75,Jhelum,Punjab,PK
32.75,78.5,Leh Tehsil,Ladakh,IN
32.75,79.25,Leh Tehsil,Ladakh,IN
32.75,78.0,Leh Tehsil,Ladakh,IN
32.75,75.75,Bani,Jammu and Kashmir,IN
33.0,75.5,Doda,Jammu and Kashmir,IN
32.75,77.75,Spiti,Himachal Pradesh,IN
32.75,79.5,Zhaxigang,Tibet,CN
32.75,75.5,Billawar,Jammu and Kashmir,IN
32.75,76.75,Udaipur,Himachal Pradesh,IN
32.5,79.0,Leh Tehsil,Ladakh,IN
33.0,76.0,Gandoh,Jammu and Kashmir,IN
33.0,75.75,Bhaderwah,Jammu and Kashmir,IN
32.75,79.0,Leh Tehsil,Ladakh,IN
32.75,76.0,Saluni,Himachal Pradesh,IN
32.75,76.5,Udaipur,Himachal Pradesh,IN
32.75,77.25,Lahul,Himachal Pradesh,IN
33.0,74.25,Bhimber District,Azad Kashmir,PK
32.75,75.25,Ramnagar,Jammu and Kashmir,IN
32.75,75.0,Jammu,Jammu and Kashmir,IN
33.0,74.75,Akhnoor,Jammu and Kashmir,IN
33.0,75.25,Chenani,Jammu and Kashmir,IN
33.0,77.0,Zanskar tehsil,Ladakh,IN
33.0,77.25,Zanskar tehsil,Ladakh,IN
33.0,78.25,Leh Tehsil,Ladakh,IN
33.0,77.5,Leh Tehsil,Ladakh,IN
33.0,79.25,Roksum Township,Tibet,CN
33.0,78.75,Leh Tehsil,Ladakh,IN
33.0,79.0,Leh Tehsil,Ladakh,IN
33.0,78.0,Leh Tehsil,Ladakh,IN
33.0,79.5,Roksum Township,Tibet,CN
33.0,78.5,Leh Tehsil,Ladakh,IN
33.0,77.75,Leh Tehsil,Ladakh,IN
33.25,73.5,Tehsil Gujar Khan,Punjab,PK
33.25,73.75,Mirpur,Azad Kashmir,PK
33.5,74.5,Darhal,Jammu and Kashmir,IN
33.5,76.5,Atholi (Paddar),Jammu and Kashmir,IN
33.5,75.5,Chhatroo,Jammu and Kashmir,IN
33.5,73.5,Tehsil Kallar Syedan,Punjab,PK
33.25,74.0,Kotli District,Azad Kashmir,PK
33.5,77.5,Leh Tehsil,Ladakh,IN
33.25,74.25,Rajauri,Jammu and Kashmir,IN
33.5,78.5,Leh Tehsil,Ladakh,IN
33.25,74.5,Kalakote,Jammu and Kashmir,IN
33.25,76.0,Kishtwar,Jammu and Kashmir,IN
33.25,75.5,Doda,Jammu and Kashmir,IN
33.25,74.75,Gool-Gulabgarh,Jammu and Kashmir,IN
33.5,75.75,Chhatroo,Jammu and Kashmir,IN
33.25,75.25,Ramban,Jammu and Kashmir,IN
33.5,77.25,Zanskar tehsil,Ladakh,IN
33.25,77.0,Zanskar tehsil,Ladakh,IN
33.5,76.75,Zanskar tehsil,Ladakh,IN
33.25,76.5,Atholi (Paddar),Jammu and Kashmir,IN
33.25,75.0,Gool-Gulabgarh,Jammu and Kashmir,IN
33.25,79.25,Rutog Township,Tibet,CN
33.5,74.25,Rajauri,Jammu and Kashmir,IN
33.5,75.0,Gool-Gulabgarh,Jammu and Kashmir,IN
33.5,77.0,Zanskar tehsil,Ladakh,IN
33.25,76.75,Zanskar tehsil,Ladakh,IN
33.5,74.0,Kotli District,Azad Kashmir,PK
33.25,75.75,Kishtwar,Jammu and Kashmir,IN
33.25,79.0,Leh Tehsil,Ladakh,IN
33.5,76.25,Atholi (Paddar),Jammu and Kashmir,IN
33.25,78.75,Leh Tehsil,Ladakh,IN
33.25,78.0,Leh Tehsil,Ladakh,IN
33.25,78.25,Leh Tehsil,Ladakh,IN
33.25,77.25,Zanskar tehsil,Ladakh,IN
33.25,76.25,Atholi (Paddar),Jammu and Kashmir,IN
33.25,77.5,Leh Tehsil,Ladakh,IN
33.5,76.0,Marwah,Jammu and Kashmir,IN
33.25,77.75,Leh Tehsil,Ladakh,IN
33.25,78.5,Leh Tehsil,Ladakh,IN
33.5,73.75,Kotli District,Azad Kashmir,PK
33.5,74.75,Damhal Hanjipora,Jammu and Kashmir,IN
33.5,75.25,Dooru tehsil,Jammu and Kashmir,IN
33.5,78.0,Leh Tehsil,Ladakh,IN
33.5,79.0,Rutog Township,Tibet,CN
33.5,78.25,Leh Tehsil,Ladakh,IN
33.75,73.5,Kotli Sattian Tehsil,Punjab,PK
33.5,77.75,Leh Tehsil,Ladakh,IN
33.5,78.75,Leh Tehsil,Ladakh,IN
33.75,73.75,Poonch District,Azad Kashmir,PK
33.5,79.25,Rutog Township,Tibet,CN
33.75,74.0,Poonch District,Azad Kashmir,PK
33.75,74.25,Surankote tehsil,Jammu and Kashmir,IN
33.75,74.5,Khansahib tehsil,Jammu and Kashmir,IN
33.75,75.25,Anantnag,Jammu and Kashmir,IN
33.75,75.0,Kulgam,Jammu and Kashmir,IN
33.75,74.75,Shopian District,Jammu and Kashmir,IN
33.75,75.5,Marwah,Jammu and Kashmir,IN
33.75,76.0,Marwah,Jammu and Kashmir,IN
33.75,76.25,Marwah,Jammu and Kashmir,IN
33.75,75.75,Marwah,Jammu and Kashmir,IN
33.75,76.5,Zanskar tehsil,Ladakh,IN
33.75,76.75,Zanskar tehsil,Ladakh,IN
34.0,75.25,Pahalgam,Jammu and Kashmir,IN
34.0,78.5,Nubra,Ladakh,IN
34.0,75.0,Pampore,Jammu and Kashmir,IN
34.0,76.0,Sankoo tehsil,Ladakh,IN
34.0,74.5,Khag tehsil,Jammu and Kashmir,IN
34.0,74.75,Badgam tehsil,Jammu and Kashmir,IN
33.75,79.0,Domar,Tibet,CN
33.75,78.75,Leh Tehsil,Ladakh,IN
33.75,77.0,Leh Tehsil,Ladakh,IN
34.0,73.5,Tehsil Murree,Punjab,PK
34.0,76.5,Sankoo tehsil,Ladakh,IN
34.0,74.0,Haveli District,Azad Kashmir,PK
33.75,78.25,Leh Tehsil,Ladakh,IN
33.75,77.25,Leh Tehsil,Ladakh,IN
33.75,77.5,Leh Tehsil,Ladakh,IN
34.0,74.25,Haveli District,Azad Kashmir,PK
34.0,78.0,Leh Tehsil,Ladakh,IN
34.0,73.75,Bagh District,Azad Kashmir,PK
34.0,78.25,Leh Tehsil,Ladakh,IN
34.0,77.25,Leh Tehsil,Ladakh,IN
34.0,76.25,Sankoo tehsil,Ladakh,IN
33.75,77.75,Leh Tehsil,Ladakh,IN
33.75,78.0,Leh Tehsil,Ladakh,IN
34.0,75.5,Marwah,Jammu and Kashmir,IN
34.0,75.75,Marwah,Jammu and Kashmir,IN
34.0,77.0,Leh Tehsil,Ladakh,IN
34.0,77.5,Leh Tehsil,Ladakh,IN
34.0,76.75,Khalsi tehsil,Ladakh,IN
34.0,77.75,Leh Tehsil,Ladakh,IN
33.75,78.5,Leh Tehsil,Ladakh,IN
34.25,73.5,Muzaffarabad,Azad Kashmir,PK
34.0,79.0,Domar,Tibet,CN
34.0,78.75,Domar,Tibet,CN
34.25,73.75,Jhelum Valley District,Azad Kashmir,PK
34.25,74.0,Boniyar,Jammu and Kashmir,IN
34.25,74.25,Rafiabad,Jammu and Kashmir,IN
34.25,75.25,Kangan,Jammu and Kashmir,IN
34.25,75.0,Kangan,Jammu and Kashmir,IN
34.25,74.75,Lar,Jammu and Kashmir,IN
34.25,75.5,Kargil Tehsil,Ladakh,IN
34.25,76.0,Sankoo tehsil,Ladakh,IN
34.25,75.75,Sankoo tehsil,Ladakh,IN
34.25,76.25,Sankoo tehsil,Ladakh,IN
34.5,75.5,Kargil Tehsil,Ladakh,IN
34.5,78.5,Nubra,Ladakh,IN
34.5,73.5,Muzaffarabad,Azad Kashmir,PK
34.5,77.5,Nubra,Ladakh,IN
34.5,76.5,Kargil Tehsil,Ladakh,IN
34.5,74.5,Bandipora,Jammu and Kashmir,IN
34.25,76.5,Kargil Tehsil,Ladakh,IN
34.5,79.5,Hotan County,Xinjiang,CN
34.25,77.0,Khalsi tehsil,Ladakh,IN
34.25,76.75,Khalsi tehsil,Ladakh,IN
34.25,77.25,Leh Tehsil,Ladakh,IN
34.25,77.5,Leh Tehsil,Ladakh,IN
34.25,74.5,Sopore,Jammu and Kashmir,IN
34.25,79.25,Domar,Tibet,CN
34.5,77.25,Nubra,Ladakh,IN
34.5,74.0,Kupwara,Jammu and Kashmir,IN
34.5,74.25,Handwara,Jammu and Kashmir,IN
34.5,76.75,Khalsi tehsil,Ladakh,IN
34.5,75.75,Kargil Tehsil,Ladakh,IN
34.5,78.75,Hotan County,Xinjiang,CN
34.25,78.5,Nubra,Ladakh,IN
34.5,74.75,Bandipora,Jammu and Kashmir,IN
34.5,76.25,Kargil Tehsil,Ladakh,IN
34.5,75.25,Gurez,Jammu and Kashmir,IN
34.5,77.0,Nubra,Ladakh,IN
34.25,78.75,Nubra,Ladakh,IN
34.5,75.0,Gurez,Jammu and Kashmir,IN
34.5,73.25,Mānsehra District,Khyber Pakhtunkhwa,PK
34.25,79.5,Domar,Tibet,CN
34.25,77.75,Nubra,Ladakh,IN
34.5,76.0,Kargil Tehsil,Ladakh,IN
34.5,78.0,Nubra,Ladakh,IN
34.25,79.0,Domar,Tibet,CN
34.5,73.75,Neelam Valley District,Azad Kashmir,PK
34.25,78.25,Nubra,Ladakh,IN
34.5,78.25,Nubra,Ladakh,IN
34.5,79.25,Hotan County,Xinjiang,CN
34.5,79.75,Hotan County,Xinjiang,CN
34.25,78.0,Nubra,Ladakh,IN
34.5,77.75,Nubra,Ladakh,IN
34.5,79.0,Hotan County,Xinjiang,CN
34.75,73.25,Battagram District,Khyber Pakhtunkhwa,PK
34.75,74.0,Neelam Valley District,Azad Kashmir,PK
34.75,73.5,Mānsehra District,Khyber Pakhtunkhwa,PK
34.75,74.25,Neelam Valley District,Azad Kashmir,PK
34.75,73.75,Neelam Valley District,Azad Kashmir,PK
34.75,74.75,Neelam Valley District,Azad Kashmir,PK
34.75,75.25,Astore,Gilgit-Baltistan,PK
34.75,74.5,Kupwara,Jammu and Kashmir,IN
34.75,75.0,Astore,Gilgit-Baltistan,PK
34.75,76.75,Nubra,Ladakh,IN
34.75,76.0,Kharmang,Gilgit-Baltistan,PK
34.75,75.75,Skardu,Gilgit-Baltistan,PK
34.75,75.5,Skardu,Gilgit-Baltistan,PK
34.75,76.25,Kharmang,Gilgit-Baltistan,PK
34.75,76.5,Khalsi tehsil,Ladakh,IN
34.75,77.0,Nubra,Ladakh,IN
34.75,77.25,Nubra,Ladakh,IN
34.75,78.0,Nubra,Ladakh,IN
34.75,77.75,Nubra,Ladakh,IN
34.75,77.5,Nubra,Ladakh,IN
34.75,78.25,Hotan County,Xinjiang,CN
34.75,79.0,Hotan County,Xinjiang,CN
34.75,78.5,Hotan County,Xinjiang,CN
35.0,73.75,Kohistān District,Khyber Pakhtunkhwa,PK
34.75,79.5,Hotan County,Xinjiang,CN
34.75,80.0,Dongru,Tibet,CN
34.75,78.75,Hotan County,Xinjiang,CN
34.75,79.25,Hotan County,Xinjiang,CN
35.0,74.0,Kohistān District,Khyber Pakhtunkhwa,PK
35.0,74.5,Neelam Valley District,Azad Kashmir,PK
35.0,74.25,Neelam Valley District,Azad Kashmir,PK
34.75,79.75,Hotan County,Xinjiang,CN
35.0,75.75,Kharmang,Gilgit-Baltistan,PK
35.0,75.25,Skardu,Gilgit-Baltistan,PK
35.0,76.0,Kharmang,Gilgit-Baltistan,PK
35.0,75.5,Skardu,Gilgit-Baltistan,PK
35.0,74.75,Neelam Valley District,Azad Kashmir,PK
35.0,77.0,Nubra,Ladakh,IN
35.0,75.0,Astore,Gilgit-Baltistan,PK
35.0,77.75,Nubra,Ladakh,IN
35.0,78.25,Hotan County,Xinjiang,CN
35.0,78.0,Nubra,Ladakh,IN
35.0,76.25,Kharmang,Gilgit-Baltistan,PK
35.0,79.0,Hotan County,Xinjiang,CN
35.0,76.75,Ghanche,Gilgit-Baltistan,PK
35.0,77.25,Nubra,Ladakh,IN
35.0,78.75,Hotan County,Xinjiang,CN
35.0,76.5,Ghanche,Gilgit-Baltistan,PK
35.0,79.25,Hotan County,Xinjiang,CN
35.0,78.5,Hotan County,Xinjiang,CN
35.0,77.5,Nubra,Ladakh,IN
35.0,79.75,Hotan County,Xinjiang,CN
35.25,73.75,Diāmir District,Gilgit-Baltistan,PK
35.0,79.5,Hotan County,Xinjiang,CN
35.0,80.0,Hotan County,Xinjiang,CN
35.25,74.5,Diāmir District,Gilgit-Baltistan,PK
35.25,74.0,Diāmir District,Gilgit-Baltistan,PK
35.25,74.25,Diāmir District,Gilgit-Baltistan,PK
35.25,74.75,Astore,Gilgit-Baltistan,PK
35.25,75.0,Astore,Gilgit-Baltistan,PK
35.25,76.5,Ghanche,Gilgit-Baltistan,PK
35.25,75.25,Skardu,Gilgit-Baltistan,PK
35.25,76.25,Ghanche,Gilgit-Baltistan,PK
35.25,75.5,Skardu,Gilgit-Baltistan,PK
35.25,76.0,Ghanche,Gilgit-Baltistan,PK
35.25,75.75,Skardu,Gilgit-Baltistan,PK
35.5,73.5,Kohistān District,Khyber Pakhtunkhwa,PK
35.25,76.75,Ghanche,Gilgit-Baltistan,PK
35.5,75.5,Baltistān District,Gilgit-Baltistan,PK
35.5,74.5,Diāmir District,Gilgit-Baltistan,PK
35.5,78.5,Hotan County,Xinjiang,CN
35.5,76.5,Ghanche,Gilgit-Baltistan,PK
35.5,77.5,Kargilik County,Xinjiang,CN
35.5,79.5,Hotan County,Xinjiang,CN
35.25,77.5,Nubra,Ladakh,IN
35.25,77.25,Nubra,Ladakh,IN
35.25,77.0,Nubra,Ladakh,IN
35.25,77.75,Nubra,Ladakh,IN
35.25,78.0,Nubra,Ladakh,IN
35.25,79.0,Hotan County,Xinjiang,CN
35.25,78.5,Hotan County,Xinjiang,CN
35.25,78.75,Hotan County,Xinjiang,CN
35.25,79.5,Hotan County,Xinjiang,CN
35.25,78.25,Hotan County,Xinjiang,CN
35.25,79.25,Hotan County,Xinjiang,CN
35.25,79.75,Hotan County,Xinjiang,CN
35.5,73.75,Kohistān District,Khyber Pakhtunkhwa,PK
35.25,80.0,Hotan County,Xinjiang,CN
35.5,74.75,Astore,Gilgit-Baltistan,PK
35.5,74.0,Diāmir District,Gilgit-Baltistan,PK
35.5,74.25,Diāmir District,Gilgit-Baltistan,PK
35.5,75.0,Skardu,Gilgit-Baltistan,PK
35.5,76.75,Shigar,Gilgit-Baltistan,PK
35.5,75.25,Skardu,Gilgit-Baltistan,PK
35.5,77.25,Nubra,Ladakh,IN
35.5,77.0,Nubra,Ladakh,IN
35.5,75.75,Baltistān District,Gilgit-Baltistan,PK
35.5,77.75,Kargilik County,Xinjiang,CN
35.5,76.0,Baltistān District,Gilgit-Baltistan,PK
35.5,76.25,Ghanche,Gilgit-Baltistan,PK
35.5,78.0,Pishan County,Xinjiang,CN
35.5,78.25,Hotan County,Xinjiang,CN
35.5,78.75,Hotan County,Xinjiang,CN
35.5,79.25,Hotan County,Xinjiang,CN
35.5,79.0,Hotan County,Xinjiang,CN
35.5,79.75,Hotan County,Xinjiang,CN
35.5,80.25,Hotan County,Xinjiang,CN
35.75,73.0,Khyber Pakhtunkhwa,Khyber Pakhtunkhwa,PK
35.5,80.0,Hotan County,Xinjiang,CN
35.75,73.25,Gilgit-Baltistan,Gilgit-Baltistan,PK
35.75,73.75,Gilgit-Baltistan,Gilgit-Baltistan,PK
35.75,74.0,Diāmir District,Gilgit-Baltistan,PK
35.75,73.5,Gilgit-Baltistan,Gilgit-Baltistan,PK
35.75,74.25,Gilgit District,Gilgit-Baltistan,PK
35.75,74.75,Astore,Gilgit-Baltistan,PK
35.75,74.5,Gilgit District,Gilgit-Baltistan,PK
35.75,75.0,Skardu,Gilgit-Baltistan,PK
35.75,76.25,Baltistān District,Gilgit-Baltistan,PK
35.75,76.5,Baltistān District,Gilgit-Baltistan,PK
35.75,75.5,Baltistān District,Gilgit-Baltistan,PK
35.75,75.75,Baltistān District,Gilgit-Baltistan,PK
35.75,76.0,Baltistān District,Gilgit-Baltistan,PK
35.75,75.25,Skardu,Gilgit-Baltistan,PK
35.75,76.75,Dafdar,Xinjiang,CN
35.75,77.0,Dafdar,Xinjiang,CN
35.75,77.75,Kargilik County,Xinjiang,CN
35.75,77.25,Kargilik County,Xinjiang,CN
35.75,78.0,Pishan County,Xinjiang,CN
35.75,78.25,Pishan County,Xinjiang,CN
35.75,78.5,Hotan County,Xinjiang,CN
35.75,78.75,Hotan County,Xinjiang,CN
35.75,80.25,Hotan County,Xinjiang,CN
35.75,79.0,Hotan County,Xinjiang,CN
35.75,79.25,Hotan County,Xinjiang,CN
36.0,73.0,Gilgit-Baltistan,Gilgit-Baltistan,PK
35.75,80.0,Hotan County,Xinjiang,CN
36.0,72.5,Upper Chitral District,Khyber Pakhtunkhwa,PK
36.0,72.75,Gilgit-Baltistan,Gilgit-Baltistan,PK
35.75,79.75,Hotan County,Xinjiang,CN
35.75,79.5,Hotan County,Xinjiang,CN
36.0,73.25,Gilgit-Baltistan,Gilgit-Baltistan,PK
36.0,73.75,Gilgit District,Gilgit-Baltistan,PK
36.0,73.5,Gilgit-Baltistan,Gilgit-Baltistan,PK
36.0,74.75,Gilgit District,Gilgit-Baltistan,PK
36.0,74.0,Gilgit District,Gilgit-Baltistan,PK
36.0,74.25,Gilgit,Gilgit-Baltistan,PK
36.0,74.5,Gilgit District,Gilgit-Baltistan,PK
36.0,75.0,Shigar,Gilgit-Baltistan,PK
36.0,75.5,Shigar,Gilgit-Baltistan,PK
36.0,76.25,Dafdar,Xinjiang,CN
36.0,76.5,Dafdar,Xinjiang,CN
36.0,75.25,Shigar,Gilgit-Baltistan,PK
36.0,76.75,Dafdar,Xinjiang,CN
36.0,76.0,Baltistān District,Gilgit-Baltistan,PK
36.0,75.75,Baltistān District,Gilgit-Baltistan,PK
36.0,77.0,Kargilik County,Xinjiang,CN
36.0,79.0,Hotan County,Xinjiang,CN
36.0,78.5,Pishan County,Xinjiang,CN
36.0,78.75,Hotan County,Xinjiang,CN
36.0,79.25,Hotan County,Xinjiang,CN
36.0,79.5,Hotan County,Xinjiang,CN
36.25,72.5,Upper Chitral District,Khyber Pakhtunkhwa,PK
36.0,79.75,Hotan County,Xinjiang,CN
36.25,72.75,Gilgit-Baltistan,Gilgit-Baltistan,PK
36.0,80.0,Hotan County,Xinjiang,CN
36.25,73.0,Gilgit-Baltistan,Gilgit-Baltistan,PK
36.25,73.25,Gilgit-Baltistan,Gilgit-Baltistan,PK
36.5,72.5,Upper Chitral District,Khyber Pakhtunkhwa,PK
36.5,73.5,Gilgit-Baltistan,Gilgit-Baltistan,PK
36.25,74.0,Gilgit District,Gilgit-Baltistan,PK
36.5,74.5,Hunza,Gilgit-Baltistan,PK
36.5,75.5,Gilgit-Baltistan,Gilgit-Baltistan,PK
36.25,73.5,Gilgit-Baltistan,Gilgit-Baltistan,PK
36.25,74.75,Gilgit District,Gilgit-Baltistan,PK
36.25,73.75,Gilgit District,Gilgit-Baltistan,PK
36.25,74.25,Gilgit District,Gilgit-Baltistan,PK
36.25,74.5,Hunza,Gilgit-Baltistan,PK
36.25,75.0,Nagar,Gilgit-Baltistan,PK
36.25,75.25,Nagar,Gilgit-Baltistan,PK
36.25,75.5,Hunza,Gilgit-Baltistan,PK
36.25,76.0,Hunza,Gilgit-Baltistan,PK
36.25,75.75,Hunza,Gilgit-Baltistan,PK
36.25,76.25,Dafdar,Xinjiang,CN
36.25,76.5,Dafdar,Xinjiang,CN
36.25,76.75,Dafdar,Xinjiang,CN
36.5,72.75,Upper Chitral District,Khyber Pakhtunkhwa,PK
36.5,73.0,Gilgit-Baltistan,Gilgit-Baltistan,PK
36.5,73.25,Gilgit-Baltistan,Gilgit-Baltistan,PK
36.5,74.0,Gilgit District,Gilgit-Baltistan,PK
36.5,74.75,Hunza,Gilgit-Baltistan,PK
36.5,74.25,Gilgit District,Gilgit-Baltistan,PK
36.5,73.75,Gilgit District,Gilgit-Baltistan,PK
36.5,75.75,Hunza,Gilgit-Baltistan,PK
36.5,75.25,Hunza,Gilgit-Baltistan,PK
36.5,75.0,Hunza,Gilgit-Baltistan,PK
36.5,76.0,Dafdar,Xinjiang,CN
36.75,74.5,Hunza,Gilgit-Baltistan,PK
36.75,74.0,Gilgit District,Gilgit-Baltistan,PK
36.75,73.25,Upper Chitral District,Khyber Pakhtunkhwa,PK
36.75,73.0,Upper Chitral District,Khyber Pakhtunkhwa,PK
36.5,76.25,Dafdar,Xinjiang,CN
36.75,74.25,Hunza,Gilgit-Baltistan,PK
36.75,73.75,Upper Chitral District,Khyber Pakhtunkhwa,PK
36.75,74.75,Hunza,Gilgit-Baltistan,PK
36.75,73.5,Upper Chitral District,Khyber Pakhtunkhwa,PK
36.75,75.0,Hunza,Gilgit-Baltistan,PK
36.75,75.25,Hunza,Gilgit-Baltistan,PK
36.75,75.5,Dafdar,Xinjiang,CN
36.75,75.75,Dafdar,Xinjiang,CN
37.0,73.5,Wakhan District,Badakhshan Province,AF
37.0,73.75,Wakhan District,Badakhshan Province,AF
37.0,74.5,Wakhan District,Badakhshan Province,AF
37.0,74.0,Wakhan District,Badakhshan Province,AF
37.0,74.25,Wakhan District,Badakhshan Province,AF
37.0,74.75,Hunza,Gilgit-Baltistan,PK
37.0,75.25,Dafdar,Xinjiang,CN
37.0,75.0,Dafdar,Xinjiang,CN
37.0,75.5,Dafdar,Xinjiang,CN
37.25,74.5,Wakhan District,Badakhshan Province,AF
37.25,75.25,Dafdar,Xinjiang,CN
37.25,74.75,Dafdar,Xinjiang,CN
37.25,75.0,Dafdar,Xinjiang,CN
